{"type":"FeatureCollection","features":[{"type":"Feature","properties":{"birdlifeId":"22714757","scientificName":"Acrocephalus griseldis","rangeType":"breeding","speciesId":"avibase-0D42A253","speciesName":"Basra Reed Warbler","speciesLatin":"Acrocephalus griseldis"},"geometry":{"type":"MultiPolygon","coordinates":[[[[45.0915,33.6125],[46.0461,32.4962],[46.5757,32.261],[47.6617,31.2595],[48.2448,32.0053],[48.7231,31.8576],[48.8634,31.4096],[48.6431,30.7287],[48.8871,30.4652],[48.8471,30.3244],[48.9181,30.0428],[47.3053,29.927],[46.8994,30.3834],[46.3649,30.4052],[46.2762,30.8331],[45.2041,31.0011],[44.5482,31.34],[44.4052,31.6852],[44.5415,32.945],[43.48,33.1366],[43.323,34.2479],[43.5686,34.5369],[44.016,34.6097],[44.617,34.0748],[45.0121,34.5543],[45.4417,34.4901],[45.0915,33.6125]]],[[[48.1371,29.6785],[48.2722,29.6248],[48.2211,29.5943],[48.1371,29.6785]]],[[[48.0434,29.3254],[48.3921,28.6055],[47.6897,28.7843],[47.3374,29.7386],[48.0932,29.6962],[48.1519,29.5491],[47.726,29.4627],[48.0434,29.3254]]],[[[34.8823,29.8508],[35.0167,29.8379],[35.0034,29.7037],[34.8823,29.8508]]],[[[48.8996,30.2659],[48.9073,30.26],[48.9035,30.2609],[48.8996,30.2659]]],[[[48.899,30.2655],[48.8992,30.2654],[48.8991,30.2654],[48.899,30.2655]]],[[[48.8882,30.2723],[48.8904,30.2718],[48.886,30.2726],[48.8882,30.2723]]],[[[35.7199,33.2495],[35.5281,32.4166],[35.2309,32.1707],[35.0061,32.748],[35.7199,33.2495]]]]}},{"type":"Feature","properties":{"birdlifeId":"22714757","scientificName":"Acrocephalus griseldis","rangeType":"wintering","speciesId":"avibase-0D42A253","speciesName":"Basra Reed Warbler","speciesLatin":"Acrocephalus griseldis"},"geometry":{"type":"MultiPolygon","coordinates":[[[[38.0851,-7.1492],[37.4194,-6.717],[37.0129,-5.9954],[37.3068,-5.5074],[38.0815,-5.2622],[38.3943,-4.9741],[38.5196,-4.3374],[38.1105,-3.6178],[38.2501,-2.9808],[38.6765,-2.6922],[39.1214,-2.8314],[39.6298,-2.6099],[39.2618,-0.7139],[39.413,-0.4278],[39.7378,-0.3111],[40.4646,-0.844],[40.6672,-1.5347],[41.1192,-1.9482],[40.8477,-1.9753],[40.9098,-2.006],[40.8565,-2.0731],[40.9087,-2.0743],[40.9809,-2.2502],[40.9603,-2.3029],[40.7709,-2.2536],[40.7634,-2.4459],[40.1891,-2.7287],[40.1239,-3.2695],[39.7795,-3.5841],[39.8026,-3.8821],[39.566,-4.0444],[39.4074,-4.6286],[39.2037,-4.6489],[38.9456,-5.4015],[38.8268,-6.4235],[39.4904,-6.888],[39.3779,-7.2211],[38.0851,-7.1492]]],[[[35.4921,-16.7756],[35.9598,-17.0772],[36.0407,-17.5927],[35.8381,-17.9656],[34.9277,-17.8561],[34.7075,-17.99],[34.5246,-17.8345],[34.5243,-17.451],[34.9231,-17.2859],[34.9501,-17.0648],[35.1447,-16.8582],[35.4921,-16.7756]],[[35.0592,-17.0221],[35.0685,-17.0006],[35.0575,-17.0133],[35.0592,-17.0221]],[[35.2967,-17.0153],[35.3067,-17.0674],[35.3062,-17.0384],[35.2967,-17.0153]]],[[[37.3516,-0.5761],[37.3428,-0.9909],[36.9852,-1.4162],[36.3986,-1.4129],[36.1531,-0.6924],[36.6149,-0.2003],[36.9971,-0.2116],[37.3516,-0.5761]]],[[[39.1206,-9.7429],[39.6219,-9.5084],[39.7161,-9.9988],[40.1134,-10.2787],[40.2359,-10.2112],[40.422,-10.4074],[39.8873,-10.804],[39.2544,-10.7723],[38.9887,-10.5772],[39.1206,-9.7429]]],[[[28.8333,-25.6982],[28.388,-25.6735],[28.0679,-25.3567],[28.0594,-24.944],[28.3335,-24.6557],[28.767,-24.5976],[29.2506,-25.0439],[28.8333,-25.6982]]],[[[44.4828,1.5247],[44.1863,1.9943],[44.7846,2.5495],[45.9348,2.3803],[44.4828,1.5247]]],[[[35.2335,-14.9996],[35.3147,-14.6893],[35.4713,-15.0676],[35.2216,-15.9611],[34.7919,-15.6081],[34.6347,-14.7411],[34.781,-14.5414],[35.1158,-14.5229],[35.2335,-14.9996]]],[[[35.6146,-11.8101],[35.2247,-11.477],[35.5571,-11.0872],[35.9477,-11.4203],[35.6146,-11.8101]],[[35.4825,-11.5982],[35.5468,-11.6092],[35.5608,-11.6086],[35.5681,-11.6078],[35.5723,-11.6072],[35.5733,-11.6071],[35.4825,-11.5982]],[[35.9016,-11.4275],[35.8452,-11.413],[35.8338,-11.4151],[35.8305,-11.4162],[35.8292,-11.4166],[35.8285,-11.4169],[35.9016,-11.4275]]],[[[40.4342,-10.4828],[40.4471,-10.4745],[40.445,-10.4767],[40.4342,-10.4828]]],[[[39.0845,-5.2187],[39.0837,-5.2229],[39.0784,-5.2205],[39.0845,-5.2187]]],[[[39.9739,-10.1458],[39.9757,-10.1416],[39.9778,-10.1504],[39.9739,-10.1458]]],[[[39.2063,-4.6759],[39.2064,-4.6749],[39.2078,-4.6772],[39.2063,-4.6759]]],[[[39.0463,-6.481],[39.0464,-6.4811],[39.0461,-6.481],[39.0463,-6.481]]]]}}]}