{"type":"FeatureCollection","features":[{"type":"Feature","properties":{"birdlifeId":"22682860","scientificName":"Coracias garrulus","rangeType":"breeding","speciesId":"avibase-7451A628","speciesName":"European Roller","speciesLatin":"Coracias garrulus"},"geometry":{"type":"MultiPolygon","coordinates":[[[[31.4565,46.6377],[31.6075,46.8137],[31.5915,46.8515],[31.4125,46.6255],[30.7709,46.5525],[30.4721,46.0763],[30.2475,45.8861],[29.7277,45.5873],[29.8807,45.6781],[29.7401,45.6157],[29.6389,45.8317],[29.7681,45.3337],[29.6147,44.8629],[29.0967,44.7571],[28.6561,44.3397],[28.5911,43.4949],[28.0973,43.3753],[27.9071,43.1937],[27.9071,42.7097],[27.4577,42.4895],[27.7347,42.4139],[28.2241,41.5321],[29.1131,41.2445],[28.9971,41.0187],[27.5215,40.9829],[27.3177,40.7109],[26.7097,40.4619],[26.1953,40.0447],[26.2191,40.3245],[26.8201,40.6537],[26.1193,40.6041],[25.9525,40.8507],[25.1413,41.0119],[24.8033,40.8527],[24.4335,40.9463],[23.7037,40.6991],[24.4043,40.1457],[23.9437,40.3641],[23.7421,40.3601],[23.7841,40.1999],[24.0033,40.1143],[23.9367,39.9397],[23.6639,40.2313],[23.3469,40.2323],[23.7109,39.9095],[23.3605,39.9569],[23.3195,40.2317],[22.8273,40.4853],[22.9921,40.5487],[22.8945,40.6487],[22.6013,40.4915],[22.5555,40.1507],[23.1389,39.4445],[21.9675,39.1691],[20.5743,39.1509],[20.2825,39.3319],[19.8727,40.0411],[19.4811,40.2217],[19.3033,40.4277],[19.4953,40.3575],[19.3229,40.6563],[19.5361,40.9129],[19.4013,41.4145],[19.6013,41.8139],[19.1739,41.9389],[19.0681,42.1325],[18.6847,42.3867],[18.5463,42.4167],[18.7061,42.3947],[18.7585,42.4905],[18.5123,42.4585],[18.5259,42.3937],[17.8927,42.7883],[17.5043,42.8543],[17.3533,42.9835],[17.4755,42.9107],[17.6899,42.8555],[17.7145,42.8773],[16.8851,43.3997],[15.9719,43.4981],[15.9559,43.6865],[15.8479,43.7791],[17.3243,43.4511],[19.0291,42.4143],[19.5287,42.6635],[20.3589,42.3513],[20.6477,42.6889],[20.5547,42.8745],[19.3111,43.0749],[18.7491,43.6369],[18.1641,43.4093],[17.8769,43.4863],[15.6403,44.9045],[15.5477,44.7151],[16.0723,44.1253],[15.9651,43.8083],[15.6957,43.7701],[15.1411,44.1947],[15.2713,44.3325],[15.6259,44.1373],[14.9801,44.5859],[14.8447,45.1133],[14.5435,45.3037],[14.3315,45.3543],[13.9067,44.7709],[13.4937,45.4851],[13.7597,45.5461],[13.7039,45.7177],[14.7529,45.8821],[15.8043,46.9071],[16.5951,47.1761],[16.5853,46.9019],[16.0909,46.8187],[16.1551,46.6013],[17.9545,45.8533],[18.0903,46.1029],[18.6875,46.2685],[19.7015,47.5325],[20.7077,48.2441],[20.8995,48.8249],[20.7441,49.6577],[18.8077,50.8135],[18.2779,51.6897],[18.2293,52.3973],[18.5957,52.9147],[20.2055,53.7073],[20.1125,54.1691],[19.8055,54.4449],[20.4121,54.6809],[19.9045,54.6343],[19.9723,54.9549],[20.7037,55.0785],[21.0427,55.3987],[21.0891,55.7245],[21.0461,55.3289],[20.8431,55.1493],[20.5281,54.9683],[21.2519,54.9533],[21.3219,55.2987],[20.9951,56.5087],[21.0661,56.8333],[21.4097,57.0363],[21.6959,57.5621],[22.6089,57.7617],[23.2643,57.0923],[23.6563,56.9641],[24.3745,57.2163],[24.3434,57.7397],[24.4355,57.7581],[24.9177,57.8899],[26.5497,57.4164],[27.7587,57.6078],[27.9904,58.9678],[28.4859,59.8343],[30.2805,59.8011],[32.6953,60.5589],[35.4213,59.7355],[37.3063,59.4611],[39.4477,58.4637],[43.1619,57.5079],[44.9241,57.1525],[48.0631,56.9043],[52.8307,55.7065],[52.8444,55.1978],[51.0963,54.2194],[51.1649,53.7387],[51.5076,53.3925],[55.3124,52.7508],[57.5404,51.8678],[58.5002,51.2064],[58.5345,50.7571],[57.8147,50.3523],[55.4153,51.0016],[54.0442,50.9608],[53.5643,50.7571],[53.0501,50.1512],[52.7073,47.3415],[52.2259,46.8031],[51.7043,46.8721],[51.7731,46.7943],[51.7495,46.7257],[51.5439,46.8419],[51.6293,46.9451],[51.2665,47.0185],[51.0332,48.2434],[50.8193,48.541],[48.2691,48.5223],[47.1667,47.9844],[47.2819,47.5983],[48.1539,46.8885],[48.7629,45.7919],[48.6387,45.6365],[48.7399,45.7967],[48.5477,45.9565],[48.4485,45.8515],[48.5175,45.6807],[48.4329,45.8465],[48.3589,45.8231],[48.4199,45.5969],[47.8541,45.7229],[47.8693,45.4747],[47.6601,45.6461],[47.1949,44.8389],[46.7819,44.6911],[46.6855,44.4581],[46.7777,44.3559],[47.2235,44.2261],[47.5219,43.7769],[47.7403,43.9119],[47.4655,43.0053],[48.3569,41.9497],[48.9771,41.4731],[49.5435,40.6315],[50.0625,40.5917],[50.3573,40.3557],[50.3635,40.1957],[50.2255,40.3497],[49.8529,40.3721],[49.4163,40.0865],[49.2779,39.4961],[49.4393,39.2739],[49.2569,39.3175],[49.1961,39.0229],[49.1005,38.9389],[49.2083,39.0891],[49.0141,39.2167],[48.8215,38.8679],[48.9327,37.9009],[49.2243,37.5557],[50.1955,37.3871],[50.3357,37.1235],[51.1015,36.7349],[51.9119,36.5723],[54.0201,36.9475],[53.5767,36.8121],[54.0241,36.8067],[54.0395,36.9451],[53.8141,37.8147],[53.8603,38.1908],[55.0479,38.6741],[55.7335,39.4713],[56.1448,39.458],[58.4607,38.2371],[60.8459,37.8031],[61.8069,38.1547],[62.0263,38.5851],[61.8019,39.1217],[59.8303,40.9412],[57.1597,41.0799],[56.5455,41.6293],[57.7301,44.7737],[58.6515,46.065],[59.4566,46.9215],[60.8551,47.8798],[63.0762,48.6217],[65.462,49.0438],[67.642,48.9027],[68.9994,48.3422],[69.9454,46.9215],[71.2206,45.6254],[73.3183,44.8792],[73.8119,44.8792],[73.9765,45.7139],[74.8814,45.8911],[76.6501,45.6696],[76.8146,46.4712],[78.7067,46.516],[80.1464,47.239],[82.203,47.1936],[82.9445,46.7148],[84.7576,47.0331],[84.5606,47.3608],[82.7378,48.0181],[80.5989,49.7554],[80.2287,50.1873],[80.1875,50.5745],[80.6811,50.9648],[82.9846,50.5745],[84.6438,49.8457],[85.2569,48.6859],[85.0839,47.7023],[85.6145,47.5832],[85.8284,47.209],[84.1242,46.2346],[84.083,45.7603],[83.7266,45.3631],[81.8619,45.0707],[81.5602,44.7942],[81.807,44.418],[84.0693,43.7439],[84.5629,43.4451],[84.5081,43.0913],[77.9682,41.3192],[75.9732,41.0644],[72.8108,39.3788],[72.3474,38.4772],[72.4634,37.318],[72.639,37.067],[73.9333,36.8191],[74.394,36.3666],[74.6573,35.9167],[74.6792,35.449],[74.4598,35.0849],[73.9114,34.9235],[73.4507,35.0243],[73.2313,35.4085],[72.7487,35.449],[71.8187,35.9705],[70.0439,36.367],[68.4123,35.7923],[64.916,35.2849],[64.3402,34.542],[64.566,33.553],[65.0801,33.4018],[65.985,33.4761],[66.506,32.9822],[66.9722,32.8837],[68.0213,33.3351],[68.9196,34.3917],[69.3172,34.6047],[69.9342,34.7051],[71.3465,34.4543],[71.0174,33.9922],[70.2222,33.8554],[70.2359,33.3593],[69.4132,32.7801],[69.4544,31.5329],[69.0046,30.9914],[68.1929,30.9625],[67.302,31.2465],[65.1759,31.4942],[63.2289,31.4458],[62.6256,31.2522],[61.9126,30.5297],[61.3916,29.4795],[61.4739,28.8403],[61.2545,28.4633],[60.1302,27.8067],[58.4301,27.8769],[53.1247,28.8763],[51.9389,29.5667],[50.6711,30.8553],[47.8629,30.5387],[45.2937,31.1771],[44.2327,31.7921],[43.4475,32.9727],[41.8599,33.9977],[38.5979,35.0843],[35.9011,35.0311],[35.9241,35.4237],[35.7273,35.5843],[35.9901,36.0109],[35.7943,36.3273],[36.2187,36.6517],[36.0297,36.9331],[35.3505,36.5431],[34.6563,36.8061],[33.9599,36.2131],[33.8789,36.3137],[33.6941,36.1319],[32.8081,36.0191],[32.0261,36.5441],[31.0427,36.8575],[30.6213,36.8479],[30.4047,36.2003],[30.1875,36.3051],[29.6809,36.1215],[29.1063,36.3883],[29.0959,36.6821],[28.9287,36.7547],[28.8477,36.5903],[28.4611,36.8821],[28.2693,36.8561],[28.0341,36.5635],[28.1199,36.8077],[27.6775,36.6595],[27.3667,36.6851],[28.0341,36.7889],[28.3325,37.0459],[27.4245,37.0363],[27.2653,36.9681],[27.2545,37.1269],[27.4705,37.0839],[27.5777,37.1379],[27.6133,37.2745],[27.1907,37.3551],[27.2169,37.5887],[27.1615,37.6225],[27.0069,37.6661],[27.2399,37.7329],[27.2721,37.9663],[26.2343,38.2759],[26.2861,38.3791],[26.3825,38.3159],[26.5125,38.4199],[26.4157,38.6823],[26.6783,38.3159],[27.1683,38.4501],[26.7229,38.6533],[27.0655,38.8811],[26.6107,39.2815],[26.6717,39.2855],[26.8575,39.4451],[26.8603,39.4803],[26.9403,39.4941],[26.9373,39.5753],[26.0639,39.4855],[26.1829,40.0001],[26.7141,40.3949],[27.2881,40.4803],[27.7691,40.3183],[27.7815,40.5359],[28.0373,40.4893],[27.9603,40.3611],[29.0599,40.3707],[29.1553,40.4453],[28.7841,40.5415],[29.9457,40.7497],[29.2659,40.8119],[29.0171,41.0217],[29.1573,41.2247],[31.2333,41.1041],[32.2901,41.7285],[33.3441,42.0255],[34.7169,41.9469],[35.0179,42.0937],[35.2943,41.7095],[36.0593,41.6895],[36.4031,41.2501],[36.8119,41.3575],[37.5155,41.0253],[37.6883,41.1343],[38.3549,40.9089],[39.4215,41.1053],[40.1825,40.9125],[41.4015,41.3779],[41.7557,41.7731],[41.4333,42.7391],[40.2939,43.1719],[38.7799,44.2821],[36.6011,45.1861],[36.9877,45.2805],[36.6247,45.3025],[36.7901,45.4361],[37.5301,45.3759],[37.9481,46.0127],[38.1463,45.9979],[38.2897,46.2643],[37.7041,46.7001],[38.5931,46.6593],[38.3945,46.7215],[38.4989,46.8751],[39.3005,47.0199],[39.2143,47.2791],[38.0963,47.0245],[37.5905,47.0963],[36.1159,46.4863],[36.2453,46.6395],[35.9217,46.6567],[35.4545,46.4343],[35.1831,46.1423],[34.9913,46.0819],[35.2225,46.1895],[35.3581,46.3533],[35.1689,46.4961],[34.8091,46.1655],[35.3353,45.3821],[36.6481,45.3761],[36.4775,45.3517],[36.3735,45.0577],[35.5351,45.1239],[33.9657,44.3949],[33.7401,44.3917],[33.3819,44.5889],[33.4395,44.5735],[33.5453,44.6259],[33.5851,45.0543],[32.9941,45.3259],[33.0281,45.3169],[33.0649,45.3771],[33.1373,45.3937],[33.2607,45.4733],[33.2575,45.4959],[32.9465,45.3593],[32.9873,45.3289],[32.4837,45.3893],[33.1771,45.8073],[33.6865,45.8493],[33.5945,46.1637],[33.5121,46.0349],[33.2279,46.2221],[32.5313,46.0745],[31.7801,46.2733],[32.0659,46.3947],[31.7089,46.4371],[31.5389,46.5483],[31.5149,46.5785],[32.0109,46.4915],[32.3441,46.4641],[32.4241,46.4903],[31.9973,46.6465],[31.9751,46.8789],[31.8791,46.6341],[31.4565,46.6377]],[[69.3529,39.9991],[69.3589,40.0139],[69.3531,40.0001],[69.3529,39.9991]],[[28.2197,46.6805],[26.7333,48.2595],[24.9203,47.7121],[24.5625,47.9517],[23.3845,48.0105],[22.8979,47.4687],[24.6677,45.0303],[25.8487,44.9913],[26.3503,45.1493],[26.8961,45.7693],[27.6489,46.0229],[27.8097,46.5227],[28.2197,46.6805]],[[61.6309,44.7875],[61.7949,44.9319],[61.8163,45.1107],[61.7293,44.9471],[61.4439,45.0285],[61.3479,45.3445],[60.8649,45.7955],[60.9973,45.9471],[60.8773,46.1063],[61.1753,46.1705],[61.6985,46.7387],[61.5275,46.8441],[61.1451,46.6627],[61.2323,46.4941],[60.9551,46.4709],[60.7985,46.5803],[60.8867,46.7491],[60.5729,46.7859],[60.7371,46.6425],[60.4019,46.4983],[60.2465,46.7039],[59.9239,46.4139],[60.3519,46.3907],[60.4755,46.3047],[60.3339,46.3431],[60.1825,46.2873],[60.1837,46.2369],[60.7317,46.3323],[60.7679,46.1685],[59.8503,46.0945],[59.5675,46.3593],[59.5193,45.8231],[59.2775,45.7617],[59.3899,46.0407],[58.7243,45.8877],[58.2141,44.9053],[58.2109,44.4957],[58.4509,43.7785],[59.5079,43.9325],[59.3727,43.8129],[59.5043,43.9115],[59.5443,43.7333],[59.8397,43.6731],[59.6779,43.6043],[59.7477,43.3279],[60.0007,43.5137],[60.0635,43.7485],[60.4213,43.5949],[62.2401,41.9923],[63.4133,40.6369],[64.1702,40.6695],[66.9919,41.5893],[65.9759,42.5807],[62.5277,44.0371],[61.6309,44.7875]]],[[[7.9501,36.8465],[9.8663,37.3257],[9.7635,37.2245],[9.8135,37.1471],[10.2807,37.1863],[10.1323,37.1477],[10.3609,36.7277],[11.0375,37.0931],[11.1353,36.8763],[10.4707,36.1559],[10.6553,35.8181],[11.0503,35.6319],[11.1611,35.2317],[10.7289,34.6541],[10.0209,34.1773],[10.4483,33.6303],[10.7441,33.6971],[10.3809,33.4973],[9.7835,33.5297],[8.8987,35.0435],[8.2377,35.4697],[5.9789,35.6381],[4.2945,35.5511],[-3.9698,33.7467],[-6.6003,31.5511],[-9.5825,30.4135],[-9.8933,30.6351],[-9.8464,31.3935],[-9.2641,32.1783],[-9.2766,32.5523],[-8.5139,33.2653],[-6.8311,34.0443],[-5.9023,35.8111],[-5.2793,35.9097],[-5.2345,35.5575],[-4.4287,35.1605],[-3.338,35.1957],[-2.9609,35.4537],[-2.9161,35.1841],[-2.813,35.1161],[-2.9081,35.2557],[-1.9538,35.0795],[-1.2925,35.3623],[-0.9403,35.7335],[-0.3745,35.9145],[-0.1079,35.7949],[0.3437,36.2015],[1.3537,36.5551],[2.5485,36.5927],[2.9053,36.8055],[3.9085,36.9261],[4.7883,36.8953],[5.3649,36.6465],[6.4685,37.0929],[6.9339,36.8853],[7.3835,37.0901],[7.9501,36.8465]]],[[[-5.9395,41.69],[-4.8211,41.4283],[-4.017,41.5274],[-1.7278,39.382],[-1.8094,39.0287],[-1.5351,38.7203],[-0.954,38.6693],[-0.1827,39.0318],[-0.8589,37.7193],[-0.6932,37.6291],[-1.3207,37.5591],[-1.8233,37.2699],[-2.1247,36.7379],[-4.3984,36.7245],[-5.0007,36.4635],[-5.761,36.9549],[-6.5819,38.2041],[-7.034,38.2279],[-7.8311,37.752],[-8.3308,37.8234],[-7.962,38.6919],[-7.7954,39.8579],[-7.034,40.2148],[-6.8437,40.881],[-5.9395,41.69]]],[[[9.8583,44.1055],[10.9989,43.8321],[11.2103,43.2241],[11.5981,42.8315],[12.9043,42.4407],[13.5449,41.6713],[14.3213,41.4425],[14.9927,40.5077],[15.7897,40.0831],[16.3083,38.9739],[15.9657,38.1361],[16.6815,39.0157],[16.6533,39.3195],[16.3057,39.6191],[16.3687,40.4821],[15.9929,40.9745],[15.2229,41.2679],[14.6063,41.7999],[14.3143,42.4119],[14.8345,42.0445],[15.5067,41.9097],[15.3053,41.8821],[15.3411,41.8659],[16.1819,41.8905],[15.8973,41.6191],[15.9565,41.4631],[18.0167,40.6397],[18.5129,40.1315],[18.3885,39.8193],[18.0483,39.9291],[17.8539,40.2819],[17.1297,40.5193],[16.9339,40.4639],[16.4881,39.7787],[17.1581,39.4003],[17.2133,39.0267],[16.6173,38.8139],[16.5797,38.4299],[16.0783,37.9337],[15.7149,37.9413],[15.6365,38.2225],[15.8961,38.4485],[15.8443,38.6495],[16.2241,38.8557],[15.7143,39.9835],[14.9075,40.2423],[14.9881,40.4129],[14.7717,40.6739],[14.3235,40.5769],[14.4567,40.7439],[14.0461,40.8113],[13.7105,41.2505],[13.0497,41.2253],[11.6461,42.2879],[11.0971,42.3951],[11.0859,42.6387],[10.4941,42.9375],[10.2127,43.9137],[9.8583,44.1055]]],[[[35.8171,34.4537],[37.0111,33.4455],[36.3023,32.2809],[36.2251,31.3893],[35.9449,31.0643],[34.9947,31.3781],[34.3889,31.2167],[34.2549,31.3529],[34.7069,31.9357],[34.9653,32.8273],[35.8171,34.4537]]],[[[0.7269,41.8497],[1.2599,41.8095],[1.8523,41.2397],[0.0243,40.7697],[-0.1408,40.9177],[-0.0597,41.4671],[-0.6333,41.5949],[-1.3828,41.4283],[-1.9896,42.5823],[0.0092,42.2016],[0.7269,41.8497]]],[[[4.9201,43.7431],[5.8901,43.9681],[6.7219,43.3853],[6.6827,43.2063],[5.8371,43.0553],[5.3209,43.3649],[4.8439,43.3421],[4.8295,43.3793],[4.7387,43.4321],[4.7501,43.4735],[4.7347,43.5219],[4.7119,43.5585],[4.6811,43.5815],[4.7271,43.4415],[4.8311,43.3385],[4.5341,43.4749],[3.9823,43.5533],[2.9915,42.9623],[3.0399,42.5567],[3.3149,42.3275],[3.0391,42.1749],[3.2027,41.9009],[2.7279,41.6377],[2.5307,41.8005],[2.4313,42.1159],[2.6415,42.3361],[2.4381,42.9675],[3.0805,43.6021],[4.1335,44.2223],[4.9201,43.7431]]],[[[9.2309,41.2613],[9.5667,41.1237],[9.6613,40.9995],[9.5037,40.9161],[9.7243,40.8491],[9.8267,40.5367],[9.6257,40.2477],[9.6313,39.3069],[9.5213,39.1043],[8.7219,39.1613],[8.8015,38.8901],[8.6379,38.8699],[8.3661,39.2263],[8.4851,40.3001],[8.1333,40.7389],[9.2309,41.2613]],[[8.6305,40.6391],[8.5869,40.4837],[8.9787,40.3659],[9.0331,39.8295],[9.2033,39.7993],[9.4115,40.5979],[8.6305,40.6391]]],[[[13.2955,38.2219],[13.8277,37.8227],[15.2115,37.7391],[15.0961,37.3351],[15.3389,37.0099],[15.1335,36.6667],[12.4765,37.6981],[12.4945,38.0233],[12.7233,38.1907],[12.9179,38.0305],[13.2955,38.2219]]],[[[34.5951,35.6979],[33.9303,35.2725],[34.0977,34.9565],[33.6959,34.9717],[33.0393,34.5643],[32.3177,34.8949],[32.2807,35.0973],[32.8547,35.1453],[32.9263,35.4017],[33.6471,35.3561],[34.5951,35.6979]]],[[[23.7843,35.5529],[24.0055,35.5169],[24.1703,35.5957],[24.0729,35.4931],[24.3291,35.3539],[25.7717,35.3431],[25.8135,35.1147],[26.3069,35.3177],[26.2713,35.2133],[26.3171,35.1853],[26.1103,34.9979],[24.7385,34.9253],[24.7399,35.0821],[24.3913,35.1939],[23.5895,35.2343],[23.5957,35.6269],[23.7843,35.5529]]],[[[0.6129,40.6691],[-0.2519,39.6137],[-0.4044,39.9159],[-0.8712,40.0125],[-0.8117,40.2981],[0.033,40.3456],[0.6129,40.6691]]],[[[17.8577,47.7281],[17.7123,47.8493],[17.8299,48.3147],[19.4385,48.5155],[19.3507,48.3233],[17.8577,47.7281]]],[[[56.0519,25.9657],[56.1711,25.4475],[55.7129,25.2253],[55.4913,25.4833],[56.0519,25.9657]]],[[[18.2087,53.4529],[17.9311,53.5361],[17.8391,53.8279],[18.4091,54.0279],[18.5397,53.6751],[18.2087,53.4529]]],[[[16.9025,47.2845],[17.5641,47.4671],[17.6163,47.2709],[17.2533,47.1577],[16.9025,47.2845]]],[[[26.3437,39.3941],[26.6095,39.0151],[25.8323,39.1925],[25.9135,39.2965],[26.3437,39.3941]]],[[[28.2259,36.4581],[28.0887,36.0569],[27.7559,35.8815],[27.6903,36.1565],[28.2259,36.4581]]],[[[20.5007,48.5291],[19.8961,48.3111],[19.9975,48.4693],[20.5007,48.5291]]],[[[-5.7102,42.562],[-5.9847,42.6093],[-6.0819,42.7654],[-5.6765,42.8029],[-5.7102,42.562]]],[[[25.9543,38.5949],[26.1613,38.5387],[26.0181,38.1543],[25.8685,38.2541],[25.9543,38.5949]]],[[[17.1251,47.5651],[16.9277,47.7499],[17.2615,47.8377],[17.3289,47.6603],[17.1251,47.5651]]],[[[25.4355,40.0181],[25.3503,39.7827],[25.2549,39.9161],[25.0457,39.8367],[25.0379,39.9943],[25.4355,40.0181]]],[[[26.5889,37.6777],[27.0683,37.7843],[27.0681,37.7175],[26.5889,37.6777]]],[[[24.6601,40.8041],[24.7865,40.6345],[24.6487,40.5785],[24.5153,40.6649],[24.6601,40.8041]]],[[[14.5515,45.0291],[14.6015,45.1565],[14.6743,45.1549],[14.8209,44.9745],[14.5515,45.0291]]],[[[-3.4887,42.7105],[-3.7286,42.6193],[-3.6948,42.7092],[-3.4887,42.7105]]],[[[27.0667,36.8471],[27.3549,36.8601],[26.9275,36.7099],[27.0667,36.8471]]],[[[14.7337,44.7033],[14.9539,44.5813],[15.2519,44.3267],[15.1033,44.3203],[14.7337,44.7033]]],[[[25.7873,40.2167],[25.9965,40.1381],[25.6685,40.1299],[25.7873,40.2167]]],[[[25.5537,40.4121],[25.6645,40.5001],[25.6961,40.4313],[25.5537,40.4121]]],[[[59.8597,43.6741],[59.9837,43.6185],[59.9011,43.5445],[59.8597,43.6741]]],[[[27.5543,40.6647],[27.7461,40.6403],[27.5341,40.6133],[27.5543,40.6647]]],[[[47.6643,44.0005],[47.7607,43.9261],[47.6255,43.9605],[47.6643,44.0005]]],[[[26.9661,37.0233],[27.0399,37.0179],[27.0575,36.9483],[26.9431,36.9293],[26.9661,37.0233]]],[[[17.3237,42.7893],[17.3783,42.7905],[17.6699,42.7363],[17.7539,42.6949],[17.3237,42.7893]]],[[[47.9167,45.5655],[48.0029,45.5153],[47.9955,45.4457],[47.9167,45.5655]]],[[[14.6573,44.7889],[14.7615,44.8429],[14.8661,44.7083],[14.6573,44.7889]]],[[[27.2955,36.4237],[27.3593,36.4833],[27.4519,36.4019],[27.2955,36.4237]]],[[[15.3625,43.9141],[15.3723,43.9715],[15.4523,43.8933],[15.3625,43.9141]]],[[[32.5555,46.0755],[32.8663,46.0689],[33.0621,46.0247],[32.9343,46.0165],[32.5555,46.0755]]],[[[27.7555,36.5799],[27.8749,36.6153],[27.8461,36.5359],[27.7555,36.5799]]],[[[27.1385,36.5649],[27.1885,36.6237],[27.2135,36.5751],[27.1385,36.5649]]],[[[25.9639,39.8403],[26.0679,39.8417],[26.0789,39.8013],[25.9639,39.8403]]],[[[47.5189,44.4943],[47.4615,44.4527],[47.4677,44.4791],[47.5189,44.4943]]],[[[48.5969,45.7417],[48.5591,45.6915],[48.5559,45.7717],[48.5969,45.7417]]],[[[31.5225,46.3761],[31.6985,46.2307],[31.9637,46.1901],[31.7225,46.2211],[31.5941,46.2561],[31.5481,46.2833],[31.5143,46.3223],[31.5225,46.3761]]],[[[24.0445,34.8633],[24.1125,34.8751],[24.1385,34.8175],[24.0445,34.8633]]],[[[48.0559,45.2187],[47.9889,45.1789],[47.9877,45.2289],[48.0559,45.2187]]],[[[19.7559,54.5165],[19.8743,54.6341],[19.8915,54.6273],[19.7559,54.5165]]],[[[27.5199,36.2371],[27.6251,36.2273],[27.5207,36.2087],[27.5199,36.2371]]],[[[26.7249,38.5375],[26.6993,38.4791],[26.7029,38.5471],[26.7249,38.5375]]],[[[26.6227,39.3349],[26.6683,39.3907],[26.6891,39.3387],[26.6227,39.3349]]],[[[27.5853,40.4721],[27.6553,40.5031],[27.6693,40.4545],[27.5853,40.4721]]],[[[27.5403,40.4987],[27.5167,40.5429],[27.5529,40.5305],[27.5403,40.4987]]],[[[15.0439,44.2859],[15.0969,44.3087],[15.1305,44.2889],[15.0439,44.2859]]],[[[9.4027,41.2665],[9.4349,41.2223],[9.3757,41.2231],[9.4027,41.2665]]],[[[50.2959,40.4761],[50.3601,40.4267],[50.3509,40.3877],[50.2959,40.4761]]],[[[48.5443,45.8149],[48.5141,45.7997],[48.5109,45.8579],[48.5443,45.8149]]],[[[9.8041,44.1013],[9.8391,44.0565],[9.7715,44.0869],[9.8041,44.1013]]],[[[15.5657,43.8359],[15.6087,43.8147],[15.6643,43.7679],[15.5657,43.8359]]],[[[16.8095,43.3393],[16.8971,43.3143],[16.8821,43.2897],[16.8095,43.3393]]],[[[26.8439,37.1083],[26.8939,37.1187],[26.8955,37.0989],[26.8439,37.1083]]],[[[50.5389,40.2875],[50.5869,40.3459],[50.6067,40.3143],[50.5389,40.2875]]],[[[17.9011,42.7021],[17.8627,42.7497],[17.9291,42.7159],[17.9011,42.7021]]],[[[9.4637,41.2461],[9.4791,41.1883],[9.4365,41.1889],[9.4637,41.2461]]],[[[26.2461,38.5047],[26.2297,38.5397],[26.2693,38.5201],[26.2461,38.5047]]],[[[27.1099,36.9553],[27.1693,36.9563],[27.1769,36.9211],[27.1099,36.9553]]],[[[26.9543,37.4433],[26.9757,37.4757],[27.0087,37.4541],[26.9543,37.4433]]],[[[6.2003,43.0093],[6.2029,42.9897],[6.1619,43.0071],[6.2003,43.0093]]],[[[61.6541,44.9209],[61.7153,44.9219],[61.7187,44.8951],[61.6541,44.9209]]],[[[15.2353,44.0171],[15.1805,44.0975],[15.2559,44.0231],[15.2353,44.0171]]],[[[16.1123,43.4321],[16.1651,43.4577],[16.1805,43.4407],[16.1123,43.4321]]],[[[25.1945,35.4423],[25.2531,35.4543],[25.2451,35.4259],[25.1945,35.4423]]],[[[14.7705,44.9165],[14.8281,44.9097],[14.8323,44.8945],[14.7705,44.9165]]],[[[61.5597,44.8787],[61.5725,44.9049],[61.5803,44.8685],[61.5597,44.8787]]],[[[14.1993,40.5667],[14.2537,40.5469],[14.1953,40.5451],[14.1993,40.5667]]],[[[27.4781,36.9831],[27.4537,36.9725],[27.4247,37.0013],[27.4781,36.9831]]],[[[6.4691,43.0527],[6.4647,43.0229],[6.4333,43.0159],[6.4691,43.0527]]],[[[28.5431,40.5593],[28.5283,40.5719],[28.5611,40.5741],[28.5431,40.5593]]],[[[29.6015,36.1349],[29.5715,36.1435],[29.5955,36.1565],[29.6015,36.1349]]],[[[29.1483,40.8727],[29.1183,40.8755],[29.1437,40.8833],[29.1483,40.8727]]],[[[23.8911,40.3345],[23.9321,40.3251],[23.9539,40.3155],[23.8911,40.3345]]],[[[15.8195,43.6995],[15.8675,43.6829],[15.8701,43.6667],[15.8195,43.6995]]],[[[12.4275,37.8937],[12.4501,37.8787],[12.4491,37.8495],[12.4275,37.8937]]],[[[17.1699,43.1337],[17.1559,43.1177],[17.1269,43.1337],[17.1699,43.1337]]],[[[27.6861,36.2657],[27.7213,36.2827],[27.7033,36.2459],[27.6861,36.2657]]],[[[49.6473,40.0001],[49.6223,39.9733],[49.6247,40.0001],[49.6473,40.0001]]],[[[46.9193,44.3813],[46.8845,44.3767],[46.8859,44.3877],[46.9193,44.3813]]],[[[26.3579,38.4581],[26.3525,38.4313],[26.3287,38.4335],[26.3579,38.4581]]],[[[31.7419,46.3835],[31.7661,46.3915],[31.7681,46.3729],[31.7419,46.3835]]],[[[14.7483,44.8853],[14.7783,44.8595],[14.7369,44.8753],[14.7483,44.8853]]],[[[27.4965,37.1581],[27.5287,37.1459],[27.4927,37.1437],[27.4965,37.1581]]],[[[6.3835,43.0179],[6.4001,43.0027],[6.3699,43.0079],[6.3835,43.0179]]],[[[13.7511,44.8959],[13.7781,44.9217],[13.7821,44.9113],[13.7511,44.8959]]],[[[29.9105,36.1865],[29.8779,36.1631],[29.8427,36.1611],[29.9105,36.1865]]],[[[9.7403,40.9203],[9.6763,40.8979],[9.7355,40.9295],[9.7403,40.9203]]],[[[61.1593,46.2033],[61.1431,46.1733],[61.1303,46.1945],[61.1593,46.2033]]],[[[27.1455,36.6703],[27.1073,36.6645],[27.1389,36.6797],[27.1455,36.6703]]],[[[19.2765,40.5095],[19.3053,40.5011],[19.2989,40.4819],[19.2765,40.5095]]],[[[48.2445,45.4331],[48.2203,45.4127],[48.2103,45.4211],[48.2445,45.4331]]],[[[17.9275,42.6887],[17.9723,42.6821],[17.9749,42.6777],[17.9275,42.6887]]],[[[15.7221,43.6839],[15.6907,43.7197],[15.7271,43.6927],[15.7221,43.6839]]],[[[27.1013,37.3017],[27.0813,37.2859],[27.0905,37.3059],[27.1013,37.3017]]],[[[47.3187,44.8459],[47.2957,44.8679],[47.3095,44.8753],[47.3187,44.8459]]],[[[27.8311,36.6443],[27.8539,36.6665],[27.8609,36.6499],[27.8311,36.6443]]],[[[25.6847,34.8833],[25.7305,34.8799],[25.6789,34.8779],[25.6847,34.8833]]],[[[26.9083,38.4721],[26.9295,38.4399],[26.9461,38.4377],[26.9319,38.4327],[26.9073,38.4439],[26.9083,38.4721]]],[[[26.9167,37.0207],[26.9181,37.0021],[26.8911,37.0157],[26.9167,37.0207]]],[[[31.8185,46.3411],[31.7001,46.2783],[31.7617,46.3255],[31.8185,46.3411]]],[[[32.0451,46.1759],[32.1665,46.1547],[32.1917,46.1453],[32.0451,46.1759]]],[[[14.9103,44.4457],[14.9359,44.4095],[14.9237,44.4231],[14.9103,44.4457]]],[[[16.0697,43.4563],[16.0863,43.4381],[16.0529,43.4501],[16.0697,43.4563]]],[[[15.7447,43.7099],[15.7517,43.6877],[15.7367,43.7039],[15.7447,43.7099]]],[[[47.4769,45.1573],[47.4543,45.1663],[47.4647,45.1791],[47.4769,45.1573]]],[[[27.1539,37.5823],[27.1805,37.5681],[27.1839,37.5599],[27.1539,37.5823]]],[[[61.3025,45.3131],[61.2959,45.2925],[61.2771,45.3309],[61.3025,45.3131]]],[[[9.3337,41.2487],[9.3565,41.2453],[9.3411,41.2325],[9.3337,41.2487]]],[[[36.5173,45.2865],[36.5839,45.2453],[36.5831,45.2431],[36.5173,45.2865]]],[[[23.7901,40.2357],[23.7821,40.2115],[23.7793,40.2307],[23.7901,40.2357]]],[[[14.8257,44.6931],[14.8049,44.7245],[14.8365,44.6907],[14.8257,44.6931]]],[[[14.8217,44.8517],[14.8257,44.8307],[14.8027,44.8485],[14.8217,44.8517]]],[[[26.1379,34.9351],[26.1357,34.9527],[26.1563,34.9427],[26.1379,34.9351]]],[[[28.9143,36.6733],[28.9379,36.6743],[28.9181,36.6575],[28.9143,36.6733]]],[[[47.0041,44.4641],[46.9821,44.4647],[46.9775,44.4781],[47.0041,44.4641]]],[[[33.7817,36.1835],[33.7739,36.1949],[33.7883,36.1967],[33.7817,36.1835]]],[[[9.7183,40.8809],[9.7385,40.8661],[9.7137,40.8737],[9.7183,40.8809]]],[[[26.5777,39.3959],[26.5927,39.3735],[26.5895,39.3733],[26.5777,39.3959]]],[[[17.8337,42.7309],[17.8357,42.7423],[17.8391,42.7315],[17.8337,42.7309]]],[[[26.1895,35.3441],[26.1759,35.3533],[26.1935,35.3521],[26.1895,35.3441]]],[[[26.5955,39.3079],[26.5813,39.2819],[26.5793,39.2841],[26.5955,39.3079]]],[[[29.5939,44.8155],[29.5485,44.7941],[29.5409,44.7977],[29.5939,44.8155]]],[[[16.8017,43.3419],[16.8143,43.3521],[16.8191,43.3471],[16.8017,43.3419]]],[[[29.0845,40.8807],[29.1103,40.8785],[29.0859,40.8739],[29.0845,40.8807]]],[[[15.7585,43.7337],[15.7701,43.7099],[15.7517,43.7327],[15.7585,43.7337]]],[[[38.3331,46.7683],[38.3451,46.7507],[38.3211,46.7555],[38.3331,46.7683]]],[[[59.9685,43.5071],[59.9761,43.5275],[59.9833,43.5215],[59.9685,43.5071]]],[[[49.4569,39.9399],[49.4933,39.9437],[49.4507,39.9339],[49.4569,39.9399]]],[[[47.0207,44.7003],[47.0077,44.7169],[47.0187,44.7245],[47.0207,44.7003]]],[[[46.8081,44.5067],[46.8355,44.5035],[46.8111,44.4933],[46.8081,44.5067]]],[[[26.5591,37.6115],[26.5485,37.5921],[26.5467,37.5939],[26.5591,37.6115]]],[[[26.2947,38.5047],[26.2801,38.4997],[26.2755,38.5229],[26.2947,38.5047]]],[[[-0.7451,37.7511],[-0.7416,37.7527],[-0.7304,37.7447],[-0.7451,37.7511]]],[[[9.4143,41.2111],[9.4119,41.1939],[9.3977,41.2005],[9.4143,41.2111]]],[[[15.7881,43.7433],[15.7931,43.7229],[15.7811,43.7455],[15.7881,43.7433]]],[[[29.7579,36.1323],[29.7573,36.1251],[29.7369,36.1119],[29.7579,36.1323]]],[[[15.4869,43.8607],[15.5067,43.8593],[15.5163,43.8523],[15.4869,43.8607]]],[[[18.0047,42.6815],[18.0163,42.6631],[17.9907,42.6739],[18.0047,42.6815]]],[[[26.7661,38.4363],[26.7641,38.4553],[26.7765,38.4435],[26.7661,38.4363]]],[[[26.8085,38.9193],[26.8265,38.9235],[26.8231,38.9141],[26.8085,38.9193]]],[[[27.4775,40.5571],[27.5091,40.5613],[27.4739,40.5505],[27.4775,40.5571]]],[[[9.8015,37.2263],[9.7935,37.2323],[9.8045,37.2385],[9.8015,37.2263]]],[[[27.0771,37.0605],[27.0899,37.0685],[27.1051,37.0585],[27.0771,37.0605]]],[[[61.2635,45.3229],[61.2411,45.3105],[61.2561,45.3317],[61.2635,45.3229]]],[[[27.8669,36.5249],[27.8471,36.5233],[27.8539,36.5329],[27.8669,36.5249]]],[[[24.0077,34.9269],[23.9969,34.9449],[24.0129,34.9293],[24.0077,34.9269]]],[[[26.9805,36.5035],[26.9615,36.4979],[26.9811,36.5079],[26.9805,36.5035]]],[[[-3.0438,35.9435],[-3.0301,35.9479],[-3.0362,35.9383],[-3.0438,35.9435]]],[[[51.6385,46.7463],[51.6349,46.7461],[51.6503,46.7555],[51.6385,46.7463]]],[[[27.5887,40.5077],[27.5813,40.5251],[27.5887,40.5279],[27.5887,40.5077]]],[[[27.2191,37.0141],[27.2121,36.9977],[27.2057,37.0013],[27.2191,37.0141]]],[[[29.6441,36.1081],[29.6357,36.1125],[29.6459,36.1147],[29.6441,36.1081]]],[[[49.9073,40.2899],[49.9017,40.2979],[49.9305,40.2943],[49.9073,40.2899]]],[[[15.6537,38.2643],[15.6423,38.2709],[15.6569,38.2693],[15.6537,38.2643]]],[[[9.3823,41.2999],[9.3629,41.2997],[9.3767,41.3141],[9.3823,41.2999]]],[[[26.3521,35.2765],[26.3381,35.2733],[26.3365,35.2847],[26.3521,35.2765]]],[[[9.3533,41.2917],[9.3395,41.2835],[9.3337,41.2867],[9.3533,41.2917]]],[[[25.1477,40.0311],[25.1355,40.0223],[25.1285,40.0257],[25.1477,40.0311]]],[[[26.1897,35.3329],[26.1691,35.3267],[26.1599,35.3303],[26.1897,35.3329]]],[[[28.0337,36.7209],[28.0157,36.7191],[28.0345,36.7275],[28.0337,36.7209]]],[[[27.0443,36.5913],[27.0365,36.5851],[27.0337,36.5945],[27.0443,36.5913]]],[[[17.1561,40.4555],[17.1561,40.4465],[17.1423,40.4529],[17.1561,40.4555]]],[[[28.9415,36.7355],[28.9435,36.7201],[28.9363,36.7247],[28.9415,36.7355]]],[[[26.0727,39.9361],[26.0765,39.9417],[26.0797,39.9379],[26.0727,39.9361]]],[[[34.9947,46.2491],[34.9477,46.2405],[34.9419,46.2421],[34.9875,46.2515],[34.9947,46.2491]]],[[[25.8453,39.2287],[25.8301,39.2211],[25.8421,39.2317],[25.8453,39.2287]]],[[[29.0547,36.6561],[29.0447,36.6613],[29.0559,36.6641],[29.0547,36.6561]]],[[[9.8555,44.0473],[9.8425,44.0497],[9.8561,44.0545],[9.8555,44.0473]]],[[[28.0487,36.7255],[28.0637,36.7357],[28.0661,36.7313],[28.0487,36.7255]]],[[[27.4623,36.3735],[27.4543,36.3575],[27.4511,36.3599],[27.4623,36.3735]]],[[[26.8065,37.6297],[26.7907,37.6313],[26.7903,37.6383],[26.8065,37.6297]]],[[[25.8737,35.1965],[25.8581,35.1883],[25.8721,35.1993],[25.8737,35.1965]]],[[[49.9925,40.3083],[50.0169,40.3107],[50.0183,40.3091],[49.9925,40.3083]]],[[[32.2995,46.5151],[32.2991,46.5085],[32.2961,46.5119],[32.2995,46.5151]]],[[[9.3407,41.3011],[9.3553,41.3057],[9.3577,41.3015],[9.3407,41.3011]]],[[[26.3871,38.4255],[26.3757,38.4331],[26.3871,38.4383],[26.3871,38.4255]]],[[[24.5945,35.0161],[24.5813,35.0093],[24.5763,35.0125],[24.5945,35.0161]]],[[[29.5031,36.1547],[29.4945,36.1599],[29.5127,36.1565],[29.5031,36.1547]]],[[[27.0755,36.5665],[27.0661,36.5715],[27.0853,36.5715],[27.0755,36.5665]]],[[[32.0083,46.1793],[32.0275,46.1805],[32.0347,46.1775],[32.0083,46.1793]]],[[[-1.1267,35.7347],[-1.1372,35.7339],[-1.1247,35.7421],[-1.1267,35.7347]]],[[[26.7223,38.6881],[26.7083,38.7015],[26.7251,38.6919],[26.7223,38.6881]]],[[[30.4085,36.1689],[30.4017,36.1729],[30.4087,36.1829],[30.4085,36.1689]]],[[[27.3883,37.0037],[27.3777,36.9975],[27.3829,37.0055],[27.3883,37.0037]]],[[[23.7271,40.0635],[23.7399,40.0705],[23.7423,40.0667],[23.7271,40.0635]]],[[[28.9075,36.6621],[28.8985,36.6623],[28.8937,36.6701],[28.9075,36.6621]]],[[[26.4685,38.3911],[26.4753,38.3999],[26.4715,38.3909],[26.4685,38.3911]]],[[[31.7269,46.2887],[31.7403,46.2819],[31.7273,46.2815],[31.7269,46.2887]]],[[[49.4277,39.8229],[49.4379,39.8245],[49.4401,39.8181],[49.4277,39.8229]]],[[[27.5983,36.9831],[27.6023,36.9713],[27.5877,36.9827],[27.5983,36.9831]]],[[[23.9431,35.5429],[23.9317,35.5347],[23.9337,35.5461],[23.9431,35.5429]]],[[[28.2527,36.8075],[28.2607,36.8127],[28.2603,36.8005],[28.2527,36.8075]]],[[[29.6205,44.8395],[29.6087,44.8293],[29.6209,44.8481],[29.6205,44.8395]]],[[[27.2873,36.4871],[27.2825,36.4793],[27.2801,36.4815],[27.2873,36.4871]]],[[[51.6189,46.7721],[51.6119,46.7781],[51.6237,46.7849],[51.6189,46.7721]]],[[[27.5155,36.6509],[27.5109,36.6633],[27.5173,36.6639],[27.5155,36.6509]]],[[[26.8363,38.5879],[26.8311,38.5647],[26.8293,38.5791],[26.8363,38.5879]]],[[[27.3765,37.1693],[27.3733,37.1625],[27.3653,37.1725],[27.3765,37.1693]]],[[[5.2991,43.2781],[5.2923,43.2781],[5.3057,43.2807],[5.2991,43.2781]]],[[[-0.4916,38.1625],[-0.4717,38.1631],[-0.4684,38.1603],[-0.4916,38.1625]]],[[[29.3645,36.2141],[29.3577,36.2169],[29.3693,36.2183],[29.3645,36.2141]]],[[[31.6949,46.2729],[31.6791,46.2607],[31.6761,46.2631],[31.6949,46.2729]]],[[[28.4427,36.7765],[28.4299,36.7765],[28.4387,36.7823],[28.4427,36.7765]]],[[[18.8517,42.2677],[18.8481,42.2607],[18.8451,42.2671],[18.8517,42.2677]]],[[[25.1495,40.9999],[25.1373,41.0081],[25.1515,41.0031],[25.1495,40.9999]]],[[[49.0271,39.1857],[49.0289,39.1961],[49.0303,39.1849],[49.0271,39.1857]]],[[[27.6577,36.2523],[27.6599,36.2615],[27.6619,36.2579],[27.6577,36.2523]]],[[[28.0709,40.4637],[28.0795,40.4697],[28.0807,40.4675],[28.0709,40.4637]]],[[[24.7173,40.8373],[24.7061,40.8351],[24.7053,40.8373],[24.7173,40.8373]]],[[[27.0981,36.9385],[27.0949,36.9525],[27.0979,36.9523],[27.0981,36.9385]]],[[[27.7137,36.2237],[27.7013,36.2223],[27.7091,36.2279],[27.7137,36.2237]]],[[[-9.7889,31.4949],[-9.7823,31.5033],[-9.7869,31.4919],[-9.7889,31.4949]]],[[[15.5391,43.8589],[15.5459,43.8619],[15.5467,43.8563],[15.5391,43.8589]]],[[[26.7501,36.2889],[26.7477,36.2807],[26.7429,36.2831],[26.7501,36.2889]]],[[[26.2915,38.4893],[26.2809,38.4959],[26.2933,38.4925],[26.2915,38.4893]]],[[[-5.6096,36.0017],[-5.6013,36.0077],[-5.6025,36.0017],[-5.6096,36.0017]]],[[[12.4569,37.8817],[12.4559,37.8925],[12.4633,37.8815],[12.4569,37.8817]]],[[[29.7837,45.4453],[29.7765,45.4469],[29.7809,45.4513],[29.7837,45.4453]]],[[[23.5935,35.6437],[23.5925,35.6387],[23.5793,35.6481],[23.5935,35.6437]]],[[[18.1167,42.6221],[18.1163,42.6321],[18.1245,42.6229],[18.1167,42.6221]]],[[[25.2195,39.8691],[25.2087,39.8679],[25.2195,39.8729],[25.2195,39.8691]]],[[[27.1773,36.6793],[27.1843,36.6851],[27.1871,36.6807],[27.1773,36.6793]]],[[[-0.8927,35.7835],[-0.9033,35.7803],[-0.9035,35.7831],[-0.8927,35.7835]]],[[[26.7499,36.3011],[26.7435,36.2929],[26.7423,36.3015],[26.7499,36.3011]]],[[[49.9801,40.2947],[49.9803,40.2833],[49.9703,40.2899],[49.9801,40.2947]]],[[[13.7373,44.9431],[13.7489,44.9357],[13.7353,44.9389],[13.7373,44.9431]]],[[[27.0035,37.4787],[26.9927,37.4727],[26.9913,37.4743],[27.0035,37.4787]]],[[[29.1581,40.8565],[29.1497,40.8533],[29.1471,40.8577],[29.1581,40.8565]]],[[[27.1429,37.6069],[27.1443,37.6171],[27.1495,37.6053],[27.1429,37.6069]]],[[[26.7683,39.3853],[26.7619,39.3775],[26.7605,39.3805],[26.7683,39.3853]]],[[[27.4953,40.6535],[27.4853,40.6529],[27.4919,40.6569],[27.4953,40.6535]]],[[[27.7687,36.2581],[27.7607,36.2565],[27.7741,36.2647],[27.7687,36.2581]]],[[[15.4283,43.8845],[15.4175,43.8867],[15.4281,43.8883],[15.4283,43.8845]]],[[[26.9435,36.9213],[26.9335,36.9135],[26.9325,36.9151],[26.9435,36.9213]]],[[[26.3087,35.2149],[26.3023,35.2063],[26.2977,35.2093],[26.3087,35.2149]]],[[[-0.7661,37.6923],[-0.774,37.6971],[-0.7668,37.6955],[-0.7661,37.6923]]],[[[30.4837,36.2295],[30.4781,36.2267],[30.4753,36.2341],[30.4837,36.2295]]],[[[5.3033,43.2911],[5.3011,43.2861],[5.2947,43.2859],[5.3033,43.2911]]],[[[26.6067,39.3373],[26.6043,39.3467],[26.6099,39.3391],[26.6067,39.3373]]],[[[17.9477,40.0459],[17.9395,40.0503],[17.9479,40.0483],[17.9477,40.0459]]],[[[29.0717,40.8851],[29.0627,40.8851],[29.0681,40.8913],[29.0717,40.8851]]],[[[49.5869,40.0355],[49.5801,40.0435],[49.5829,40.0453],[49.5869,40.0355]]],[[[49.4455,39.8031],[49.4451,39.8125],[49.4501,39.8047],[49.4455,39.8031]]],[[[50.0523,40.3047],[50.0461,40.3095],[50.0561,40.3071],[50.0523,40.3047]]],[[[29.6329,44.8691],[29.6257,44.8557],[29.6291,44.8719],[29.6329,44.8691]]],[[[60.1009,43.7821],[60.0901,43.7787],[60.0927,43.7867],[60.1009,43.7821]]],[[[-2.4238,35.1907],[-2.43,35.1877],[-2.433,35.1925],[-2.4238,35.1907]]],[[[6.3655,43.0165],[6.3589,43.0151],[6.3655,43.0237],[6.3655,43.0165]]],[[[15.5181,43.8363],[15.5129,43.8335],[15.5093,43.8367],[15.5181,43.8363]]],[[[15.4425,43.8695],[15.4347,43.8677],[15.4299,43.8713],[15.4425,43.8695]]],[[[13.7865,44.9007],[13.7979,44.9025],[13.7903,44.8999],[13.7865,44.9007]]],[[[15.4087,43.9565],[15.3977,43.9581],[15.3967,43.9631],[15.4087,43.9565]]],[[[15.9173,43.6765],[15.9073,43.6755],[15.9077,43.6809],[15.9173,43.6765]]],[[[33.5299,45.8737],[33.5391,45.8831],[33.5429,45.8817],[33.5299,45.8737]]],[[[29.0521,40.9193],[29.0491,40.9151],[29.0473,40.9201],[29.0521,40.9193]]],[[[37.6703,47.0813],[37.6763,47.0835],[37.6845,47.0775],[37.6703,47.0813]]],[[[15.4057,43.8879],[15.3959,43.8891],[15.3935,43.8939],[15.4057,43.8879]]],[[[24.7851,40.6639],[24.7869,40.6735],[24.7901,40.6753],[24.7851,40.6639]]],[[[5.7863,43.0815],[5.7797,43.0851],[5.7857,43.0849],[5.7863,43.0815]]],[[[9.6111,39.1479],[9.6047,39.1453],[9.6103,39.1509],[9.6111,39.1479]]],[[[50.4617,40.3979],[50.4547,40.3979],[50.4545,40.4057],[50.4617,40.3979]]],[[[4.5817,43.4001],[4.5707,43.3995],[4.5843,43.4051],[4.5817,43.4001]]],[[[29.1263,40.8307],[29.1185,40.8335],[29.1283,40.8341],[29.1263,40.8307]]],[[[8.4497,39.0965],[8.4565,39.0881],[8.4421,39.1001],[8.4497,39.0965]]],[[[60.1327,43.7635],[60.1243,43.7623],[60.1251,43.7679],[60.1327,43.7635]]],[[[19.5051,40.9605],[19.4999,40.9581],[19.5009,40.9619],[19.5051,40.9605]]],[[[26.1337,34.9259],[26.1317,34.9193],[26.1297,34.9233],[26.1337,34.9259]]],[[[9.2597,41.3433],[9.2543,41.3415],[9.2541,41.3431],[9.2597,41.3433]]],[[[24.4001,57.7521],[24.3914,57.7522],[24.4128,57.7578],[24.4001,57.7521]]],[[[19.5167,40.9595],[19.5127,40.9577],[19.5117,40.9603],[19.5167,40.9595]]],[[[25.7403,34.8801],[25.7401,34.8839],[25.7443,34.8817],[25.7403,34.8801]]],[[[33.4065,44.5931],[33.4037,44.5967],[33.4065,44.5939],[33.4065,44.5931]]],[[[26.1345,34.9607],[26.1329,34.9649],[26.1365,34.9637],[26.1345,34.9607]]],[[[26.5419,37.6209],[26.5401,37.6191],[26.5393,37.6233],[26.5419,37.6209]]]]}},{"type":"Feature","properties":{"birdlifeId":"22682860","scientificName":"Coracias garrulus","rangeType":"wintering","speciesId":"avibase-7451A628","speciesName":"European Roller","speciesLatin":"Coracias garrulus"},"geometry":{"type":"MultiPolygon","coordinates":[[[[35.7785,22.8295],[36.8843,22.0121],[36.9727,21.3959],[37.0113,21.4171],[37.3151,21.0639],[37.1055,21.2167],[37.1979,19.6355],[37.4095,18.8741],[37.5045,18.7271],[37.9457,18.5587],[38.1149,18.2587],[38.5777,18.0279],[39.7101,15.0903],[39.8703,15.4989],[39.8919,15.4601],[40.0851,15.3265],[40.0191,15.2335],[40.2097,14.9443],[40.5099,14.9501],[40.5211,15.0215],[40.7741,14.7049],[41.1839,14.6189],[41.6817,13.9435],[42.2277,13.5393],[42.2275,13.6345],[42.3839,13.2071],[42.5453,13.2229],[42.5401,13.1959],[42.6657,13.0535],[42.7383,13.0367],[42.7263,12.9605],[42.7825,12.8409],[42.9189,12.7849],[43.0153,12.8861],[43.2905,12.4637],[43.3211,12.4793],[43.3729,11.9855],[42.5607,11.4901],[43.1541,11.6123],[43.9567,10.6813],[44.6157,10.3821],[45.8075,10.8675],[46.4497,10.6807],[47.4221,11.1755],[49.4221,11.3337],[50.2699,11.5843],[50.7917,11.9853],[51.2849,11.8337],[51.0741,11.2625],[51.1693,10.5737],[51.0173,10.4197],[51.2337,10.4321],[51.1777,10.5605],[51.4131,10.4397],[50.8993,10.3101],[50.8271,9.4177],[49.5177,7.2159],[48.0695,7.6547],[47.7833,7.9251],[47.7545,8.2435],[48.2893,9.0571],[49.8199,10.5175],[49.8901,10.9179],[48.7787,10.8343],[45.5297,9.7885],[44.2365,9.6383],[45.3717,8.2683],[46.8017,7.8121],[47.0399,7.2587],[48.3155,6.4341],[48.7367,5.6407],[47.9395,4.4389],[46.1041,2.5153],[44.6045,1.5965],[43.4861,0.6439],[42.6065,-0.2765],[42.1649,-0.8084],[41.9929,-0.724],[42.0715,-0.9005],[41.9789,-1.0075],[41.9725,-0.9063],[41.9485,-0.8803],[41.9131,-0.8734],[41.9083,-1.1927],[41.8001,-1.1411],[41.7665,-1.1427],[41.7025,-1.1983],[41.8437,-1.2311],[41.4227,-1.8483],[41.0259,-2.0498],[40.9825,-2.0172],[41.0147,-1.9026],[40.9863,-1.9081],[40.9409,-2.0797],[40.9203,-2.0],[40.8477,-1.9752],[40.9107,-2.0105],[40.8565,-2.073],[40.9155,-2.0779],[40.9883,-2.2545],[40.9617,-2.3067],[40.9061,-2.2167],[40.7713,-2.2534],[40.7717,-2.4516],[40.1891,-2.7287],[40.1523,-2.9009],[40.1975,-2.9739],[40.1661,-3.0064],[40.2449,-2.9857],[39.7781,-3.5876],[39.8741,-3.6952],[39.5657,-4.0454],[39.5435,-4.432],[39.1971,-4.6726],[38.7821,-6.003],[38.8267,-6.4228],[39.5525,-7.0219],[39.2801,-7.5069],[39.2515,-7.818],[39.2611,-7.8238],[39.2955,-7.8228],[39.3113,-7.7986],[39.3257,-7.7318],[39.4423,-7.8155],[39.4491,-8.0066],[39.2683,-8.3225],[39.4815,-9.0973],[39.5967,-9.1223],[39.5487,-9.0307],[39.6169,-9.0719],[39.7081,-9.9818],[40.1133,-10.2786],[40.4021,-10.2998],[40.3953,-10.5244],[40.6401,-10.6858],[40.3561,-11.3326],[40.5445,-12.0025],[40.4283,-12.5506],[40.6313,-12.7544],[40.4043,-12.9522],[40.5887,-12.9693],[40.5277,-14.1655],[40.7227,-14.1985],[40.6261,-14.5653],[40.8111,-14.4023],[40.8149,-14.6478],[40.4985,-15.1751],[40.6419,-15.1671],[40.5167,-15.5406],[39.9795,-16.2276],[39.7521,-16.2607],[39.7385,-16.4267],[39.8543,-16.4464],[39.2101,-16.8218],[39.0411,-16.9551],[39.0679,-17.0068],[38.0689,-17.1833],[36.9291,-17.962],[36.4763,-18.4837],[36.5055,-18.5584],[36.4315,-18.564],[36.4725,-18.5844],[36.3813,-18.6709],[36.3617,-18.7391],[36.4005,-18.784],[36.3163,-18.8749],[36.2623,-18.8065],[36.1051,-18.9206],[36.0837,-18.8791],[36.0511,-18.9262],[36.0057,-18.9395],[35.9881,-18.9071],[35.9729,-18.9085],[35.8629,-18.9558],[35.6831,-19.0858],[35.3895,-19.4716],[34.8859,-19.8509],[34.8323,-19.8474],[34.8185,-19.7798],[34.6561,-19.6537],[34.6307,-19.6631],[34.6671,-19.7357],[34.6987,-19.7583],[34.7181,-19.757],[34.7519,-19.7828],[34.7819,-19.8515],[34.7479,-19.8717],[34.7645,-20.1587],[34.6579,-20.1437],[34.6189,-20.1619],[34.7085,-20.4737],[34.6315,-20.4764],[34.6025,-20.5247],[35.0025,-20.7434],[34.9565,-20.8183],[35.1153,-20.9851],[34.9841,-21.1155],[35.3435,-22.1861],[35.4987,-22.1017],[35.5245,-22.3105],[35.5325,-22.2063],[35.5467,-22.1725],[35.6047,-22.9265],[35.3301,-23.6792],[35.3417,-23.9952],[35.5515,-23.7922],[35.4139,-24.2549],[35.0187,-24.6644],[33.0493,-25.4306],[32.7511,-25.8677],[32.7381,-25.7747],[32.7215,-25.7529],[32.6921,-25.7361],[32.4525,-25.9756],[32.6697,-26.1223],[32.7045,-26.3193],[32.6779,-26.3454],[32.6695,-26.3664],[32.6695,-26.3863],[32.6799,-26.3949],[32.7113,-26.3164],[32.6897,-26.2002],[32.8855,-26.2845],[32.9627,-26.087],[32.4033,-28.5225],[31.4333,-29.1979],[30.0001,-31.307],[27.8999,-33.0458],[26.5457,-33.7619],[25.6693,-33.7817],[25.6993,-34.0359],[25.0079,-33.9582],[24.8365,-34.2145],[23.6511,-33.9784],[23.4097,-34.1068],[22.5721,-33.9967],[21.8197,-34.3811],[21.0015,-34.3462],[20.0053,-34.8398],[19.6381,-34.7896],[19.2943,-34.6335],[19.1487,-34.3128],[18.8219,-34.385],[18.7987,-34.0884],[18.4347,-34.1289],[18.4895,-34.3562],[18.3799,-34.2719],[18.4371,-33.7022],[17.8457,-32.8247],[18.3133,-32.5652],[18.2821,-31.8954],[18.1939,-31.6572],[17.6513,-30.9674],[19.1669,-29.6146],[19.7999,-28.6861],[19.9427,-28.151],[19.5265,-25.6036],[18.7741,-22.9515],[17.9861,-21.1518],[17.1685,-19.8971],[15.0879,-17.6151],[13.0119,-15.8568],[12.2799,-14.7633],[12.5341,-13.4128],[13.6545,-12.237],[13.8651,-11.0085],[12.9933,-9.0755],[13.4001,-8.7453],[13.3871,-8.3622],[12.5579,-6.6458],[13.3747,-5.9375],[15.6367,-5.9506],[16.5047,-6.2177],[17.4119,-7.0228],[18.5735,-7.6642],[21.5433,-8.7303],[25.1483,-9.212],[26.4073,-9.0974],[27.4041,-8.7721],[28.1437,-8.1609],[28.7855,-6.4804],[29.1665,-1.5022],[30.1361,1.9015],[30.1027,2.6287],[29.6847,3.4949],[28.2381,4.5849],[26.0059,5.4261],[21.8841,5.8669],[19.6693,5.5755],[18.8661,5.0377],[18.5201,4.4421],[17.6017,0.0419],[15.6283,-3.6062],[14.5493,-4.4456],[11.7971,-4.6498],[10.0943,-2.8458],[11.3885,-2.5322],[11.9973,-2.1794],[13.0079,-0.4502],[13.1345,-0.044],[12.9345,0.2371],[11.4353,0.7777],[11.3571,1.7293],[11.8797,2.0803],[13.8211,2.1085],[14.1895,2.4277],[15.3451,6.7713],[15.3083,8.1695],[15.0397,8.6985],[12.8791,8.5327],[10.8383,7.6961],[9.5297,5.7433],[8.9193,5.4379],[7.1493,5.6819],[5.4099,6.5779],[4.1941,6.8499],[3.4907,7.8493],[3.2393,9.1167],[2.6307,9.4763],[0.6085,8.1201],[-0.0243,7.3341],[-0.3444,6.5481],[-1.0921,6.0337],[-1.5318,5.9969],[-2.1318,6.3361],[-2.793,7.6713],[-3.8194,7.5197],[-5.0168,6.7019],[-5.6126,6.6241],[-6.091,6.8909],[-7.4715,8.5869],[-7.7271,10.7287],[-8.0556,11.6569],[-8.6761,12.4609],[-9.5157,12.9419],[-12.8192,12.9419],[-14.7356,12.4469],[-15.9612,11.7347],[-15.8812,11.9455],[-15.9362,11.9605],[-16.1126,11.8777],[-16.3861,12.0713],[-16.1391,12.2933],[-16.4726,12.1767],[-16.7821,12.4125],[-16.5909,12.6329],[-16.4007,12.5731],[-16.5738,12.6699],[-16.7722,12.5731],[-16.825,13.3337],[-16.685,13.4887],[-16.5559,13.2971],[-16.3657,13.2689],[-16.1536,13.4269],[-15.6241,13.4423],[-15.5864,13.4911],[-16.1532,13.4521],[-16.3188,13.3355],[-16.5133,13.3535],[-16.6485,13.7065],[-16.5158,13.8593],[-16.6532,13.8289],[-16.6999,13.7749],[-16.7259,13.9965],[-16.7698,13.9565],[-16.7723,13.8315],[-17.1584,14.6227],[-17.5352,14.7467],[-17.1289,14.9211],[-16.6126,15.6349],[-16.4851,16.3755],[-14.7678,16.4857],[-3.4759,15.4745],[5.3307,13.8245],[11.7085,13.1415],[21.5311,12.7533],[27.8275,13.1673],[30.3979,13.8273],[32.4185,15.5527],[33.9611,17.9389],[34.4067,19.5561],[34.7295,22.0851],[35.2863,22.7581],[35.7785,22.8295]],[[42.4489,12.5101],[42.3941,12.4501],[42.3975,12.4537],[42.4489,12.5101]]],[[[43.4727,11.4461],[43.4507,11.4319],[43.4629,11.4475],[43.4727,11.4461]]],[[[43.4665,11.5091],[43.4521,11.5005],[43.4647,11.5115],[43.4665,11.5091]]],[[[43.3601,11.4643],[43.3563,11.4669],[43.3639,11.4955],[43.3601,11.4643]]],[[[43.2139,11.7291],[43.2091,11.7257],[43.1991,11.7315],[43.2139,11.7291]]],[[[43.1849,11.7303],[43.1845,11.7225],[43.1807,11.7283],[43.1849,11.7303]]],[[[43.1481,12.7199],[43.1417,12.7133],[43.1401,12.7199],[43.1481,12.7199]]],[[[42.9635,12.9147],[42.9787,12.9259],[42.9913,12.9011],[42.9635,12.9147]]],[[[42.9597,12.9477],[42.9785,12.9335],[42.9769,12.9307],[42.9597,12.9477]]],[[[42.9725,12.8969],[42.9627,12.8945],[42.9621,12.9041],[42.9725,12.8969]]],[[[42.9493,12.8997],[42.9333,12.8853],[42.9255,12.9041],[42.9493,12.8997]]],[[[42.9095,12.9627],[42.9445,12.9061],[42.8855,12.9497],[42.9095,12.9627]]],[[[42.9371,12.8423],[42.9327,12.8275],[42.9283,12.8439],[42.9371,12.8423]]],[[[42.9333,12.9873],[42.9257,12.9803],[42.9163,12.9959],[42.9333,12.9873]]],[[[42.9039,12.8531],[42.9115,12.8455],[42.8973,12.8481],[42.9039,12.8531]]],[[[42.8945,12.9735],[42.8929,12.9689],[42.8911,12.9745],[42.8945,12.9735]]],[[[42.8857,12.8683],[42.8763,12.8621],[42.8777,12.8735],[42.8857,12.8683]]],[[[42.8845,12.9775],[42.8843,12.9625],[42.8765,12.9783],[42.8845,12.9775]]],[[[42.8615,13.0425],[42.8731,13.0041],[42.8375,13.0371],[42.8615,13.0425]]],[[[42.8579,12.8773],[42.8563,12.8683],[42.8477,12.8721],[42.8579,12.8773]]],[[[42.8247,12.9833],[42.8543,12.9545],[42.8489,12.9399],[42.8247,12.9833]]],[[[42.8153,12.9641],[42.8165,12.9499],[42.7975,12.9563],[42.8153,12.9641]]],[[[42.7919,12.8641],[42.8097,12.8727],[42.8141,12.8689],[42.7919,12.8641]]],[[[42.7783,12.8713],[42.7823,12.8629],[42.7721,12.8727],[42.7783,12.8713]]],[[[42.5811,13.1701],[42.5897,13.1559],[42.5789,13.1707],[42.5811,13.1701]]],[[[42.5721,13.1935],[42.5701,13.1821],[42.5703,13.1949],[42.5721,13.1935]]],[[[42.5635,-0.373],[42.5433,-0.3943],[42.5417,-0.3925],[42.5635,-0.373]]],[[[42.3459,-0.6358],[42.3185,-0.6549],[42.3467,-0.6229],[42.3459,-0.6358]]],[[[42.2985,-0.7103],[42.2623,-0.7459],[42.2729,-0.7267],[42.2985,-0.7103]]],[[[42.2587,-0.7452],[42.2483,-0.7484],[42.2563,-0.7406],[42.2587,-0.7452]]],[[[42.2357,-0.7755],[42.2291,-0.7901],[42.2243,-0.7879],[42.2357,-0.7755]]],[[[42.2223,-0.7957],[42.1475,-0.8687],[42.1375,-0.8886],[42.1337,-0.8788],[42.1655,-0.8377],[42.2223,-0.7957]]],[[[42.2189,13.6173],[42.2123,13.6009],[42.2145,13.6213],[42.2189,13.6173]]],[[[42.2043,13.6279],[42.1879,13.6155],[42.2013,13.6311],[42.2043,13.6279]]],[[[42.1403,13.6599],[42.1499,13.6581],[42.1433,13.6527],[42.1403,13.6599]]],[[[42.1181,-0.907],[42.1143,-0.916],[42.1105,-0.9096],[42.1181,-0.907]]],[[[42.1065,-0.9282],[42.0997,-0.9479],[42.0963,-0.9464],[42.1065,-0.9282]]],[[[42.0323,-1.0095],[42.0157,-1.0113],[42.0533,-0.9812],[42.0323,-1.0095]]],[[[41.9925,-1.0771],[41.9711,-1.0826],[41.9909,-1.0695],[41.9925,-1.0771]]],[[[41.9879,13.8861],[41.9695,13.8767],[41.9887,13.8953],[41.9879,13.8861]]],[[[41.9409,-1.1448],[41.9169,-1.156],[41.9451,-1.1314],[41.9409,-1.1448]]],[[[41.9413,13.8821],[41.9305,13.8801],[41.9407,13.8841],[41.9413,13.8821]]],[[[41.5097,-1.7563],[41.4949,-1.7599],[41.5143,-1.7434],[41.5097,-1.7563]]],[[[41.4843,-1.7902],[41.4573,-1.8015],[41.4855,-1.7732],[41.4843,-1.7902]]],[[[41.4313,-1.8572],[41.3897,-1.8861],[41.4349,-1.8482],[41.4313,-1.8572]]],[[[41.3681,-1.905],[41.3541,-1.9148],[41.3649,-1.9018],[41.3681,-1.905]]],[[[41.3473,-1.9225],[41.3387,-1.9345],[41.3375,-1.9285],[41.3473,-1.9225]]],[[[41.3009,-1.9694],[41.2561,-2.0285],[41.2675,-1.9957],[41.3009,-1.9694]]],[[[41.2697,-1.9787],[41.2457,-1.9792],[41.2545,-1.9677],[41.2697,-1.9787]]],[[[41.2139,-2.0107],[41.1975,-2.0127],[41.2025,-2.0012],[41.2139,-2.0107]]],[[[41.1479,-2.0091],[41.1857,-2.0234],[41.1441,-2.0154],[41.1479,-2.0091]]],[[[40.9761,-2.1081],[41.1721,-2.0979],[41.0417,-2.1198],[40.9999,-2.1985],[40.9761,-2.1081]]],[[[41.1505,-2.0434],[41.1437,-2.0501],[41.1331,-2.0371],[41.1505,-2.0434]]],[[[41.0573,-2.1489],[41.0481,-2.1587],[41.0479,-2.1485],[41.0573,-2.1489]]],[[[40.9837,-2.224],[40.9977,-2.2245],[40.9965,-2.2309],[40.9837,-2.224]]],[[[40.8493,-2.2519],[40.8767,-2.2961],[40.8189,-2.3254],[40.8493,-2.2519]]],[[[40.8983,14.7491],[40.8803,14.7429],[40.8797,14.7447],[40.8983,14.7491]]],[[[40.8375,-14.5332],[40.8383,-14.5451],[40.8365,-14.5449],[40.8375,-14.5332]]],[[[40.8011,14.7513],[40.7859,14.7433],[40.8071,14.7609],[40.8011,14.7513]]],[[[40.8005,14.7917],[40.7945,14.7781],[40.7875,14.7783],[40.8005,14.7917]]],[[[40.8031,-2.3037],[40.7935,-2.3037],[40.7937,-2.301],[40.8031,-2.3037]]],[[[40.7667,14.8553],[40.7609,14.8481],[40.7399,14.8645],[40.7667,14.8553]]],[[[40.7643,14.8255],[40.7571,14.8203],[40.7627,14.8287],[40.7643,14.8255]]],[[[40.7151,-10.9959],[40.6437,-11.0436],[40.6093,-11.0313],[40.7151,-10.9959]]],[[[40.6851,-11.1474],[40.6691,-11.1762],[40.6527,-11.1874],[40.6851,-11.1474]]],[[[40.6537,-10.8274],[40.6535,-10.8752],[40.6437,-10.8771],[40.6537,-10.8274]]],[[[40.6327,-10.773],[40.6567,-10.7708],[40.6513,-10.7978],[40.6327,-10.773]]],[[[40.6395,-11.3696],[40.6209,-11.3704],[40.6475,-11.3667],[40.6395,-11.3696]]],[[[40.6177,-11.1939],[40.6143,-11.1989],[40.5867,-11.1797],[40.6177,-11.1939]]],[[[40.6311,-12.4731],[40.6309,-12.4879],[40.6241,-12.4825],[40.6311,-12.4731]]],[[[40.6229,-12.5943],[40.6159,-12.6079],[40.5969,-12.5968],[40.6229,-12.5943]]],[[[40.5975,-12.3213],[40.5931,-12.3913],[40.5457,-12.3604],[40.5975,-12.3213]]],[[[40.6161,-12.415],[40.5921,-12.4488],[40.5953,-12.4029],[40.6161,-12.415]]],[[[40.6111,-12.5407],[40.5785,-12.5479],[40.6019,-12.5282],[40.6111,-12.5407]]],[[[40.6061,-11.8162],[40.5995,-11.8211],[40.5969,-11.8194],[40.6061,-11.8162]]],[[[40.5557,-12.1971],[40.6075,-12.2077],[40.5869,-12.2546],[40.5557,-12.1971]]],[[[40.6015,-12.4873],[40.5993,-12.4952],[40.5971,-12.488],[40.6015,-12.4873]]],[[[40.5893,14.9661],[40.5763,14.9621],[40.5901,14.9681],[40.5893,14.9661]]],[[[40.5705,-11.976],[40.5889,-11.9886],[40.5807,-11.9977],[40.5705,-11.976]]],[[[40.5241,-12.3744],[40.5227,-12.3827],[40.5219,-12.3753],[40.5241,-12.3744]]],[[[40.5151,15.0017],[40.4867,14.9955],[40.4971,15.0151],[40.5151,15.0017]]],[[[40.4893,15.0763],[40.4937,15.0611],[40.4671,15.0643],[40.4893,15.0763]]],[[[40.4977,-12.2875],[40.5013,-12.3359],[40.4885,-12.2798],[40.4977,-12.2875]]],[[[40.4285,-10.3758],[40.4235,-10.3813],[40.4213,-10.378],[40.4285,-10.3758]]],[[[40.4059,15.0381],[40.4179,15.0229],[40.3957,15.0245],[40.4059,15.0381]]],[[[40.3773,-10.2775],[40.3695,-10.2834],[40.3703,-10.2744],[40.3773,-10.2775]]],[[[40.2907,15.0531],[40.3119,14.9761],[40.2665,14.9699],[40.2907,15.0531]]],[[[40.3363,-10.2423],[40.3291,-10.2568],[40.3209,-10.2401],[40.3363,-10.2423]]],[[[40.3433,15.1599],[40.3381,15.1469],[40.3409,15.1603],[40.3433,15.1599]]],[[[40.3389,15.0879],[40.3167,15.0731],[40.3145,15.0757],[40.3389,15.0879]]],[[[40.3319,15.1213],[40.2973,15.1153],[40.3359,15.1377],[40.3319,15.1213]]],[[[40.2327,15.1705],[40.2757,15.1165],[40.2499,15.1061],[40.2327,15.1705]]],[[[40.2651,15.0885],[40.2565,15.0753],[40.2545,15.0759],[40.2651,15.0885]]],[[[40.2675,15.2245],[40.2441,15.2465],[40.2715,15.2363],[40.2675,15.2245]]],[[[40.2447,15.0609],[40.2339,15.0577],[40.2435,15.0635],[40.2447,15.0609]]],[[[40.1881,-2.7828],[40.1847,-2.7801],[40.1905,-2.7701],[40.1881,-2.7828]]],[[[40.1895,15.0289],[40.1741,15.0235],[40.1815,15.0379],[40.1895,15.0289]]],[[[40.1725,15.1715],[40.1621,15.1679],[40.1725,15.1793],[40.1725,15.1715]]],[[[40.1729,15.2751],[40.1581,15.2599],[40.1571,15.2637],[40.1729,15.2751]]],[[[40.1377,15.1567],[40.1313,15.1517],[40.1305,15.1603],[40.1377,15.1567]]],[[[40.1283,15.2381],[40.1181,15.2313],[40.1249,15.2459],[40.1283,15.2381]]],[[[40.0927,15.2071],[40.0983,15.1999],[40.0943,15.1997],[40.0927,15.2071]]],[[[40.0985,15.2717],[40.0931,15.2591],[40.0913,15.2603],[40.0985,15.2717]]],[[[40.0893,15.1903],[40.0749,15.1789],[40.0889,15.1979],[40.0893,15.1903]]],[[[40.0829,15.2445],[40.0693,15.2299],[40.0679,15.2347],[40.0829,15.2445]]],[[[40.0821,15.2067],[40.0673,15.1911],[40.0483,15.1977],[40.0821,15.2067]]],[[[40.0103,15.5271],[39.9803,15.5367],[39.9791,15.5483],[40.0103,15.5271]]],[[[39.9921,15.5955],[39.9861,15.5961],[39.9749,15.6037],[39.9921,15.5955]]],[[[39.9515,-16.263],[39.9437,-16.2776],[39.9403,-16.2766],[39.9515,-16.263]]],[[[39.9381,-16.3269],[39.9017,-16.3753],[39.9337,-16.3111],[39.9381,-16.3269]]],[[[39.9341,-6.9003],[39.9287,-6.9073],[39.9293,-6.8999],[39.9341,-6.9003]]],[[[39.8083,-16.3182],[39.8929,-16.4073],[39.8455,-16.4207],[39.8083,-16.3182]]],[[[39.9027,-7.6402],[39.7445,-7.9779],[39.5887,-7.9509],[39.9027,-7.6402]]],[[[39.9011,15.4949],[39.8849,15.4895],[39.8935,15.5019],[39.9011,15.4949]]],[[[39.8981,-16.4126],[39.8805,-16.4255],[39.8577,-16.4254],[39.8981,-16.4126]]],[[[39.7009,-4.9073],[39.8755,-4.9811],[39.7077,-5.4447],[39.7745,-5.2481],[39.7009,-4.9073]]],[[[39.8603,-5.0741],[39.8727,-5.0759],[39.8419,-5.1001],[39.8603,-5.0741]]],[[[39.8433,-4.9146],[39.8357,-4.9266],[39.8387,-4.9084],[39.8433,-4.9146]]],[[[39.8253,-4.9325],[39.8183,-4.9505],[39.8157,-4.9282],[39.8253,-4.9325]]],[[[39.8185,15.4929],[39.8091,15.4901],[39.8149,15.4989],[39.8185,15.4929]]],[[[39.8079,-7.9358],[39.8161,-7.9384],[39.8095,-7.9468],[39.8079,-7.9358]]],[[[39.7633,-7.9833],[39.7791,-8.0268],[39.7563,-8.0247],[39.7633,-7.9833]]],[[[39.8031,-5.3761],[39.7993,-5.3991],[39.7825,-5.412],[39.8031,-5.3761]]],[[[39.7997,-16.3138],[39.7843,-16.3188],[39.7979,-16.31],[39.7997,-16.3138]]],[[[39.7783,-16.3233],[39.7781,-16.333],[39.7759,-16.3218],[39.7783,-16.3233]]],[[[39.7621,-7.9792],[39.7537,-7.9893],[39.7545,-7.9718],[39.7621,-7.9792]]],[[[39.7473,15.4911],[39.7597,15.4303],[39.7573,15.4269],[39.7393,15.4579],[39.7473,15.4911]]],[[[39.7527,-5.4392],[39.7277,-5.4489],[39.7431,-5.4285],[39.7527,-5.4392]]],[[[39.7221,-8.0697],[39.7407,-8.0504],[39.7419,-8.0534],[39.7221,-8.0697]]],[[[39.6707,-4.0326],[39.6583,-4.0644],[39.6537,-4.0343],[39.6707,-4.0326]]],[[[39.6723,-5.4528],[39.6739,-5.4636],[39.6657,-5.4503],[39.6723,-5.4528]]],[[[39.6667,-4.9881],[39.6593,-4.9923],[39.6705,-4.9602],[39.6667,-4.9881]]],[[[39.6433,-5.0785],[39.6365,-5.0808],[39.6617,-5.0052],[39.6433,-5.0785]]],[[[39.6639,-5.0485],[39.6567,-5.0562],[39.6631,-5.0445],[39.6639,-5.0485]]],[[[39.6245,15.9155],[39.6629,15.8961],[39.6093,15.8959],[39.6245,15.9155]]],[[[39.6103,-5.4558],[39.6553,-5.4444],[39.6579,-5.4798],[39.6103,-5.4558]]],[[[39.6499,-5.1385],[39.6373,-5.1446],[39.6495,-5.135],[39.6499,-5.1385]]],[[[39.6451,-5.1102],[39.6303,-5.1057],[39.6357,-5.099],[39.6451,-5.1102]]],[[[39.6341,-5.3747],[39.6279,-5.3844],[39.6113,-5.3728],[39.6341,-5.3747]]],[[[39.6285,-5.1441],[39.6175,-5.1502],[39.6149,-5.1477],[39.6285,-5.1441]]],[[[39.6119,-5.2419],[39.6055,-5.2359],[39.6141,-5.2387],[39.6119,-5.2419]]],[[[39.6097,-8.2757],[39.5979,-8.2771],[39.6091,-8.27],[39.6097,-8.2757]]],[[[39.5989,15.9553],[39.6071,15.9337],[39.5953,15.9571],[39.5989,15.9553]]],[[[39.5947,-5.3632],[39.5875,-5.3683],[39.5867,-5.3667],[39.5947,-5.3632]]],[[[39.5815,-9.0943],[39.5763,-9.1001],[39.5723,-9.0937],[39.5815,-9.0943]]],[[[39.2999,-5.7187],[39.5337,-6.1915],[39.5129,-6.476],[39.4307,-6.2875],[39.1853,-6.1645],[39.2999,-5.7187]]],[[[39.5381,16.3475],[39.5351,16.3329],[39.5279,16.3361],[39.5381,16.3475]]],[[[39.4909,-8.963],[39.5355,-9.0143],[39.5187,-9.0136],[39.4909,-8.963]]],[[[39.5343,-9.049],[39.5241,-9.0586],[39.5237,-9.0459],[39.5343,-9.049]]],[[[39.5053,-7.9436],[39.5331,-7.9477],[39.5329,-7.9497],[39.5053,-7.9436]]],[[[39.5129,-8.5121],[39.5019,-8.5251],[39.4997,-8.5047],[39.5129,-8.5121]]],[[[39.4229,16.1499],[39.4819,16.0677],[39.4589,16.0331],[39.4229,16.1499]]],[[[39.4683,-8.6314],[39.4491,-8.6466],[39.4449,-8.6463],[39.4683,-8.6314]]],[[[39.4377,-4.5381],[39.4215,-4.546],[39.4363,-4.5348],[39.4377,-4.5381]]],[[[39.4059,-7.4016],[39.4171,-7.4264],[39.3781,-7.4168],[39.4059,-7.4016]]],[[[39.4173,-6.3976],[39.4149,-6.4077],[39.4117,-6.393],[39.4173,-6.3976]]],[[[39.3657,-4.654],[39.4053,-4.6678],[39.3551,-4.664],[39.3657,-4.654]]],[[[39.3357,-6.4189],[39.3397,-6.4333],[39.3321,-6.4182],[39.3357,-6.4189]]],[[[39.3285,16.6185],[39.3193,16.6097],[39.3157,16.6163],[39.3285,16.6185]]],[[[39.3115,-6.2685],[39.3251,-6.2621],[39.3271,-6.2644],[39.3115,-6.2685]]],[[[39.3119,-7.7765],[39.2949,-7.7859],[39.3091,-7.7732],[39.3119,-7.7765]]],[[[39.2953,-6.3744],[39.2867,-6.3751],[39.2893,-6.3707],[39.2953,-6.3744]]],[[[39.2941,-7.8133],[39.2857,-7.8136],[39.2925,-7.8094],[39.2941,-7.8133]]],[[[39.2899,-4.6613],[39.2759,-4.6635],[39.2753,-4.6507],[39.2899,-4.6613]]],[[[39.2839,-7.8006],[39.2739,-7.8067],[39.2715,-7.8044],[39.2839,-7.8006]]],[[[39.2665,-6.6909],[39.2591,-6.6919],[39.2603,-6.6884],[39.2665,-6.6909]]],[[[39.2575,-5.8167],[39.2485,-5.82],[39.2565,-5.8131],[39.2575,-5.8167]]],[[[39.2519,-6.6473],[39.2481,-6.6538],[39.2463,-6.6465],[39.2519,-6.6473]]],[[[39.2247,-5.7691],[39.2391,-5.8551],[39.2157,-5.8548],[39.2247,-5.7691]]],[[[39.1913,-6.2741],[39.1953,-6.2893],[39.1853,-6.2747],[39.1913,-6.2741]]],[[[39.1675,-5.1021],[39.1559,-5.1046],[39.1689,-5.0855],[39.1675,-5.1021]]],[[[39.1671,-5.0049],[39.1633,-5.0134],[39.1633,-5.0056],[39.1671,-5.0049]]],[[[39.1533,16.6169],[39.1465,16.6085],[39.1487,16.6197],[39.1533,16.6169]]],[[[39.1491,-5.1943],[39.1341,-5.2049],[39.1531,-5.1724],[39.1491,-5.1943]]],[[[39.1157,-5.1403],[39.1171,-5.1465],[39.1139,-5.1452],[39.1157,-5.1403]]],[[[39.0857,-17.1136],[39.0777,-17.122],[39.0759,-17.1175],[39.0857,-17.1136]]],[[[39.0799,-16.9365],[39.0671,-16.9515],[39.0677,-16.9395],[39.0799,-16.9365]]],[[[38.5123,18.1033],[38.5199,18.0889],[38.5103,18.1019],[38.5123,18.1033]]],[[[38.4935,18.1419],[38.4933,18.1223],[38.4759,18.1235],[38.4935,18.1419]]],[[[38.4849,18.1503],[38.4785,18.1445],[38.4831,18.1549],[38.4849,18.1503]]],[[[38.4129,18.1901],[38.4553,18.1761],[38.4649,18.1673],[38.4719,18.1279],[38.4129,18.1901]]],[[[38.4697,18.1061],[38.4483,18.1137],[38.4547,18.1205],[38.4697,18.1061]]],[[[38.4089,18.1487],[38.4075,18.1379],[38.4029,18.1409],[38.4089,18.1487]]],[[[38.3407,18.2341],[38.3635,18.2335],[38.3647,18.2227],[38.3407,18.2341]]],[[[38.3045,18.2261],[38.3397,18.2139],[38.2967,18.2243],[38.3045,18.2261]]],[[[38.1615,18.8387],[38.1719,18.8213],[38.1495,18.8297],[38.1615,18.8387]]],[[[38.0241,18.7843],[37.9987,18.7693],[37.9925,18.7919],[38.0241,18.7843]]],[[[37.8157,19.2271],[37.8093,19.2265],[37.8149,19.2285],[37.8157,19.2271]]],[[[37.7197,18.7719],[37.7411,18.7517],[37.6987,18.7705],[37.7197,18.7719]]],[[[37.7065,19.2461],[37.7173,19.2297],[37.6993,19.2421],[37.7065,19.2461]]],[[[37.6767,18.7821],[37.6953,18.7773],[37.6885,18.7627],[37.6767,18.7821]]],[[[37.6853,18.7373],[37.6861,18.7311],[37.6761,18.7367],[37.6853,18.7373]]],[[[37.6845,18.7507],[37.6787,18.7475],[37.6757,18.7537],[37.6845,18.7507]]],[[[37.6167,19.1581],[37.6225,19.1501],[37.6085,19.1537],[37.6167,19.1581]]],[[[37.5869,18.7369],[37.6173,18.7323],[37.5843,18.7343],[37.5869,18.7369]]],[[[37.6089,19.1853],[37.5999,19.1823],[37.5981,19.1861],[37.6089,19.1853]]],[[[37.5029,18.7651],[37.4933,18.7581],[37.4915,18.7663],[37.5029,18.7651]]],[[[37.5077,18.7475],[37.5045,18.7407],[37.5049,18.7481],[37.5077,18.7475]]],[[[37.3995,19.0467],[37.4001,18.9493],[37.3897,19.0521],[37.3995,19.0467]]],[[[37.2515,20.8383],[37.2733,20.7755],[37.2527,20.7507],[37.2515,20.8383]]],[[[37.1363,21.1447],[37.1509,21.1485],[37.1357,21.1427],[37.1363,21.1447]]],[[[36.9277,-18.0133],[36.9207,-18.0193],[36.9167,-18.0113],[36.9277,-18.0133]]],[[[36.8041,-18.2039],[36.7963,-18.2069],[36.8003,-18.1986],[36.8041,-18.2039]]],[[[36.7991,-18.2228],[36.7859,-18.225],[36.7997,-18.2188],[36.7991,-18.2228]]],[[[36.7669,-18.2069],[36.7853,-18.21],[36.7867,-18.2127],[36.7737,-18.2168],[36.7669,-18.2069]]],[[[36.6301,22.2667],[36.6427,22.2563],[36.6277,22.2515],[36.6301,22.2667]]],[[[36.4821,-18.5696],[36.4801,-18.5768],[36.4767,-18.5688],[36.4821,-18.5696]]],[[[36.3849,-18.6764],[36.4061,-18.7033],[36.3931,-18.7149],[36.3849,-18.6764]]],[[[36.2453,-18.837],[36.2847,-18.8937],[36.1485,-18.9052],[36.2453,-18.837]]],[[[36.1485,-18.9123],[36.1375,-18.9168],[36.1353,-18.9146],[36.1485,-18.9123]]],[[[35.9871,-18.9143],[35.9651,-18.9181],[35.9861,-18.9113],[35.9871,-18.9143]]],[[[35.9801,-18.929],[35.9771,-18.9381],[35.9711,-18.9336],[35.9801,-18.929]]],[[[35.7031,-19.0974],[35.7145,-19.1092],[35.7037,-19.1151],[35.7031,-19.0974]]],[[[35.5375,-22.1537],[35.5273,-22.1448],[35.5345,-22.1358],[35.5375,-22.1537]]],[[[35.5319,-22.1806],[35.5233,-22.1838],[35.5285,-22.1748],[35.5319,-22.1806]]],[[[35.5043,-21.8205],[35.5029,-21.8294],[35.5037,-21.8037],[35.5043,-21.8205]]],[[[35.5005,-21.6949],[35.4933,-21.7016],[35.4985,-21.6903],[35.5005,-21.6949]]],[[[35.4573,-21.7951],[35.4351,-21.6565],[35.4817,-21.5152],[35.4961,-21.6543],[35.4573,-21.7951]]],[[[35.4725,-21.8717],[35.4705,-21.8784],[35.4695,-21.8724],[35.4725,-21.8717]]],[[[35.4141,-21.8667],[35.4495,-21.9032],[35.4567,-21.9234],[35.4141,-21.8667]]],[[[35.4425,-23.8455],[35.4365,-23.8601],[35.4341,-23.8425],[35.4425,-23.8455]]],[[[35.4269,-21.9551],[35.4369,-21.9762],[35.4205,-21.9778],[35.4269,-21.9551]]],[[[35.4367,-23.7903],[35.4259,-23.7875],[35.4357,-23.788],[35.4367,-23.7903]]],[[[35.4261,-23.8089],[35.4213,-23.8169],[35.4183,-23.8111],[35.4261,-23.8089]]],[[[35.3423,-21.6115],[35.3349,-21.6242],[35.3301,-21.6037],[35.3423,-21.6115]]],[[[35.0219,-20.8259],[35.0207,-20.839],[35.0173,-20.8264],[35.0219,-20.8259]]],[[[34.9613,-20.6637],[34.9543,-20.6712],[34.9539,-20.6595],[34.9613,-20.6637]]],[[[34.9063,-20.6765],[34.9237,-20.6292],[34.9461,-20.6653],[34.9063,-20.6765]]],[[[34.9397,-20.6781],[34.9317,-20.6861],[34.9279,-20.6839],[34.9397,-20.6781]]],[[[34.7991,-19.7741],[34.8087,-19.7949],[34.7947,-19.7737],[34.7991,-19.7741]]],[[[34.7673,-19.7752],[34.7533,-19.7676],[34.7523,-19.7587],[34.7673,-19.7752]]],[[[34.7125,-19.731],[34.7417,-19.7267],[34.7665,-19.7454],[34.7125,-19.731]]],[[[34.7635,-19.8701],[34.7627,-19.8832],[34.7519,-19.8796],[34.7635,-19.8701]]],[[[34.7219,-20.5176],[34.7227,-20.55],[34.7003,-20.5277],[34.7219,-20.5176]]],[[[34.7055,-19.7505],[34.6937,-19.7524],[34.6849,-19.741],[34.7055,-19.7505]]],[[[34.6829,-19.719],[34.6787,-19.727],[34.6777,-19.7134],[34.6829,-19.719]]],[[[34.6691,-19.7143],[34.6683,-19.7276],[34.6655,-19.7152],[34.6691,-19.7143]]],[[[34.6647,-19.6838],[34.6459,-19.6814],[34.6465,-19.6667],[34.6647,-19.6838]]],[[[34.6465,-20.5003],[34.6327,-20.5132],[34.6357,-20.4854],[34.6465,-20.5003]]],[[[32.9231,-25.9983],[32.9609,-26.0718],[32.9037,-26.0548],[32.9231,-25.9983]]],[[[32.9241,-25.9696],[32.9129,-25.9793],[32.9089,-25.9701],[32.9241,-25.9696]]],[[[32.7325,-25.8326],[32.7135,-25.8455],[32.7275,-25.8261],[32.7325,-25.8326]]],[[[32.6927,-25.937],[32.6903,-25.9247],[32.7097,-25.9098],[32.6927,-25.937]]],[[[18.3695,-33.8073],[18.3549,-33.8107],[18.3699,-33.7947],[18.3695,-33.8073]]],[[[18.1987,-31.684],[18.1959,-31.6957],[18.1907,-31.6939],[18.1987,-31.684]]],[[[18.0703,-33.4126],[18.0917,-33.4272],[18.0819,-33.4283],[18.0703,-33.4126]]],[[[13.2643,-8.7584],[13.1945,-8.8269],[13.2249,-8.7841],[13.2643,-8.7584]]],[[[13.1325,-8.9357],[13.1365,-8.9329],[13.1427,-8.9334],[13.1325,-8.9357]]],[[[13.1269,-8.9033],[13.1221,-8.9387],[13.1003,-8.9386],[13.1269,-8.9033]]],[[[13.0565,-8.9812],[13.0507,-8.9793],[13.0581,-8.9729],[13.0565,-8.9812]]],[[[-15.8683,11.7617],[-15.88,11.7529],[-15.8839,11.7603],[-15.8683,11.7617]]],[[[-15.9386,11.8843],[-15.9479,11.8741],[-15.9497,11.8747],[-15.9386,11.8843]]],[[[-15.9848,11.9067],[-16.0055,11.8951],[-16.0392,11.9009],[-15.9848,11.9067]]],[[[-15.9869,11.8305],[-16.0135,11.8179],[-15.992,11.8435],[-15.9869,11.8305]]],[[[-16.1609,11.8745],[-16.0548,11.7603],[-16.1632,11.8105],[-16.1609,11.8745]]],[[[-16.3021,11.9741],[-16.1856,11.8753],[-16.3442,11.8559],[-16.3021,11.9741]]],[[[-16.607,13.8273],[-16.6656,13.7753],[-16.6734,13.7817],[-16.607,13.8273]]],[[[-16.6416,13.6683],[-16.6523,13.6575],[-16.6503,13.6917],[-16.6416,13.6683]]],[[[-16.678,13.6631],[-16.6703,13.6411],[-16.6825,13.6631],[-16.678,13.6631]]],[[[-16.7616,13.9247],[-16.7582,13.9145],[-16.761,13.9151],[-16.7616,13.9247]]],[[[-17.4704,14.6619],[-17.4739,14.6497],[-17.4799,14.6605],[-17.4704,14.6619]]]]}},{"type":"Feature","properties":{"birdlifeId":"22682860","scientificName":"Coracias garrulus","rangeType":"breeding","speciesId":"avibase-7451A628","speciesName":"European Roller","speciesLatin":"Coracias garrulus"},"geometry":{"type":"MultiPolygon","coordinates":[[[[8.9609,48.4847],[8.6527,48.5535],[8.4311,48.9031],[8.4139,49.7573],[9.6909,50.8397],[11.1551,52.7247],[12.2573,52.8895],[14.0245,52.4383],[14.5659,52.1145],[14.6271,51.5307],[14.2147,51.0649],[11.5663,50.0939],[8.9609,48.4847]]],[[[24.3864,57.7509],[24.3434,57.7397],[24.3443,57.7529],[24.3864,57.7509]]],[[[28.3027,59.669],[28.2725,59.2298],[27.9904,58.9678],[27.799,58.2928],[27.9199,57.8496],[27.7587,57.6078],[27.3154,57.497],[26.5497,57.4164],[24.9177,57.8899],[24.3501,57.7599],[24.5671,58.3447],[23.7505,58.3403],[23.5011,58.6899],[23.8719,58.7697],[23.4251,58.9083],[23.6659,58.9763],[23.4173,59.0259],[23.5139,59.2283],[24.7981,59.5645],[25.4115,59.4885],[25.6997,59.6677],[27.8179,59.3973],[28.0685,59.4977],[28.0307,59.7507],[28.3027,59.669]]]]}}]}