{"type":"FeatureCollection","features":[{"type":"Feature","properties":{"birdlifeId":"22714908","scientificName":"Hippolais olivetorum","rangeType":"wintering","speciesId":"avibase-791DED18","speciesName":"Olive-tree Warbler","speciesLatin":"Hippolais olivetorum"},"geometry":{"type":"MultiPolygon","coordinates":[[[[25.8915,-17.2644],[28.6915,-19.3003],[32.4445,-18.7733],[33.5057,-19.4525],[33.5567,-19.6255],[32.5111,-21.2832],[32.0025,-21.4162],[31.4441,-22.2716],[31.5201,-22.4197],[30.6329,-23.3811],[29.8005,-25.0155],[29.8977,-25.1134],[29.5123,-26.0179],[29.5771,-26.6899],[29.7987,-27.0099],[31.2593,-27.2301],[32.6079,-27.8153],[32.3695,-28.5658],[31.7577,-28.9214],[31.2073,-29.5508],[29.3727,-28.2401],[28.1407,-27.9645],[27.9995,-27.1682],[28.2851,-26.6141],[28.2821,-26.115],[27.9641,-25.4967],[26.7903,-25.5913],[25.1949,-26.3169],[24.1933,-26.3325],[23.3629,-25.6194],[23.1009,-24.6474],[21.6291,-24.2412],[21.2033,-23.7959],[21.2785,-23.2692],[21.6503,-23.0144],[23.2549,-22.8441],[24.4109,-22.5038],[25.6541,-22.0371],[26.3617,-21.5528],[26.5459,-20.9012],[24.9759,-19.5727],[24.6619,-18.2771],[24.6593,-17.9774],[25.8915,-17.2644]]],[[[39.7783,-3.9364],[39.5657,-4.0454],[39.3971,-4.5859],[38.9133,-3.8609],[39.0765,-3.1106],[39.5889,-3.2062],[39.7783,-3.9364]]],[[[38.3157,-0.0706],[37.6645,-0.0846],[37.1981,0.4021],[37.7249,0.9857],[38.3615,0.9297],[38.6429,0.6655],[38.6415,0.3323],[38.3157,-0.0706]]],[[[36.4383,-7.0993],[36.0685,-7.1017],[35.6447,-6.603],[36.0605,-6.0714],[36.3717,-6.0418],[36.7411,-6.3459],[36.7883,-6.7213],[36.4383,-7.0993]]],[[[31.9543,-7.3646],[32.3883,-7.781],[32.6205,-8.3802],[32.2699,-8.7318],[31.2627,-7.7741],[31.2577,-7.3827],[31.9543,-7.3646]]],[[[16.7521,-23.644],[15.9225,-23.3005],[16.0273,-22.622],[16.8623,-22.4389],[17.5315,-22.8088],[17.5609,-23.4355],[16.7521,-23.644]]]]}},{"type":"Feature","properties":{"birdlifeId":"22714908","scientificName":"Hippolais olivetorum","rangeType":"breeding","speciesId":"avibase-791DED18","speciesName":"Olive-tree Warbler","speciesLatin":"Hippolais olivetorum"},"geometry":{"type":"MultiPolygon","coordinates":[[[[29.2663,41.2369],[30.3523,41.1991],[30.3965,40.6571],[27.5709,38.9791],[27.9927,38.4361],[28.1523,37.7765],[28.6125,37.5469],[29.1935,37.4153],[31.7815,37.5615],[33.3731,36.9997],[36.4925,37.4041],[36.8823,37.6837],[39.0763,37.2467],[39.1703,36.7741],[37.2155,36.1567],[36.9931,35.5877],[36.7625,35.4981],[36.1301,35.6369],[36.2007,35.7779],[35.7747,35.6639],[35.9901,36.0109],[35.7943,36.3273],[36.2187,36.6517],[36.0297,36.9331],[35.3517,36.5431],[34.6563,36.8061],[33.9587,36.2123],[33.8789,36.3137],[33.6945,36.1317],[32.8081,36.0191],[32.0261,36.5441],[31.0427,36.8575],[30.6213,36.8479],[30.4047,36.2003],[30.1875,36.3051],[29.6809,36.1215],[29.1193,36.3749],[29.0963,36.6823],[28.9287,36.7547],[28.8481,36.5905],[28.4617,36.8821],[28.0341,36.5635],[28.1205,36.8077],[27.6777,36.6597],[27.4061,36.6655],[28.0347,36.7891],[28.3321,37.0505],[27.4245,37.0363],[27.2661,36.9683],[27.2563,37.1277],[27.4707,37.0839],[27.5777,37.1379],[27.6133,37.2745],[27.1907,37.3551],[27.2169,37.5887],[27.1615,37.6225],[27.0069,37.6661],[27.2399,37.7329],[27.2721,37.9663],[26.2343,38.2759],[26.2861,38.3791],[26.3825,38.3159],[26.5125,38.4199],[26.4157,38.6823],[26.6783,38.3159],[27.1685,38.4543],[26.7229,38.6533],[27.0655,38.8811],[26.6107,39.2815],[26.6717,39.2855],[26.8575,39.4451],[26.8587,39.4797],[26.9403,39.4941],[26.9525,39.5581],[26.0757,39.4753],[26.1645,39.9637],[26.7581,40.4095],[27.7699,40.3183],[27.7817,40.5359],[28.0375,40.4893],[27.9603,40.3611],[29.0599,40.3707],[29.1553,40.4453],[28.7857,40.5447],[29.9381,40.7289],[29.0421,40.9747],[29.2663,41.2369]],[[36.1893,36.0591],[36.2643,35.9055],[36.3917,36.1655],[36.3995,36.2701],[36.1893,36.0591]],[[26.6845,40.3501],[26.6843,40.3505],[26.6831,40.3495],[26.6845,40.3501]]],[[[36.7543,34.9083],[36.3341,34.8417],[36.1911,35.2111],[36.9327,35.2859],[36.7543,34.9083]]],[[[35.7921,32.4719],[35.6041,32.4023],[35.2027,32.6133],[35.2673,32.7605],[35.7753,32.7785],[35.7921,32.4719]]],[[[35.6159,33.2803],[35.4977,32.9033],[34.9587,32.7805],[35.2049,33.1921],[35.6159,33.2803]]],[[[33.7857,36.1989],[33.7635,36.1759],[33.7607,36.1801],[33.7857,36.1989]]],[[[30.9949,37.6225],[30.6077,37.6715],[30.5999,37.8185],[30.9973,37.9409],[30.9949,37.6225]]],[[[29.5031,36.1547],[29.4933,36.1617],[29.5133,36.1571],[29.5031,36.1547]]],[[[29.3711,36.2177],[29.3531,36.2077],[29.3513,36.2093],[29.3711,36.2177]]],[[[29.1571,40.8579],[29.1507,40.8525],[29.1475,40.8585],[29.1571,40.8579]]],[[[29.1479,40.8713],[29.1189,40.8777],[29.1423,40.8843],[29.1479,40.8713]]],[[[29.1289,40.8335],[29.1193,40.8307],[29.1175,40.8325],[29.1289,40.8335]]],[[[28.3873,41.4611],[29.0635,41.0905],[28.8231,40.9639],[27.5215,40.9829],[26.1953,40.0447],[26.2191,40.3245],[26.8201,40.6537],[26.1211,40.6043],[26.0879,40.8553],[25.5933,41.0301],[25.9565,41.3895],[26.2349,41.3895],[26.3065,41.0107],[26.9163,41.2951],[27.8529,41.3749],[28.3873,41.4611]]],[[[29.1061,40.8913],[29.0865,40.8729],[29.0825,40.8777],[29.1061,40.8913]]],[[[29.0721,40.8851],[29.0619,40.8851],[29.0669,40.8921],[29.0721,40.8851]]],[[[29.0517,40.9205],[29.0543,40.9093],[29.0481,40.9211],[29.0517,40.9205]]],[[[28.5311,43.4243],[28.0973,43.3753],[27.9071,43.1937],[27.9071,42.7093],[27.4551,42.4815],[27.7319,42.4169],[28.0521,41.9577],[27.6131,41.9867],[27.0267,42.3321],[27.6203,43.4457],[28.0951,43.6699],[28.0857,44.0347],[28.6497,44.0837],[28.5311,43.4243]]],[[[27.7763,41.7003],[28.1915,41.5631],[27.5791,41.4135],[27.7763,41.7003]]],[[[27.5983,36.9831],[27.5991,36.9715],[27.5877,36.9827],[27.5983,36.9831]]],[[[27.4965,37.1581],[27.5287,37.1459],[27.4927,37.1437],[27.4965,37.1581]]],[[[27.4781,36.9831],[27.4537,36.9725],[27.4247,37.0013],[27.4781,36.9831]]],[[[27.3883,37.0037],[27.3777,36.9975],[27.3829,37.0055],[27.3883,37.0037]]],[[[27.3765,37.1693],[27.3647,37.1697],[27.3653,37.1725],[27.3765,37.1693]]],[[[27.1599,37.5979],[27.1839,37.5599],[27.1521,37.5985],[27.1599,37.5979]]],[[[27.1443,37.6171],[27.1429,37.6069],[27.1397,37.6177],[27.1443,37.6171]]],[[[26.9725,37.7521],[26.8625,37.6379],[26.5699,37.7321],[26.7421,37.8147],[26.9725,37.7521]]],[[[26.9465,38.4373],[26.9063,38.4443],[26.9081,38.4731],[26.9465,38.4373]]],[[[26.7705,41.5929],[26.5057,41.5451],[26.5187,41.7721],[26.7829,41.8079],[26.7705,41.5929]]],[[[26.8363,38.5879],[26.8311,38.5647],[26.8293,38.5791],[26.8363,38.5879]]],[[[26.8085,38.9193],[26.8277,38.9213],[26.8199,38.9123],[26.8085,38.9193]]],[[[26.8061,37.6305],[26.7901,37.6311],[26.7911,37.6395],[26.8061,37.6305]]],[[[26.7771,38.4439],[26.7593,38.4443],[26.7641,38.4553],[26.7771,38.4439]]],[[[26.7669,39.3855],[26.7619,39.3775],[26.7605,39.3805],[26.7669,39.3855]]],[[[26.7249,38.5375],[26.6993,38.4791],[26.7029,38.5471],[26.7249,38.5375]]],[[[26.7225,38.6955],[26.7119,38.6933],[26.7083,38.7015],[26.7225,38.6955]]],[[[26.6227,39.3349],[26.6683,39.3907],[26.6891,39.3387],[26.6227,39.3349]]],[[[26.3541,39.3795],[26.6095,39.0151],[25.8323,39.1925],[25.9135,39.2965],[26.3541,39.3795]]],[[[26.6043,39.3467],[26.6003,39.3393],[26.5997,39.3417],[26.6043,39.3467]]],[[[26.6039,39.2909],[26.5793,39.2841],[26.5995,39.3075],[26.6039,39.2909]]],[[[26.5777,39.3959],[26.5927,39.3735],[26.5895,39.3733],[26.5777,39.3959]]],[[[26.4657,38.4043],[26.4685,38.3911],[26.4621,38.4031],[26.4657,38.4043]]],[[[25.7783,42.3083],[25.3407,42.4035],[25.0971,42.7477],[26.4225,42.6647],[25.7783,42.3083]]],[[[26.3871,38.4383],[26.3809,38.4261],[26.3757,38.4331],[26.3871,38.4383]]],[[[26.3579,38.4581],[26.3525,38.4313],[26.3287,38.4335],[26.3579,38.4581]]],[[[26.2947,38.5047],[26.2801,38.4997],[26.2755,38.5229],[26.2947,38.5047]]],[[[26.2809,38.4959],[26.2915,38.4893],[26.2781,38.4923],[26.2809,38.4959]]],[[[26.2043,38.5171],[26.2297,38.5397],[26.2693,38.5201],[26.2043,38.5171]]],[[[26.0139,38.6033],[26.1655,38.3295],[26.0129,38.1537],[25.8293,38.5453],[26.0139,38.6033]]],[[[26.0001,39.8487],[26.0529,39.7893],[25.9639,39.8403],[26.0001,39.8487]]],[[[26.0765,39.9417],[26.0727,39.9361],[26.0523,39.9415],[26.0765,39.9417]]],[[[26.0157,40.1543],[25.9911,40.1375],[26.0145,40.1675],[26.0157,40.1543]]],[[[25.8453,39.2287],[25.8301,39.2211],[25.8421,39.2317],[25.8453,39.2287]]],[[[25.5779,41.3537],[25.1549,41.4015],[25.4717,41.8079],[25.7883,41.6047],[25.5779,41.3537]]],[[[25.3401,37.0917],[25.6073,37.0869],[25.4401,36.9215],[25.3401,37.0917]]],[[[25.5771,37.4133],[25.5651,37.4109],[25.5717,37.4179],[25.5771,37.4133]]],[[[25.4907,37.4485],[25.4775,37.4485],[25.4923,37.4601],[25.4907,37.4485]]],[[[25.3113,37.4047],[25.3763,37.4639],[25.4615,37.4521],[25.3113,37.4047]]],[[[25.1325,37.0987],[25.2535,37.0173],[25.1175,36.9989],[25.1325,37.0987]]],[[[25.2701,37.4105],[25.2757,37.3799],[25.2589,37.3707],[25.2701,37.4105]]],[[[25.2319,37.4295],[25.2515,37.3787],[25.2191,37.3719],[25.2319,37.4295]]],[[[25.1181,36.9827],[25.1191,36.9709],[25.1071,36.9847],[25.1181,36.9827]]],[[[25.0649,36.9737],[25.0187,36.9883],[25.0807,37.0513],[25.0649,36.9737]]],[[[24.9951,36.9809],[25.0321,36.9663],[24.9803,36.9681],[24.9951,36.9809]]],[[[24.9705,36.9511],[24.9587,36.9557],[24.9709,36.9627],[24.9705,36.9511]]],[[[23.9171,38.6743],[24.2743,38.2043],[24.5901,38.1591],[24.5571,37.9805],[23.9767,38.3941],[23.9171,38.6743]]],[[[24.5247,37.9427],[24.5187,37.9383],[24.5197,37.9435],[24.5247,37.9427]]],[[[24.2951,40.9221],[23.7033,40.6789],[23.8857,40.4099],[24.2623,40.3133],[24.3329,40.1253],[24.1697,40.2887],[23.9195,40.3705],[23.6155,40.4049],[23.4795,40.6337],[23.7909,40.9821],[24.2951,40.9221]]],[[[24.2971,38.0375],[24.2837,38.0185],[24.2849,38.0383],[24.2971,38.0375]]],[[[24.2563,38.0265],[24.2735,37.9805],[24.2321,37.9887],[24.2563,38.0265]]],[[[24.2337,38.6123],[24.2215,38.6115],[24.2275,38.6169],[24.2337,38.6123]]],[[[24.1553,38.1785],[24.1785,38.1803],[24.1717,38.1617],[24.1553,38.1785]]],[[[24.1559,37.7239],[24.1087,37.6867],[24.1447,37.7561],[24.1559,37.7239]]],[[[24.1089,38.2387],[24.1003,38.2191],[24.1053,38.2397],[24.1089,38.2387]]],[[[20.3647,40.0433],[20.8583,39.3535],[21.3673,39.0501],[21.4115,38.5513],[22.5371,38.5999],[23.5261,38.1487],[23.9687,38.2815],[24.0681,37.6791],[23.5779,38.0475],[22.9977,37.8865],[22.5557,37.9041],[22.5429,38.1113],[22.9129,37.9393],[23.2275,38.1547],[22.4167,38.4431],[21.4909,38.3011],[21.3183,38.4973],[21.3367,38.3859],[21.2601,38.3693],[21.2371,38.3215],[21.1411,38.3057],[21.1011,38.5523],[20.7511,38.8533],[21.1737,38.8689],[21.1185,39.0413],[20.7307,38.9525],[20.0457,39.6841],[20.3647,40.0433]]],[[[23.9581,37.6575],[23.9447,37.6447],[23.9365,37.6511],[23.9581,37.6575]]],[[[23.9211,40.3505],[23.9547,40.3163],[23.8883,40.3341],[23.9211,40.3505]]],[[[23.2255,42.1179],[23.3247,41.8079],[23.8333,41.8199],[23.8867,41.5809],[22.6855,41.4733],[22.6931,42.2963],[23.2255,42.1179]]],[[[23.7689,37.7739],[23.7569,37.7721],[23.7663,37.7783],[23.7689,37.7739]]],[[[23.3795,39.0107],[23.7165,38.7607],[23.5415,38.5817],[22.8787,38.8773],[23.3795,39.0107]]],[[[23.5943,37.9489],[23.5869,37.9401],[23.5811,37.9425],[23.5943,37.9489]]],[[[23.4213,37.9857],[23.5155,37.8979],[23.4081,37.9015],[23.4213,37.9857]]],[[[22.7033,39.9613],[23.3533,39.1897],[23.2027,39.0993],[23.0603,39.0961],[23.0781,39.1503],[23.1027,39.1019],[23.2145,39.1529],[23.2203,39.1923],[22.9389,39.3617],[22.8289,39.2059],[23.0693,39.0427],[22.8407,38.9063],[22.5617,39.1595],[22.5103,39.8257],[22.7033,39.9613]]],[[[23.2101,39.1653],[23.2091,39.1727],[23.2119,39.1751],[23.2101,39.1653]]],[[[21.3713,38.2157],[22.1493,38.2297],[21.6101,37.8429],[22.1253,37.3281],[22.1537,37.6225],[22.7311,37.5329],[23.1979,36.4383],[22.6277,36.8089],[22.4831,36.3879],[22.1199,37.0313],[21.9327,36.9845],[21.8831,36.7203],[21.7079,36.8169],[21.6531,37.4367],[21.1075,37.8741],[21.3713,38.2157]]],[[[23.0719,39.1707],[23.0753,39.1559],[23.0667,39.1573],[23.0719,39.1707]]],[[[23.0779,39.0187],[23.0685,39.0113],[23.0617,39.0135],[23.0779,39.0187]]],[[[23.0125,38.1865],[23.0111,38.1827],[22.9957,38.1855],[23.0125,38.1865]]],[[[22.9733,36.5143],[22.9875,36.4607],[22.9289,36.4731],[22.9733,36.5143]]],[[[22.9621,38.1787],[22.9507,38.1803],[22.9735,38.1833],[22.9621,38.1787]]],[[[22.0821,38.3721],[22.0719,38.3607],[22.0629,38.3751],[22.0821,38.3721]]],[[[21.8943,36.6959],[21.8873,36.7049],[21.8901,36.7055],[21.8943,36.6959]]],[[[21.7507,36.7245],[21.7917,36.7437],[21.7801,36.7029],[21.7507,36.7245]]],[[[21.7283,36.7853],[21.6957,36.7407],[21.7037,36.7969],[21.7283,36.7853]]],[[[21.6671,36.9499],[21.6675,36.9191],[21.6599,36.9539],[21.6671,36.9499]]],[[[21.5633,37.0615],[21.5419,37.0595],[21.5609,37.0695],[21.5633,37.0615]]],[[[21.4189,38.3389],[21.4089,38.3345],[21.4173,38.3421],[21.4189,38.3389]]],[[[21.3195,38.3175],[21.3063,38.3051],[21.2999,38.3095],[21.3195,38.3175]]],[[[21.3191,38.3715],[21.3127,38.3633],[21.3081,38.3709],[21.3191,38.3715]]],[[[21.2959,38.3315],[21.2877,38.3253],[21.2925,38.3353],[21.2959,38.3315]]],[[[21.2929,38.3539],[21.2857,38.3497],[21.2917,38.3565],[21.2929,38.3539]]],[[[21.2869,38.3441],[21.2765,38.3397],[21.2729,38.3433],[21.2869,38.3441]]],[[[21.2859,38.3155],[21.2727,38.3071],[21.2707,38.3121],[21.2859,38.3155]]],[[[21.2795,38.3309],[21.2679,38.3267],[21.2775,38.3337],[21.2795,38.3309]]],[[[21.2153,38.3141],[21.2349,38.3003],[21.1931,38.3065],[21.2153,38.3141]]],[[[21.0963,38.3059],[21.1181,38.3005],[21.0989,38.2861],[21.0963,38.3059]]],[[[21.0643,38.4505],[21.0745,38.4567],[21.0765,38.4541],[21.0643,38.4505]]],[[[21.0599,38.3561],[21.0557,38.3479],[21.0555,38.3589],[21.0599,38.3561]]],[[[21.0529,38.4587],[21.0431,38.4611],[21.0527,38.4685],[21.0529,38.4587]]],[[[21.0341,38.3699],[21.0363,38.3539],[21.0249,38.3743],[21.0341,38.3699]]],[[[21.0289,38.4823],[21.0189,38.4747],[21.0171,38.4911],[21.0289,38.4823]]],[[[21.0091,37.2547],[21.0067,37.2437],[20.9993,37.2485],[21.0091,37.2547]]],[[[21.0033,37.2615],[20.9955,37.2591],[20.9999,37.2633],[21.0033,37.2615]]],[[[20.9971,38.3771],[20.9955,38.3633],[20.9933,38.3779],[20.9971,38.3771]]],[[[20.7243,37.8893],[20.9095,37.8071],[20.9935,37.7003],[20.8103,37.6537],[20.7243,37.8893]]],[[[20.8993,38.6425],[20.8867,38.6009],[20.8753,38.5779],[20.8993,38.6425]]],[[[20.9387,38.6041],[20.9029,38.5433],[20.8977,38.5679],[20.9387,38.6041]]],[[[20.5663,38.4745],[20.6055,38.2989],[20.7925,38.0643],[20.4491,38.2817],[20.3395,38.1817],[20.5663,38.4745]]],[[[20.6741,38.3561],[20.6785,38.3729],[20.7691,38.3207],[20.6741,38.3561]]],[[[20.7541,38.8717],[20.7497,38.8579],[20.7447,38.8733],[20.7541,38.8717]]],[[[16.2359,43.8465],[17.1737,43.4103],[17.7029,43.4811],[17.6783,43.2805],[18.4071,43.0085],[18.6243,42.7003],[19.2131,42.6409],[19.1337,42.3201],[19.6585,41.9271],[19.7181,41.4015],[19.9435,41.3057],[20.0065,40.8621],[20.3691,40.5375],[19.8887,40.0187],[19.4501,40.2445],[19.3217,40.6559],[19.5361,40.9129],[19.4009,41.4135],[19.6013,41.8139],[19.1769,41.9371],[19.0681,42.1325],[18.6847,42.3867],[18.5455,42.4183],[18.7061,42.3947],[18.7585,42.4905],[18.5123,42.4585],[18.5227,42.3945],[17.8927,42.7883],[17.0037,43.0079],[17.2789,43.0065],[17.4755,42.9107],[17.6899,42.8555],[17.7145,42.8773],[16.8851,43.3997],[15.9523,43.5093],[15.9559,43.6865],[15.8533,43.7879],[16.2359,43.8465]]],[[[19.8495,39.8239],[19.9341,39.4813],[20.1081,39.3643],[19.8719,39.4573],[19.6331,39.7547],[19.8495,39.8239]]],[[[19.5165,40.9603],[19.5143,40.9561],[19.5109,40.9595],[19.5165,40.9603]]],[[[19.5013,40.9623],[19.5043,40.9561],[19.5001,40.9569],[19.5013,40.9623]]],[[[19.3043,40.5027],[19.2925,40.4831],[19.2769,40.5155],[19.3043,40.5027]]],[[[18.8523,42.2675],[18.8511,42.2579],[18.8437,42.2663],[18.8523,42.2675]]],[[[18.1159,42.6331],[18.1161,42.6211],[18.1125,42.6323],[18.1159,42.6331]]],[[[18.0053,42.6821],[18.0167,42.6625],[17.9903,42.6731],[18.0053,42.6821]]],[[[17.9265,42.6885],[17.9725,42.6825],[17.9747,42.6773],[17.9265,42.6885]]],[[[17.8605,42.7513],[17.9301,42.7171],[17.8331,42.7559],[17.8605,42.7513]]],[[[17.8373,42.7417],[17.8347,42.7293],[17.7933,42.7549],[17.8373,42.7417]]],[[[17.3221,42.7891],[17.6691,42.7367],[17.7543,42.6945],[17.3221,42.7891]]],[[[16.6411,42.9275],[17.0441,42.9787],[17.2015,42.9179],[16.6411,42.9275]]],[[[16.9123,43.1543],[17.1439,43.1381],[17.1945,43.1247],[17.0327,43.1127],[16.9123,43.1543]]],[[[17.0217,43.0287],[17.0177,43.0279],[17.0165,43.0285],[17.0217,43.0287]]],[[[16.8857,42.7263],[16.8171,42.7793],[16.9411,42.7707],[16.8857,42.7263]]],[[[16.4843,43.3867],[16.8153,43.3533],[16.8969,43.3017],[16.6773,43.2573],[16.4843,43.3867]]],[[[16.7405,42.9099],[16.7365,42.9065],[16.7241,42.9139],[16.7405,42.9099]]],[[[16.7305,42.7571],[16.7185,42.7511],[16.7065,42.7527],[16.7305,42.7571]]],[[[16.5059,42.7753],[16.4959,42.7541],[16.4841,42.7557],[16.5059,42.7753]]],[[[15.2765,44.1875],[15.8901,43.8465],[15.9821,43.8269],[15.6957,43.7687],[15.2765,44.1875]]],[[[15.9169,43.6771],[15.9061,43.6755],[15.9069,43.6803],[15.9169,43.6771]]],[[[15.8179,43.7011],[15.8665,43.6851],[15.8717,43.6669],[15.8179,43.7011]]],[[[15.7935,43.7395],[15.7949,43.7211],[15.7809,43.7457],[15.7935,43.7395]]],[[[15.7593,43.7341],[15.7703,43.7095],[15.7509,43.7311],[15.7593,43.7341]]],[[[15.7449,43.7115],[15.7505,43.6871],[15.7369,43.7051],[15.7449,43.7115]]],[[[15.6867,43.6315],[15.6573,43.6681],[15.7321,43.6327],[15.6867,43.6315]]],[[[15.6975,43.6861],[15.7261,43.6937],[15.7217,43.6765],[15.6975,43.6861]]],[[[15.6759,43.6953],[15.6791,43.6813],[15.6467,43.7055],[15.6759,43.6953]]],[[[15.5651,43.8337],[15.6461,43.7969],[15.6637,43.7669],[15.5651,43.8337]]],[[[15.5471,43.8627],[15.5437,43.8555],[15.5311,43.8647],[15.5471,43.8627]]],[[[15.5137,43.8381],[15.5223,43.8305],[15.5091,43.8359],[15.5137,43.8381]]],[[[15.4861,43.8599],[15.5067,43.8593],[15.5179,43.8519],[15.4861,43.8599]]],[[[15.4825,43.6999],[15.4819,43.7053],[15.5167,43.6911],[15.4825,43.6999]]],[[[15.4729,43.7359],[15.4697,43.7251],[15.4659,43.7327],[15.4729,43.7359]]],[[[15.4701,43.7003],[15.4717,43.6899],[15.4639,43.6999],[15.4701,43.7003]]],[[[15.4497,43.7315],[15.4599,43.7187],[15.4427,43.7295],[15.4497,43.7315]]],[[[15.2635,43.8285],[15.3661,43.7851],[15.4583,43.7371],[15.2635,43.8285]]],[[[15.3645,43.9125],[15.3725,43.9715],[15.4525,43.8923],[15.3645,43.9125]]],[[[15.4413,43.8701],[15.4449,43.8627],[15.4287,43.8707],[15.4413,43.8701]]],[[[15.4301,43.8875],[15.4221,43.8785],[15.4157,43.8871],[15.4301,43.8875]]],[[[15.4095,43.9569],[15.3979,43.9577],[15.3971,43.9643],[15.4095,43.9569]]],[[[15.4087,43.8867],[15.3997,43.8853],[15.3935,43.8951],[15.4087,43.8867]]],[[[15.3673,43.7477],[15.3791,43.7609],[15.3811,43.7587],[15.3673,43.7477]]],[[[15.2531,43.8881],[15.3257,43.8803],[15.3705,43.8213],[15.2531,43.8881]]],[[[15.3153,43.7759],[15.3543,43.7697],[15.3555,43.7643],[15.3153,43.7759]]],[[[15.3049,43.9309],[15.3083,43.9187],[15.2805,43.9387],[15.3049,43.9309]]],[[[15.2967,43.7857],[15.3109,43.7835],[15.2935,43.7841],[15.2967,43.7857]]],[[[15.2757,43.8057],[15.2757,43.8019],[15.2737,43.8039],[15.2757,43.8057]]],[[[15.2727,43.9261],[15.2745,43.9217],[15.2551,43.9287],[15.2727,43.9261]]],[[[15.2613,43.8253],[15.2563,43.8213],[15.2485,43.8291],[15.2613,43.8253]]],[[[15.0581,44.1585],[15.1795,44.0985],[15.2577,44.0223],[15.0581,44.1585]]],[[[15.2273,43.8613],[15.2277,43.8541],[15.2203,43.8589],[15.2273,43.8613]]],[[[15.2003,43.9481],[15.2283,43.9219],[15.1939,43.9495],[15.2003,43.9481]]],[[[15.0921,43.9953],[15.2161,43.9139],[15.2243,43.8821],[15.1721,43.9053],[15.0921,43.9953]]],[[[15.1989,43.8813],[15.2007,43.8769],[15.1957,43.8817],[15.1989,43.8813]]],[[[15.0777,44.0545],[15.1533,44.0273],[15.1661,44.0031],[15.0777,44.0545]]],[[[15.0621,44.0429],[15.0503,44.0277],[15.0563,44.0425],[15.0621,44.0429]]],[[[15.0269,44.1673],[15.0393,44.1469],[15.0179,44.1661],[15.0269,44.1673]]],[[[15.0037,44.1609],[15.0239,44.1253],[14.9673,44.1675],[15.0037,44.1609]]],[[[15.0157,44.0715],[15.0251,44.0523],[15.0049,44.0723],[15.0157,44.0715]]],[[[14.9939,44.0835],[15.0101,44.0819],[15.0025,44.0747],[14.9939,44.0835]]],[[[14.9199,44.1645],[14.9261,44.1511],[14.9131,44.1639],[14.9199,44.1645]]]]}}]}