{"type":"FeatureCollection","features":[{"type":"Feature","properties":{"birdlifeId":"103718693","scientificName":"Lanius isabellinus","rangeType":"breeding","speciesId":"avibase-97166F72","speciesName":"Isabelline Shrike","speciesLatin":"Lanius isabellinus"},"geometry":{"type":"Polygon","coordinates":[[[105.7135,34.3925],[102.0857,33.9029],[80.2914,36.4603],[80.1301,37.1105],[80.5822,39.2996],[81.4427,41.6275],[82.0376,42.6507],[83.156,43.7928],[86.8203,46.6006],[87.2364,48.8274],[104.7107,51.1777],[116.3687,52.9721],[119.6113,53.3429],[120.6375,53.1885],[121.5815,51.6243],[122.1561,49.9679],[121.6225,47.8125],[120.5553,45.9633],[112.5707,39.3463],[108.8989,35.7859],[105.7135,34.3925]]]}},{"type":"Feature","properties":{"birdlifeId":"103718693","scientificName":"Lanius isabellinus","rangeType":"wintering","speciesId":"avibase-97166F72","speciesName":"Isabelline Shrike","speciesLatin":"Lanius isabellinus"},"geometry":{"type":"MultiPolygon","coordinates":[[[[33.9349,9.7447],[35.2893,8.8479],[35.6017,8.9009],[35.4975,9.8055],[36.4001,12.0777],[36.8167,12.5073],[37.2681,12.6149],[37.6499,12.4267],[38.7957,11.0329],[38.8303,10.3653],[38.4833,9.9653],[37.6847,9.7787],[36.0183,9.8853],[36.6085,9.0339],[37.0599,7.4159],[37.6847,7.2835],[38.6221,8.1313],[40.7051,10.9795],[41.4341,11.2203],[41.9255,13.8551],[42.7745,12.8451],[43.0803,12.8291],[43.4053,12.2269],[43.3667,11.9791],[42.5225,11.5221],[43.1541,11.6123],[44.3667,10.4013],[44.9435,10.4109],[45.8075,10.8675],[46.4497,10.6807],[47.4221,11.1755],[49.4221,11.3337],[50.2699,11.5843],[50.7739,11.9845],[51.2869,11.8239],[51.0741,11.2625],[51.1693,10.5737],[51.0173,10.4197],[51.2337,10.4321],[51.1777,10.5605],[51.3929,10.3945],[50.8993,10.3101],[50.8271,9.4177],[49.8399,7.9641],[48.9857,6.0453],[47.9685,4.4757],[46.0021,2.4233],[44.6045,1.5965],[42.1649,-0.8084],[41.9929,-0.724],[42.0715,-0.9005],[41.9789,-1.0075],[41.9725,-0.9063],[41.9485,-0.8803],[41.9131,-0.8734],[41.9083,-1.1927],[41.8001,-1.1411],[41.7665,-1.1427],[41.7025,-1.1983],[41.8437,-1.2311],[41.3149,-1.9583],[40.8477,-1.9753],[40.9871,-2.263],[40.1891,-2.7287],[40.1231,-3.2878],[39.7781,-3.5876],[39.8317,-3.8265],[39.5657,-4.0454],[39.4593,-4.5721],[39.1971,-4.6726],[38.9119,-5.6371],[38.7551,-5.3047],[37.5219,-5.2223],[36.7269,-4.841],[35.0533,-5.6422],[34.7901,-5.5837],[34.6201,-5.2143],[34.7139,-4.9491],[35.2453,-4.5036],[35.3603,-4.0548],[34.4215,-3.4555],[33.6391,-2.3152],[33.8415,-2.2282],[33.7867,-2.0826],[33.2063,-2.0962],[33.5615,-2.013],[33.4531,-1.8742],[33.2915,-1.9287],[33.6451,-1.7777],[33.6515,-1.4735],[33.8031,-1.4697],[33.8353,-1.5232],[33.9751,-1.5254],[33.7807,-1.4035],[33.9965,-1.3717],[33.8641,-1.2482],[34.1393,-1.002],[34.0647,-0.5609],[34.8521,-0.276],[34.6785,-0.0925],[34.3455,-0.1948],[34.3987,-0.2818],[34.2863,-0.3966],[33.9877,0.2637],[33.4871,0.1827],[33.3935,0.4905],[33.1529,0.4903],[33.2725,0.3763],[32.9751,0.0887],[32.6623,0.0879],[32.6645,0.3047],[32.5757,0.0463],[32.0235,-0.0385],[31.4917,-0.3965],[30.7667,-2.0523],[30.2211,-2.3078],[29.8803,-2.1898],[29.6081,-1.5771],[29.4777,-0.6339],[29.8161,-0.3846],[30.0001,-0.1491],[29.5763,-0.1039],[29.4399,-0.3156],[29.1381,1.3311],[28.1747,3.5265],[27.2533,6.6887],[26.8153,7.7117],[25.0215,10.1495],[24.3367,12.2295],[24.9813,13.6039],[26.9149,14.6397],[29.6943,15.2383],[31.9905,16.0285],[32.7557,16.6629],[33.2795,16.7581],[33.8433,16.2185],[34.2463,13.2909],[34.2865,11.8869],[33.8433,10.0259],[33.9349,9.7447]],[[37.3859,11.5941],[37.5579,12.2225],[37.0665,12.2117],[36.9999,11.8847],[37.3859,11.5941]],[[36.1421,4.6417],[35.9475,4.5411],[35.8321,3.7081],[36.1553,3.1099],[35.8649,3.1403],[36.2557,2.9707],[36.6349,2.3995],[36.6963,2.8617],[36.2131,3.3239],[36.1421,4.6417]],[[32.9907,1.7281],[32.9125,1.8243],[32.7809,1.8699],[32.5939,1.6881],[32.4075,1.7019],[32.3185,1.6601],[32.3183,1.6193],[32.7737,1.3135],[32.9429,1.4409],[33.2691,1.2153],[33.3399,1.4241],[33.1009,1.5141],[33.4913,1.6367],[33.4595,1.7781],[32.6967,1.4973],[32.3291,1.6325],[32.5517,1.5933],[32.8257,1.8327],[32.9907,1.7281]],[[31.3009,1.7159],[31.5353,2.4895],[31.4595,2.5725],[31.2429,2.1205],[30.5023,1.5133],[30.3837,1.2797],[30.5389,1.0023],[31.3009,1.7159]]],[[[81.6151,27.8653],[83.0549,27.3879],[84.5099,27.4651],[85.6011,26.7077],[87.9309,26.4273],[88.0079,25.9681],[86.5553,25.5611],[85.3211,24.4371],[84.2025,23.0063],[81.1937,20.6535],[78.5323,19.4441],[74.8293,18.8275],[72.9101,18.5681],[72.8629,18.7945],[73.0579,18.8027],[72.9069,18.8865],[73.0905,19.0457],[72.9765,19.1707],[72.9517,19.0433],[72.8033,18.8979],[72.7871,19.3063],[72.9155,19.2909],[72.6595,19.8429],[72.9519,20.7551],[72.6189,21.3023],[72.8283,21.6563],[72.9193,21.6479],[73.1089,21.7201],[72.5363,21.6645],[72.7787,21.9519],[72.5305,21.9023],[72.5471,22.1573],[72.7469,22.2261],[72.3689,22.1451],[72.3323,22.2999],[72.1071,21.2039],[70.7455,20.7167],[70.0863,21.1187],[68.9349,22.3059],[69.0673,22.4733],[69.2347,22.2603],[70.1779,22.5605],[70.4857,23.0887],[69.7063,22.7367],[69.1975,22.8335],[68.3937,23.4217],[68.4709,23.6367],[68.7661,23.8423],[68.7823,23.8607],[68.7697,23.8761],[68.2987,23.5663],[68.2861,23.9383],[68.0337,23.7881],[67.8939,23.9751],[67.8209,23.8115],[67.4697,23.9033],[67.2955,24.3011],[67.3467,24.3429],[67.4109,24.3113],[67.5291,24.3345],[67.3095,24.4589],[67.4637,24.7775],[66.6515,24.8293],[66.7421,25.1833],[66.5393,25.6443],[66.0919,25.4797],[66.3349,25.5533],[66.5133,25.4045],[64.7807,25.3479],[64.6167,25.1547],[64.0837,25.3295],[64.1613,25.4565],[63.6593,25.3795],[63.9821,25.7061],[65.7927,26.0817],[67.2487,25.9877],[67.7527,25.5967],[67.8273,25.7529],[67.3979,26.4585],[67.3979,27.1209],[67.8087,27.7237],[69.9739,29.3901],[70.2539,31.3635],[71.4859,35.3367],[71.7769,35.7799],[72.2169,35.8721],[75.9093,34.0817],[77.6837,32.8971],[79.2203,29.7521],[79.9329,29.2443],[80.2815,28.6047],[81.6151,27.8653]]],[[[49.2671,32.3607],[50.1835,31.2617],[49.1791,31.4663],[49.3337,30.9213],[52.6845,28.5493],[55.8547,27.3393],[57.9941,27.0115],[59.4037,27.0475],[60.8545,26.4191],[61.3007,25.8409],[61.4267,25.0953],[60.6057,25.2883],[60.5323,25.4465],[60.4587,25.2925],[59.2089,25.5231],[59.0825,25.4063],[58.5589,25.6413],[58.1213,25.5547],[57.3121,25.7831],[56.9645,27.0219],[56.6535,27.1733],[55.6397,26.9835],[54.7867,26.4991],[54.2817,26.7323],[53.7181,26.7041],[52.7021,27.2861],[52.4469,27.6377],[51.4039,27.9255],[51.0339,28.8099],[50.8143,28.9225],[50.9251,29.0667],[50.6631,29.1365],[50.6375,29.4707],[50.0673,30.1975],[49.5595,29.9977],[48.9397,30.3689],[49.2171,30.3401],[49.2973,30.4473],[49.1027,30.5183],[48.8991,30.4967],[49.0327,30.4447],[48.8693,30.3521],[48.9141,30.0197],[48.4869,29.9093],[48.2099,30.0331],[47.9341,30.0645],[48.0139,29.9833],[48.0165,29.8481],[48.1905,29.5433],[47.7073,29.3633],[47.8497,29.3179],[48.1013,29.3479],[48.8889,27.8331],[48.8507,27.6009],[49.2593,27.5241],[49.1367,27.4077],[49.3797,27.1247],[49.5861,27.1785],[49.6847,26.9697],[50.0015,26.8193],[50.1673,26.6411],[49.9975,26.7509],[50.2369,26.3103],[50.0055,25.9905],[50.7789,24.7147],[50.7635,25.4989],[50.8505,25.6447],[50.8829,25.4777],[50.9205,25.4799],[50.9957,25.9775],[51.2629,26.1547],[51.5827,25.9085],[51.4819,25.5029],[51.6367,25.0143],[51.3809,24.5785],[51.2997,24.6709],[51.2235,24.6271],[51.3101,24.5015],[51.3569,24.5299],[51.4073,24.6193],[51.5117,24.5683],[51.3059,24.2849],[51.5827,24.2397],[51.6131,24.2715],[51.5923,24.3527],[51.6073,24.3733],[51.9301,23.9495],[52.6007,24.1897],[53.5953,24.0441],[54.1631,24.1585],[54.1353,24.3269],[54.3565,24.2277],[54.7007,24.8085],[55.3425,25.2027],[56.1899,26.2417],[56.5017,26.3583],[56.2607,25.6449],[56.6155,24.4899],[57.1945,23.9265],[58.7535,23.5183],[59.5061,22.5491],[59.7947,22.5315],[59.8079,22.2295],[58.5167,20.4133],[58.2047,20.3941],[58.1913,20.6123],[57.8497,20.2441],[57.6759,19.7129],[57.8435,19.0035],[56.8393,18.7787],[56.3501,17.9195],[55.4307,17.8213],[55.0235,17.0057],[54.0369,16.9867],[52.4519,16.4223],[52.1579,16.0063],[52.1987,15.6027],[49.3097,14.6179],[48.6865,14.0391],[47.9681,14.0441],[46.7023,13.4269],[45.6695,13.3469],[45.0361,12.7509],[43.4649,12.6719],[42.9385,14.9267],[42.5961,15.2329],[42.8069,15.2835],[42.7097,16.7427],[42.3683,17.1819],[42.3685,17.0173],[42.3071,17.4495],[41.6361,17.9971],[40.9585,19.4943],[40.5823,19.8647],[41.5873,20.2097],[43.7215,20.2097],[46.1431,20.0117],[50.2475,19.3205],[51.8071,19.4847],[52.4639,19.7479],[52.5049,19.9787],[51.2735,20.1437],[49.5909,20.8385],[48.4825,22.1037],[48.6057,23.3127],[49.3445,24.9077],[48.8519,25.9019],[47.4975,26.4539],[45.6095,26.6615],[41.9977,26.4885],[40.9305,26.9737],[40.6023,27.4611],[40.7253,28.0557],[41.4641,28.6183],[43.7215,28.9713],[45.7327,29.0421],[46.3483,29.3967],[46.5945,29.9665],[46.6745,30.5767],[46.2607,31.6777],[46.6223,32.3507],[47.2213,32.7649],[48.2613,32.7851],[49.2671,32.3607]]],[[[53.3031,12.5371],[54.1045,12.7017],[54.5305,12.5469],[53.6685,12.3047],[53.3031,12.5371]]],[[[53.2673,12.1307],[53.2977,12.1125],[53.2469,12.1215],[53.2673,12.1307]]],[[[52.9803,12.1629],[53.0819,12.1701],[53.0907,12.1381],[52.9803,12.1629]]],[[[52.0847,12.2501],[52.2013,12.2119],[52.3921,12.2041],[52.2857,12.1573],[52.0847,12.2501]]],[[[48.2733,29.4265],[48.3655,29.4441],[48.4045,29.3925],[48.2733,29.4265]]],[[[48.2355,29.9367],[48.3823,29.7515],[48.2249,29.5767],[48.0653,29.7835],[48.2355,29.9367]]],[[[48.0469,29.9985],[48.1631,30.0073],[48.0223,29.9505],[48.0469,29.9985]]],[[[48.0995,29.9651],[48.1193,29.8881],[48.0451,29.9301],[48.0995,29.9651]]],[[[48.1063,29.8829],[48.1105,29.8761],[48.0999,29.8805],[48.1063,29.8829]]],[[[48.0487,29.8289],[48.0787,29.8645],[48.0985,29.8451],[48.0487,29.8289]]],[[[48.0583,29.7911],[48.0765,29.8215],[48.0767,29.8075],[48.0583,29.7911]]],[[[48.0317,29.9025],[48.0259,29.8931],[48.0287,29.9031],[48.0317,29.9025]]],[[[47.9139,29.3621],[47.9109,29.3493],[47.9057,29.3541],[47.9139,29.3621]]],[[[38.9349,17.3259],[39.3021,15.8931],[39.7763,15.0573],[39.8025,14.6127],[39.5941,14.4501],[38.6221,14.7753],[38.2401,15.2643],[38.3443,16.8475],[38.9349,17.3259]]],[[[38.8011,-6.1418],[38.8341,-6.4421],[39.4771,-6.8672],[39.5585,-7.1234],[39.2801,-7.5069],[39.2515,-7.818],[39.4459,-7.8329],[39.3489,-8.2951],[38.5497,-9.0288],[38.3305,-8.688],[38.5749,-7.9474],[38.2415,-7.3069],[38.0359,-7.1131],[37.3403,-8.0931],[37.1311,-7.6802],[37.7523,-6.3957],[38.8011,-6.1418]]],[[[34.6179,-0.1581],[34.6025,-0.1558],[34.6181,-0.1537],[34.6179,-0.1581]]],[[[34.5463,-0.1839],[34.5387,-0.1855],[34.5371,-0.1782],[34.5463,-0.1839]]],[[[34.5179,-0.1904],[34.5157,-0.2166],[34.4961,-0.2074],[34.5179,-0.1904]]],[[[34.4687,-0.2027],[34.4589,-0.2139],[34.4539,-0.211],[34.4687,-0.2027]]],[[[34.2619,-0.3429],[34.2529,-0.3528],[34.2487,-0.3521],[34.2527,-0.3424],[34.2619,-0.3429]]],[[[34.1643,-0.363],[34.1643,-0.4383],[34.1217,-0.4223],[34.1643,-0.363]]],[[[34.1869,-0.3443],[34.1877,-0.3579],[34.1835,-0.3565],[34.1869,-0.3443]]],[[[34.1379,-0.2266],[34.1523,-0.2257],[34.1447,-0.2399],[34.1379,-0.2266]]],[[[34.0961,-0.115],[34.0985,-0.1311],[34.0929,-0.116],[34.0961,-0.115]]],[[[34.0945,-0.471],[34.0849,-0.4692],[34.0955,-0.4662],[34.0945,-0.471]]],[[[34.0933,-0.5172],[34.0837,-0.5273],[34.0849,-0.5115],[34.0933,-0.5172]]],[[[34.0275,-0.4181],[34.0377,-0.4895],[33.9443,-0.4677],[34.0275,-0.4181]]],[[[33.9829,-0.1308],[34.0241,-0.1287],[34.0457,-0.1213],[34.0293,-0.1374],[33.9829,-0.1308]]],[[[34.0325,-0.7387],[34.0219,-0.7494],[34.0283,-0.7392],[34.0325,-0.7387]]],[[[33.9391,-0.1635],[33.9375,-0.1736],[33.9377,-0.1628],[33.9391,-0.1635]]],[[[33.9259,-0.5608],[33.9191,-0.5634],[33.9249,-0.5562],[33.9259,-0.5608]]],[[[33.9201,0.1087],[33.9099,0.1041],[33.9169,0.1117],[33.9201,0.1087]]],[[[33.9015,-0.1594],[33.9043,-0.1657],[33.8997,-0.1626],[33.9015,-0.1594]]],[[[33.7587,0.0971],[33.8257,0.1085],[33.8959,0.0873],[33.7587,0.0971]]],[[[33.8945,-0.1607],[33.8879,-0.1667],[33.8867,-0.1585],[33.8945,-0.1607]]],[[[33.8723,-0.1397],[33.8687,-0.1479],[33.8679,-0.1383],[33.8723,-0.1397]]],[[[33.8405,-1.497],[33.8317,-1.5028],[33.8393,-1.4936],[33.8405,-1.497]]],[[[33.7829,-1.38],[33.7657,-1.3833],[33.7749,-1.3716],[33.7829,-1.38]]],[[[33.7681,-1.401],[33.7709,-1.4065],[33.7685,-1.4045],[33.7681,-1.401]]],[[[33.7675,0.1811],[33.7707,0.1723],[33.7623,0.1783],[33.7675,0.1811]]],[[[33.7123,-0.0819],[33.7195,-0.1605],[33.6675,-0.1281],[33.7123,-0.0819]]],[[[33.7219,-1.4148],[33.7129,-1.4155],[33.7149,-1.4073],[33.7219,-1.4148]]],[[[33.6927,-1.3914],[33.7117,-1.407],[33.6943,-1.4073],[33.6927,-1.3914]]],[[[33.6549,0.0],[33.6735,-0.0202],[33.6327,-0.0241],[33.6549,0.0]]],[[[33.6499,0.0335],[33.6407,0.0101],[33.6335,0.0167],[33.6499,0.0335]]],[[[33.6127,0.0561],[33.6087,0.0423],[33.5989,0.0457],[33.6127,0.0561]]],[[[33.6061,0.1167],[33.5979,0.1085],[33.5951,0.1125],[33.6061,0.1167]]],[[[33.5401,0.1379],[33.5867,0.1559],[33.5803,0.1097],[33.5401,0.1379]]],[[[33.4999,0.1119],[33.5019,0.1003],[33.4991,0.1007],[33.4999,0.1119]]],[[[33.4989,-2.1823],[33.4951,-2.1925],[33.4947,-2.1831],[33.4989,-2.1823]]],[[[33.4981,0.0829],[33.4897,0.0841],[33.4931,0.0927],[33.4981,0.0829]]],[[[33.4759,-2.2339],[33.4795,-2.2162],[33.4801,-2.2353],[33.4759,-2.2339]]],[[[33.4787,0.0567],[33.4745,0.0423],[33.4725,0.0559],[33.4787,0.0567]]],[[[33.4703,0.0787],[33.4757,0.0703],[33.4685,0.0753],[33.4703,0.0787]]],[[[33.4609,-2.1944],[33.4681,-2.2045],[33.4551,-2.2045],[33.4609,-2.1944]]],[[[33.4261,-1.6739],[33.4171,-1.6798],[33.4185,-1.6762],[33.4261,-1.6739]]],[[[33.4249,-1.9092],[33.4143,-1.9023],[33.4249,-1.9004],[33.4249,-1.9092]]],[[[33.4233,0.2129],[33.4183,0.2041],[33.4121,0.2105],[33.4233,0.2129]]],[[[33.3983,0.2483],[33.4081,0.2387],[33.3971,0.2449],[33.3983,0.2483]]],[[[33.4025,-1.6629],[33.4021,-1.6712],[33.3949,-1.6679],[33.4025,-1.6629]]],[[[33.2053,0.1979],[33.3961,0.2623],[33.3301,0.0823],[33.2053,0.1979]]],[[[33.3337,-1.7179],[33.3513,-1.6926],[33.3721,-1.7374],[33.3337,-1.7179]]],[[[33.3683,-1.961],[33.3607,-1.964],[33.3601,-1.9561],[33.3683,-1.961]]],[[[33.3607,-1.9396],[33.3537,-1.9481],[33.3553,-1.9389],[33.3607,-1.9396]]],[[[33.3511,0.3187],[33.3361,0.3211],[33.3537,0.3315],[33.3511,0.3187]]],[[[33.3117,-2.2055],[33.2757,-2.1944],[33.3107,-2.1776],[33.3117,-2.2055]]],[[[33.2519,0.0691],[33.3063,0.0419],[33.2575,0.0183],[33.2519,0.0691]]],[[[33.2495,-0.0833],[33.2529,-0.0978],[33.2499,-0.0965],[33.2495,-0.0833]]],[[[33.2373,-0.1043],[33.2263,-0.1167],[33.2253,-0.1114],[33.2373,-0.1043]]],[[[33.2253,-0.1215],[33.2149,-0.1307],[33.2231,-0.1198],[33.2253,-0.1215]]],[[[33.2161,-1.9276],[33.2097,-1.9336],[33.2029,-1.9286],[33.2161,-1.9276]]],[[[33.1967,0.2175],[33.1813,0.2123],[33.1945,0.2207],[33.1967,0.2175]]],[[[32.9101,-1.8849],[33.1087,-1.9578],[33.1691,-2.1618],[32.8479,-2.0572],[32.9101,-1.8849]]],[[[33.1543,0.1485],[33.1745,0.1399],[33.1725,0.1129],[33.1543,0.1485]]],[[[33.1433,-1.9253],[33.1795,-1.9164],[33.1863,-1.9201],[33.1433,-1.9253]]],[[[33.1775,0.2005],[33.1625,0.2041],[33.1683,0.2093],[33.1775,0.2005]]],[[[33.1587,-0.0459],[33.1327,-0.0536],[33.1713,-0.031],[33.1587,-0.0459]]],[[[33.1617,0.1749],[33.1611,0.1601],[33.1531,0.1705],[33.1617,0.1749]]],[[[33.1551,-0.0595],[33.1499,-0.057],[33.1603,-0.0554],[33.1551,-0.0595]]],[[[33.1439,0.1331],[33.1281,0.1233],[33.1281,0.1385],[33.1439,0.1331]]],[[[33.1365,0.1667],[33.1353,0.1583],[33.1339,0.1663],[33.1365,0.1667]]],[[[33.0753,0.1059],[33.1311,0.1061],[33.0943,0.0831],[33.0753,0.1059]]],[[[33.0061,-1.7885],[33.0979,-1.8453],[33.0249,-1.8819],[33.0061,-1.7885]]],[[[33.0893,0.0757],[33.0939,0.0661],[33.0857,0.0683],[33.0893,0.0757]]],[[[33.0823,-1.9261],[33.0779,-1.935],[33.0745,-1.9309],[33.0823,-1.9261]]],[[[33.0715,-1.9311],[33.0547,-1.9355],[33.0521,-1.9074],[33.0715,-1.9311]]],[[[33.0457,0.0465],[33.0381,0.0477],[33.0491,0.0539],[33.0457,0.0465]]],[[[33.0411,0.1063],[33.0301,0.0939],[33.0283,0.0985],[33.0411,0.1063]]],[[[33.0087,0.0687],[33.0057,0.0603],[33.0025,0.0611],[33.0087,0.0687]]],[[[32.9877,0.0557],[32.9893,0.0483],[32.9825,0.0561],[32.9877,0.0557]]],[[[32.9873,-2.1264],[32.9855,-2.1335],[32.9823,-2.1252],[32.9873,-2.1264]]],[[[32.9043,0.0179],[32.9297,0.0],[32.9001,0.0],[32.9043,0.0179]]],[[[32.8701,-2.1018],[32.9091,-2.1151],[32.9015,-2.1289],[32.8701,-2.1018]]],[[[32.8477,-1.8722],[32.8649,-1.8644],[32.8617,-1.8791],[32.8477,-1.8722]]],[[[32.8301,-0.0648],[32.8311,-0.0774],[32.8229,-0.0622],[32.8301,-0.0648]]],[[[32.8259,-0.0496],[32.8165,-0.0586],[32.8137,-0.0567],[32.8259,-0.0496]]],[[[32.7481,0.0],[32.7931,-0.0223],[32.7641,-0.037],[32.7481,0.0]]],[[[32.8239,-1.9536],[32.8137,-1.9596],[32.8175,-1.9536],[32.8239,-1.9536]]],[[[32.7411,-0.0168],[32.7695,-0.1226],[32.6619,-0.0973],[32.7411,-0.0168]]],[[[32.7931,-1.7968],[32.7945,-1.8097],[32.7901,-1.797],[32.7931,-1.7968]]],[[[32.7697,-2.0916],[32.7723,-2.1043],[32.7547,-2.0987],[32.7697,-2.0916]]],[[[32.7383,0.0793],[32.7423,0.0713],[32.7333,0.0779],[32.7383,0.0793]]],[[[32.7125,-0.3164],[32.7217,-0.3258],[32.7067,-0.3201],[32.7125,-0.3164]]],[[[32.6493,-0.0156],[32.6723,-0.0241],[32.6731,-0.0307],[32.6493,-0.0156]]],[[[32.6559,0.1651],[32.6587,0.1557],[32.6473,0.1649],[32.6559,0.1651]]],[[[32.6531,-0.0946],[32.6475,-0.1035],[32.6451,-0.1021],[32.6531,-0.0946]]],[[[32.6443,-0.0815],[32.6471,-0.0854],[32.6387,-0.0805],[32.6443,-0.0815]]],[[[32.5827,-0.0844],[32.6111,-0.0893],[32.6311,-0.0918],[32.6321,-0.0982],[32.5827,-0.0844]]],[[[32.5639,-0.3319],[32.6119,-0.3106],[32.6113,-0.3276],[32.5639,-0.3319]]],[[[32.5551,-0.2295],[32.5795,-0.2156],[32.5863,-0.2321],[32.5551,-0.2295]]],[[[32.5737,-0.3556],[32.5621,-0.3614],[32.5707,-0.3467],[32.5737,-0.3556]]],[[[32.4521,-0.4102],[32.4893,-0.4872],[32.4511,-0.4936],[32.4521,-0.4102]]],[[[32.5299,-0.3347],[32.5039,-0.363],[32.5099,-0.3207],[32.5299,-0.3347]]],[[[32.4391,-0.3397],[32.4779,-0.3734],[32.4299,-0.3827],[32.4391,-0.3397]]],[[[32.4805,-0.3195],[32.4697,-0.3234],[32.4675,-0.3218],[32.4805,-0.3195]]],[[[32.4417,-0.2464],[32.4375,-0.2529],[32.4343,-0.2503],[32.4417,-0.2464]]],[[[32.4439,0.0059],[32.4303,0.0],[32.4283,0.0121],[32.4439,0.0059]]],[[[32.4311,-0.3199],[32.4301,-0.3241],[32.4283,-0.3203],[32.4311,-0.3199]]],[[[32.4037,-0.3833],[32.4239,-0.3962],[32.4043,-0.387],[32.4037,-0.3833]]],[[[32.3599,-0.3711],[32.4089,-0.3578],[32.4237,-0.3603],[32.3599,-0.3711]]],[[[32.3507,-0.4019],[32.3899,-0.4178],[32.3479,-0.4179],[32.3507,-0.4019]]],[[[32.3979,-0.2494],[32.3919,-0.2593],[32.3887,-0.2582],[32.3979,-0.2494]]],[[[32.2963,-0.1878],[32.3809,-0.2478],[32.3771,-0.2694],[32.2963,-0.1878]]],[[[32.3613,-0.3192],[32.3661,-0.3286],[32.3587,-0.3231],[32.3613,-0.3192]]],[[[32.3157,-0.4377],[32.3351,-0.4607],[32.3057,-0.4535],[32.3157,-0.4377]]],[[[32.3473,-0.0129],[32.3507,-0.0234],[32.3391,-0.0186],[32.3473,-0.0129]]],[[[32.3229,-0.4801],[32.3349,-0.4864],[32.3219,-0.4827],[32.3229,-0.4801]]],[[[32.1671,-0.3116],[32.3279,-0.3318],[32.2733,-0.3577],[32.2769,-0.4385],[32.2297,-0.3296],[32.1671,-0.3116]]],[[[32.2833,-0.3886],[32.3257,-0.3897],[32.3103,-0.4204],[32.2833,-0.3886]]],[[[32.3151,-0.4616],[32.3189,-0.4666],[32.3119,-0.4654],[32.3151,-0.4616]]],[[[32.3165,-0.474],[32.3155,-0.4829],[32.3103,-0.4769],[32.3165,-0.474]]],[[[32.3067,-0.1719],[32.2993,-0.1795],[32.2977,-0.1758],[32.3067,-0.1719]]],[[[32.2999,-0.2201],[32.2975,-0.2291],[32.2925,-0.2275],[32.2999,-0.2201]]],[[[32.2917,-0.4555],[32.2933,-0.4573],[32.2917,-0.4556],[32.2917,-0.4555]]],[[[32.2901,-0.1772],[32.2599,-0.1648],[32.2901,-0.1712],[32.2901,-0.1772]]],[[[32.2831,-0.4381],[32.2865,-0.4494],[32.2783,-0.44],[32.2831,-0.4381]]],[[[32.2459,-0.3967],[32.2493,-0.4065],[32.2417,-0.3979],[32.2459,-0.3967]]],[[[32.2375,-0.3926],[32.2359,-0.3911],[32.2375,-0.3901],[32.2375,-0.3926]]],[[[32.0927,-0.2257],[32.1925,-0.2267],[32.1549,-0.2975],[32.0927,-0.2257]]],[[[13.4927,8.9689],[7.4215,6.8673],[6.7805,6.9247],[4.2163,10.5019],[3.646,11.9772],[4.1031,12.6843],[5.5361,13.9731],[16.1321,22.2819],[17.4491,23.0647],[18.7719,23.2819],[20.0569,22.7859],[23.1185,20.3009],[24.4791,18.9373],[24.8949,18.0943],[24.3279,16.0927],[19.3751,14.8853],[17.0749,13.7677],[16.1699,12.8013],[15.1141,9.9225],[13.4927,8.9689]]]]}}]}