{"type":"FeatureCollection","features":[{"type":"Feature","properties":{"birdlifeId":"22716937","scientificName":"Curruca nisoria","rangeType":"wintering","speciesId":"avibase-1EA60B94","speciesName":"Barred Warbler","speciesLatin":"Curruca nisoria"},"geometry":{"type":"MultiPolygon","coordinates":[[[[36.0635,1.6551],[34.8535,4.6939],[35.4115,5.5059],[35.9761,5.7745],[36.4981,5.6237],[37.3719,4.8307],[37.2597,4.5111],[38.9347,2.3885],[40.4667,-0.1938],[40.7279,-1.5931],[40.7601,-2.4506],[40.1891,-2.7287],[40.2449,-2.9857],[39.8901,-3.5996],[38.2699,-5.289],[38.0437,-5.2901],[36.7773,-6.2333],[36.2797,-6.3594],[35.8493,-6.3126],[35.2121,-5.551],[35.1783,-4.6378],[35.7145,-4.1175],[37.5877,-3.7654],[37.7769,-3.346],[37.6161,-2.928],[36.3447,-2.0439],[36.3635,-1.5754],[36.4843,-1.1314],[37.4343,-0.7116],[37.8841,-0.2682],[37.9091,0.2735],[37.3847,0.7909],[36.7565,0.5695],[36.2037,-0.0219],[35.8783,0.3481],[36.1079,1.0879],[36.0635,1.6551]],[[36.5559,2.3989],[36.7009,2.8489],[36.2131,3.3239],[36.2265,4.5127],[36.0191,4.6275],[35.8343,3.6341],[36.1553,3.1099],[35.8649,3.1403],[36.3825,2.8447],[36.5559,2.3989]]],[[[36.6251,2.6327],[36.6209,2.6441],[36.6285,2.6377],[36.6251,2.6327]]],[[[36.6151,2.6211],[36.5865,2.6809],[36.6065,2.6855],[36.6151,2.6211]]],[[[36.1155,3.0527],[36.1379,3.0671],[36.1565,3.0823],[36.1457,3.0633],[36.1155,3.0527]]],[[[36.0491,3.4797],[36.0549,3.4985],[36.0589,3.4869],[36.0491,3.4797]]],[[[36.0511,4.0483],[36.0517,4.0649],[36.0561,4.0547],[36.0511,4.0483]]],[[[32.6639,0.2933],[32.5757,0.0463],[32.2183,0.0],[32.2437,0.7451],[32.6711,0.9179],[33.4475,0.7691],[33.4275,0.3217],[33.3935,0.4905],[33.1529,0.4903],[33.2725,0.3763],[32.9069,0.0709],[32.8753,0.2021],[32.6623,0.0879],[32.6639,0.2933]]],[[[33.4415,0.2947],[33.4319,0.2715],[33.4061,0.2889],[33.4415,0.2947]]],[[[33.4281,0.2399],[33.4335,0.2473],[33.4319,0.2295],[33.4281,0.2399]]],[[[33.4225,0.2039],[33.4153,0.2123],[33.4257,0.2107],[33.4225,0.2039]]],[[[33.4081,0.2387],[33.3983,0.2483],[33.4161,0.2485],[33.4081,0.2387]]],[[[33.3379,0.0887],[33.2017,0.2615],[33.3803,0.3123],[33.3379,0.0887]]],[[[33.3511,0.3187],[33.3361,0.3211],[33.3537,0.3315],[33.3511,0.3187]]],[[[33.2659,0.0171],[33.2519,0.0691],[33.3069,0.0539],[33.2659,0.0171]]],[[[33.2499,-0.0965],[33.2553,-0.0829],[33.2531,-0.0978],[33.2499,-0.0965]]],[[[33.2263,-0.1167],[33.2341,-0.1017],[33.2373,-0.1043],[33.2263,-0.1167]]],[[[33.2183,-0.1348],[33.2201,-0.1206],[33.2253,-0.1215],[33.2183,-0.1348]]],[[[33.1891,0.2079],[33.1943,0.2207],[33.1967,0.2175],[33.1891,0.2079]]],[[[33.1761,0.1135],[33.1771,0.1717],[33.1909,0.1689],[33.1761,0.1135]]],[[[33.1775,0.2005],[33.1625,0.2041],[33.1683,0.2093],[33.1775,0.2005]]],[[[33.1587,-0.0459],[33.1479,-0.0389],[33.1713,-0.031],[33.1587,-0.0459]]],[[[33.1537,0.1669],[33.1617,0.1749],[33.1611,0.1601],[33.1537,0.1669]]],[[[33.1503,-0.0611],[33.1565,-0.0537],[33.1603,-0.0554],[33.1503,-0.0611]]],[[[33.1435,0.1101],[33.1315,0.1391],[33.1515,0.1125],[33.1435,0.1101]]],[[[33.1353,0.1583],[33.1365,0.1667],[33.1433,0.1597],[33.1353,0.1583]]],[[[33.0989,0.0837],[33.0837,0.1105],[33.1311,0.1061],[33.0989,0.0837]]],[[[33.0939,0.0661],[33.0893,0.0757],[33.0959,0.0681],[33.0939,0.0661]]],[[[33.0457,0.0465],[33.0447,0.0529],[33.0491,0.0539],[33.0457,0.0465]]],[[[33.0393,0.0923],[33.0411,0.1063],[33.0485,0.0997],[33.0393,0.0923]]],[[[33.0057,0.0603],[33.0087,0.0687],[33.0135,0.0663],[33.0057,0.0603]]],[[[32.9893,0.0483],[32.9877,0.0557],[32.9935,0.0501],[32.9893,0.0483]]],[[[32.9297,0.0],[32.9043,0.0179],[32.9507,0.0257],[32.9297,0.0]]],[[[32.8311,-0.0774],[32.8301,-0.0648],[32.8369,-0.0783],[32.8311,-0.0774]]],[[[32.8165,-0.0586],[32.8259,-0.0496],[32.8279,-0.0558],[32.8165,-0.0586]]],[[[32.7737,-0.0381],[32.8019,0.0501],[32.8261,0.0293],[32.7737,-0.0381]]],[[[32.8159,-0.071],[32.6619,-0.0973],[32.7411,-0.0168],[32.8159,-0.071]]],[[[32.7423,0.0713],[32.7383,0.0793],[32.7455,0.0717],[32.7423,0.0713]]],[[[32.7217,-0.3258],[32.7125,-0.3164],[32.7241,-0.3222],[32.7217,-0.3258]]],[[[32.6621,-0.0273],[32.6651,-0.0071],[32.6749,-0.0292],[32.6621,-0.0273]]],[[[32.6477,0.1627],[32.6559,0.1651],[32.6587,0.1557],[32.6477,0.1627]]],[[[32.6527,-0.1021],[32.6509,-0.0955],[32.6553,-0.0964],[32.6527,-0.1021]]],[[[32.6471,-0.0854],[32.6443,-0.0815],[32.6509,-0.0801],[32.6471,-0.0854]]],[[[32.6079,-0.098],[32.6067,-0.0782],[32.6321,-0.0982],[32.6079,-0.098]]],[[[32.6017,-0.335],[32.5683,-0.3092],[32.6133,-0.3141],[32.6017,-0.335]]],[[[32.5631,-0.225],[32.5763,-0.2144],[32.5863,-0.2321],[32.5631,-0.225]]],[[[32.5621,-0.3614],[32.5707,-0.3467],[32.5763,-0.3506],[32.5621,-0.3614]]],[[[32.5461,-0.393],[32.5063,-0.3733],[32.5537,-0.3604],[32.5461,-0.393]]],[[[32.5323,-0.3579],[32.5219,-0.3503],[32.5099,-0.3207],[32.5323,-0.3579]]],[[[32.4779,-0.3734],[32.4391,-0.3397],[32.4877,-0.339],[32.4779,-0.3734]]],[[[32.4751,-0.3225],[32.4765,-0.3174],[32.4807,-0.3195],[32.4751,-0.3225]]],[[[32.4375,-0.2529],[32.4415,-0.2464],[32.4459,-0.2511],[32.4375,-0.2529]]],[[[32.4339,-0.0012],[32.4317,0.0125],[32.4439,0.0061],[32.4339,-0.0012]]],[[[32.4301,-0.3241],[32.4311,-0.3199],[32.4431,-0.3261],[32.4301,-0.3241]]],[[[32.4155,-0.3641],[32.4197,-0.3585],[32.4237,-0.3603],[32.4155,-0.3641]]],[[[32.3919,-0.2593],[32.3979,-0.2494],[32.4039,-0.2526],[32.3919,-0.2593]]],[[[32.3593,-0.2605],[32.3809,-0.2478],[32.3771,-0.2694],[32.3593,-0.2605]]],[[[32.3451,-0.0193],[32.3473,-0.0129],[32.3507,-0.0234],[32.3451,-0.0193]]]]}},{"type":"Feature","properties":{"birdlifeId":"22716937","scientificName":"Curruca nisoria","rangeType":"breeding","speciesId":"avibase-1EA60B94","speciesName":"Barred Warbler","speciesLatin":"Curruca nisoria"},"geometry":{"type":"MultiPolygon","coordinates":[[[[30.2521,59.9713],[30.1945,60.0017],[29.9717,60.0103],[29.9025,60.1529],[32.5863,60.3457],[32.8523,60.1679],[33.0801,60.2939],[33.0487,60.5451],[33.5057,60.3973],[33.4505,60.6557],[33.9271,60.4639],[34.9985,60.4269],[35.6951,60.0197],[37.2665,59.6331],[42.1817,59.6331],[47.7201,60.0673],[55.0777,62.5035],[62.9687,62.5475],[66.0415,62.1917],[68.9877,61.0781],[74.1413,56.7393],[75.2261,56.0451],[78.5671,55.1773],[92.7557,52.8341],[96.3137,51.4457],[99.0475,50.1005],[99.4379,49.7535],[99.4243,49.2611],[98.2135,47.8395],[97.3543,47.4273],[95.1849,46.9573],[93.0497,47.2349],[90.6547,46.9889],[88.7383,45.1523],[89.9153,44.8019],[99.7157,43.2015],[101.1475,42.7675],[101.4079,42.4205],[101.4079,42.0299],[101.2777,41.8563],[99.4119,41.4225],[97.6329,41.3357],[91.9637,41.7645],[88.6191,41.5117],[86.1087,41.9941],[83.3387,41.8785],[79.0757,40.7333],[77.1331,39.7777],[73.3077,38.6861],[72.6527,38.3163],[71.1197,36.7315],[70.2103,36.1339],[68.9371,35.5103],[67.6899,35.1725],[64.9619,35.1205],[62.4155,35.4323],[59.2197,36.2897],[56.5519,37.4063],[55.8813,37.2061],[55.0725,35.8313],[53.8479,35.4153],[52.5885,35.3459],[52.0107,35.7735],[51.7703,36.5895],[54.0161,36.9475],[53.5767,36.8121],[54.0343,36.8143],[54.0395,36.9451],[53.8141,37.8147],[53.9537,38.9391],[55.1125,39.5889],[56.7415,40.0381],[58.6215,39.5235],[59.9435,38.0989],[61.6095,37.7999],[64.0053,38.2919],[66.5247,39.7499],[68.7041,41.7077],[68.6179,43.0939],[67.9277,45.0749],[66.4265,47.2069],[64.6305,48.8721],[61.9725,50.0805],[58.7113,50.9767],[56.1135,50.6463],[54.0555,49.6483],[52.5737,48.2563],[51.6485,47.0297],[51.1901,47.1147],[49.8123,46.5319],[49.3243,46.5651],[49.3011,46.2525],[48.6277,46.0829],[48.7133,45.8303],[48.5659,45.9659],[47.8307,45.6559],[47.5523,45.7695],[47.6373,45.5531],[47.5039,45.7131],[47.4651,45.7327],[47.5825,45.4177],[47.0757,44.7829],[46.7637,44.6845],[46.7079,44.4311],[47.0405,44.3461],[47.4881,43.8157],[47.4073,43.5011],[47.5393,43.8597],[47.6983,43.8689],[47.4539,43.0861],[47.7563,42.6365],[49.0401,41.4141],[49.5281,40.6629],[50.3589,40.3703],[49.4881,40.1505],[49.2809,39.5005],[49.4141,39.3783],[49.2581,39.3195],[49.2021,39.0247],[49.1005,38.9389],[49.1481,39.0933],[48.9549,39.1639],[48.8795,38.4371],[48.6231,38.3953],[48.0209,38.8357],[48.3125,39.0079],[48.1201,39.2637],[48.3599,39.3853],[47.9767,39.7193],[46.5405,38.8757],[46.4161,39.2015],[46.6225,39.2247],[46.3807,39.4251],[46.5415,39.5645],[45.6703,39.9639],[45.4821,39.8767],[45.5645,39.7455],[46.2941,39.4653],[46.3303,38.8981],[45.4395,38.9981],[44.8131,39.6309],[44.9481,39.7253],[44.4583,40.5661],[43.5147,40.8559],[43.4667,40.5571],[41.4457,39.6009],[39.8283,39.2251],[35.9131,38.7109],[28.2761,38.5199],[27.4727,38.8713],[27.0401,39.8997],[27.3481,40.3729],[27.8809,40.3779],[27.7317,40.5327],[28.0381,40.4893],[27.9611,40.3611],[29.0603,40.3707],[29.1557,40.4453],[28.7861,40.5447],[29.9381,40.7289],[29.2659,40.8117],[29.0151,41.0287],[29.1009,41.1245],[29.0865,41.1709],[29.1725,41.2293],[31.2333,41.1041],[32.5843,41.8327],[33.3395,42.0255],[34.7169,41.9469],[34.9459,42.1019],[35.2217,42.0157],[35.0921,41.9179],[35.2943,41.7095],[35.9815,41.7361],[36.4031,41.2501],[36.8123,41.3587],[37.5155,41.0253],[37.6875,41.1349],[38.3549,40.9089],[39.4259,41.1055],[40.1825,40.9125],[41.4093,41.3831],[41.7761,41.8419],[41.4387,42.7317],[40.2949,43.1709],[38.7603,44.2703],[38.1809,44.3973],[37.7881,44.7251],[37.4883,44.6695],[37.2003,44.9817],[36.5753,45.1847],[36.9607,45.2751],[36.6247,45.3025],[36.7901,45.4361],[37.5577,45.3919],[37.5983,45.6459],[37.9545,46.0345],[38.5631,46.0345],[37.7351,46.6693],[38.5817,46.6509],[38.4109,46.8281],[39.2805,47.0171],[39.2377,47.2549],[37.5657,47.0885],[37.5389,47.0787],[37.3323,46.8811],[37.3017,46.8651],[35.9073,46.6511],[35.1637,46.1297],[34.9795,46.0811],[35.3369,46.3247],[35.1981,46.4433],[34.7025,46.1759],[34.5617,45.9851],[34.4017,46.0139],[34.5425,46.1875],[33.6719,46.2209],[34.1429,45.9377],[34.6333,45.9417],[34.4607,45.7673],[34.9867,45.6319],[35.1267,45.3261],[35.3431,45.3325],[35.0503,45.6139],[34.6669,46.0937],[35.4753,45.2911],[36.1397,45.4607],[36.6373,45.3761],[36.4329,45.2753],[36.4397,45.0657],[35.5153,45.1161],[33.9303,44.3791],[33.3653,44.5823],[33.5453,44.6259],[33.5419,45.1119],[32.4805,45.3959],[33.7719,45.9205],[33.6115,46.1473],[32.2673,46.1253],[31.7595,46.3109],[32.0609,46.3907],[32.0053,46.4503],[31.6583,46.4715],[31.5079,46.5797],[32.3253,46.4645],[32.4229,46.4969],[31.9973,46.6465],[31.9751,46.8789],[31.8147,46.6159],[31.4769,46.6307],[31.5497,46.7657],[30.8329,46.5483],[30.5093,46.0965],[30.2517,45.8767],[29.7277,45.5873],[29.8807,45.6781],[29.7401,45.6157],[29.6973,45.7817],[29.6409,45.8221],[29.7681,45.3337],[29.6147,44.8629],[29.1125,44.7651],[28.8153,44.4681],[27.8965,45.0845],[28.2839,45.3979],[28.0693,45.5833],[28.2339,46.6667],[26.9547,48.1855],[26.3225,48.1645],[26.1501,47.9823],[24.9195,47.7117],[24.5565,47.9531],[22.6615,48.0067],[22.2707,47.7007],[22.5883,47.1617],[22.5885,46.7455],[22.4057,46.4785],[22.4029,45.3375],[22.2203,45.0507],[22.8787,45.2953],[23.4235,44.9917],[23.2989,44.2463],[22.7027,43.7871],[23.0537,43.6679],[23.9107,43.8809],[25.6053,43.9319],[26.0039,44.2209],[25.2995,44.4077],[24.8831,45.0339],[25.5067,45.2701],[26.1489,44.4501],[27.7289,44.3483],[28.5899,43.6415],[28.4689,43.3641],[28.1503,43.4071],[27.9071,43.1937],[27.9071,42.7093],[27.4551,42.4815],[27.7319,42.4169],[28.0605,41.9003],[26.8343,42.1853],[26.6227,42.0129],[26.2583,42.0733],[26.3019,41.7973],[26.0381,41.7455],[26.4335,41.6071],[26.4001,41.4341],[25.8725,40.8497],[25.1413,41.0119],[24.9269,40.9311],[24.3869,41.2261],[24.4915,41.6417],[24.3445,41.7799],[22.9397,42.1423],[23.4115,41.6157],[22.7745,41.4341],[22.5425,41.5379],[22.6211,41.9353],[22.2175,42.1767],[22.2073,42.4521],[21.8613,42.4177],[21.9643,42.0905],[21.8071,42.0303],[21.3699,42.3231],[21.2895,42.6325],[21.6803,42.8555],[21.6001,43.1639],[22.2939,43.2409],[23.2145,42.8727],[26.0307,42.6583],[26.3609,42.8213],[25.6829,43.0185],[23.0005,43.1041],[22.3435,43.2837],[22.1695,43.6081],[21.8123,43.6081],[21.2453,43.9405],[21.1303,44.0255],[21.4399,44.5009],[22.7853,43.9999],[22.7475,44.1869],[22.3603,44.3059],[22.5539,44.5857],[22.4155,44.6789],[21.4267,44.7127],[21.0599,45.2533],[20.5677,45.2111],[20.5581,45.4975],[20.8707,45.5311],[21.0069,46.3197],[20.3543,46.2109],[20.0653,45.9343],[19.8489,45.9175],[19.8277,46.2193],[19.0903,46.0769],[19.5085,45.8085],[19.1977,45.5563],[17.6461,45.6321],[17.4845,45.4891],[17.2485,45.5647],[17.1451,45.9511],[16.6279,45.8923],[16.7391,46.2695],[15.9711,46.2359],[15.7493,46.3865],[16.0127,47.2697],[15.6803,47.3693],[15.6639,47.5601],[15.9881,47.8415],[15.2171,48.1141],[15.1087,48.4189],[16.6639,49.2557],[16.6475,49.4273],[15.3659,49.9731],[15.1599,49.9649],[14.8657,49.5741],[14.8125,49.7535],[14.3919,49.8185],[14.3409,49.4435],[13.9151,49.3619],[13.6351,49.9487],[12.8593,50.2411],[13.5069,50.7187],[13.0107,51.0735],[11.9477,50.8559],[11.4417,50.9609],[10.9357,50.6783],[10.7549,50.7105],[10.6949,51.1299],[10.1645,50.8397],[9.8551,51.0495],[9.9861,51.8045],[10.6227,51.5479],[10.7989,52.1323],[11.0469,52.2679],[10.4715,52.5627],[10.7021,52.9121],[9.8673,53.1497],[9.8853,53.3395],[10.4145,53.4659],[10.5599,53.8047],[11.2287,53.6867],[11.4277,53.7811],[11.5489,54.0871],[12.1521,54.0933],[12.0965,54.1779],[12.5283,54.4853],[12.9283,54.4293],[12.6965,54.4331],[12.4381,54.3805],[12.3665,54.2681],[13.0269,54.4397],[13.1065,54.2841],[13.4603,54.0881],[13.4965,54.1255],[13.7243,54.1637],[13.8227,53.8407],[14.5807,53.5823],[14.5381,53.7023],[14.7609,53.9269],[14.8017,54.0321],[14.7311,54.0247],[17.9809,54.8335],[18.3319,54.8361],[18.7845,54.6525],[18.3945,54.7437],[18.7815,54.3543],[19.8983,54.6261],[19.2319,54.3395],[19.3731,54.2231],[20.4051,54.6791],[19.8727,54.6407],[19.9695,54.9575],[20.5487,54.9965],[21.0395,55.4009],[21.0583,56.8129],[21.4097,57.0363],[21.7109,57.5713],[22.6089,57.7617],[23.2643,57.0923],[23.6363,56.9661],[24.3995,57.2413],[24.3151,57.8719],[24.5595,58.3207],[23.7361,58.3515],[23.5025,58.5725],[23.5295,58.7417],[23.7627,58.7625],[23.4629,58.7737],[23.4311,58.9395],[23.6379,58.9705],[23.4073,59.0187],[23.4705,59.2125],[24.7287,59.4577],[24.8011,59.5703],[25.4017,59.4891],[25.6979,59.6763],[27.8953,59.4095],[28.0803,59.7965],[28.3741,59.6611],[28.5005,59.8575],[28.8387,59.7847],[29.1305,59.9875],[30.2363,59.9571],[30.2521,59.9713]],[[49.2069,39.0797],[49.2083,39.0893],[49.2065,39.0791],[49.2069,39.0797]],[[31.5685,46.7811],[31.5707,46.7847],[31.5661,46.7805],[31.5685,46.7811]],[[42.7177,41.5413],[42.7131,41.5465],[42.7039,41.5435],[42.7177,41.5413]],[[31.5949,46.8003],[31.5933,46.8051],[31.5761,46.7897],[31.5949,46.8003]],[[45.5131,40.6073],[45.5883,40.6483],[45.5555,40.6653],[45.5131,40.6073]],[[37.7267,45.4473],[37.6415,45.5909],[37.6217,45.5721],[37.7267,45.4473]],[[45.4033,40.6939],[45.6235,40.8567],[45.5169,40.9255],[45.4033,40.6939]],[[71.2745,38.0001],[71.3631,38.2485],[71.3351,38.2751],[70.9071,38.0001],[71.2745,38.0001]],[[45.5031,40.3569],[45.9055,40.0207],[45.9983,40.1985],[45.4051,40.6215],[45.5031,40.3569]],[[21.2423,54.9437],[21.2893,55.2917],[21.1837,55.3409],[21.2473,55.4633],[21.1403,55.6823],[21.1101,55.7151],[21.0629,55.3313],[20.5311,54.9611],[21.2423,54.9437]]],[[[23.6185,47.8727],[24.3833,47.5919],[24.6707,47.2987],[24.7763,46.8165],[25.1037,46.6277],[25.9677,46.6161],[26.1213,46.3679],[26.0013,46.0839],[26.7447,45.7993],[26.4087,45.5735],[25.3197,45.4665],[24.8985,45.4903],[24.1627,45.9179],[23.7641,45.4665],[23.4111,45.5021],[23.1647,45.6329],[23.1579,46.1075],[23.4287,47.2635],[23.1475,47.6739],[23.6185,47.8727]]],[[[42.7693,39.3741],[43.3967,39.5637],[42.8975,39.6229],[42.6817,39.8593],[43.6037,39.8681],[43.6277,39.6055],[43.4479,39.5545],[43.6991,39.4035],[43.6017,38.9201],[42.7317,38.6147],[42.4901,39.0577],[42.7693,39.3741]]],[[[10.3931,45.9427],[10.7469,45.7329],[11.1449,45.8505],[11.5225,45.2279],[10.7777,45.5395],[10.5525,45.1521],[10.0197,45.3543],[9.4065,45.1943],[9.2271,45.7245],[10.3931,45.9427]]],[[[33.4543,37.5267],[33.8867,37.4291],[33.8261,36.6377],[33.6721,36.5169],[33.1243,36.5311],[33.0843,36.8667],[32.8081,37.0837],[33.4543,37.5267]]],[[[13.8031,46.2443],[14.0455,45.9763],[14.1915,46.0433],[14.2043,46.4117],[14.9931,46.0265],[14.5689,45.8841],[14.2753,45.3543],[13.7255,45.5465],[13.4959,46.0099],[13.8031,46.2443]]],[[[22.9843,59.9703],[23.2645,60.0619],[23.0001,60.0661],[23.0623,60.1297],[22.8683,60.1895],[22.9505,60.2571],[23.7839,60.2419],[24.5997,60.4121],[27.6987,60.6189],[27.7633,60.5815],[26.4457,60.4937],[26.5231,60.3441],[26.0723,60.4361],[26.1211,60.3267],[26.0309,60.3041],[25.9901,60.3551],[25.9373,60.3609],[25.9147,60.3539],[25.8971,60.2457],[25.6769,60.3811],[24.8469,60.2113],[24.8457,60.1675],[24.6587,60.1361],[24.4167,59.9627],[24.3127,60.0873],[23.3947,59.9231],[23.4861,59.9987],[23.4699,60.0247],[23.2325,59.8917],[23.2485,59.8437],[22.9233,59.8089],[23.1651,59.8921],[23.2335,60.0339],[23.0341,59.9093],[22.8175,59.9929],[22.9843,59.9703]]],[[[17.5331,43.7701],[17.3667,44.0765],[17.7057,44.2039],[17.9997,43.8213],[17.6375,43.4033],[17.8373,43.0441],[17.4809,42.9843],[17.2047,43.2923],[17.5331,43.7701]]],[[[36.9479,37.5983],[37.7335,37.6911],[37.4903,37.2209],[36.8361,37.1101],[36.7025,37.2737],[36.9479,37.5983]]],[[[20.6487,41.3215],[21.3889,40.9225],[20.5551,40.2435],[20.8151,40.7921],[20.3371,41.2349],[20.6487,41.3215]]],[[[27.5023,41.5187],[27.9569,41.5835],[27.9287,41.1357],[27.2017,40.9463],[27.1381,41.1121],[27.5023,41.5187]]],[[[14.4413,49.2311],[14.6479,48.9609],[14.0609,48.7477],[13.6051,49.1411],[14.4413,49.2311]]],[[[18.1117,57.5321],[18.4867,57.8253],[19.1013,57.8381],[18.8143,57.7399],[18.7779,57.4703],[18.9451,57.4203],[18.4117,57.1337],[18.3275,56.9339],[18.1371,56.9061],[18.3085,57.0971],[18.1021,57.2563],[18.1117,57.5321]]],[[[22.5641,58.6427],[23.3329,58.4417],[22.2887,58.1881],[22.0499,57.8997],[22.2015,58.1447],[21.8487,58.2789],[22.0001,58.3737],[21.8321,58.5051],[22.5641,58.6427]],[[23.2833,58.4303],[23.2841,58.4309],[23.2825,58.4307],[23.2833,58.4303]]],[[[15.5037,45.9175],[15.8985,45.9091],[16.1525,45.6741],[15.9633,45.4217],[15.6767,45.4301],[15.3041,45.6993],[15.5037,45.9175]]],[[[19.8727,44.9157],[20.1619,44.7211],[19.6131,44.4671],[19.0803,44.8227],[19.8727,44.9157]]],[[[15.5579,56.4023],[15.7651,56.3561],[16.0377,56.8393],[16.2677,56.9771],[16.4637,57.0275],[16.5491,56.9949],[16.4575,57.0057],[16.3957,56.6773],[15.8595,56.0709],[15.8347,56.1653],[15.5993,56.2035],[15.3931,56.1625],[15.5579,56.4023]]],[[[19.1899,42.7011],[19.0171,42.1367],[18.8829,42.2727],[18.7295,42.3027],[18.6683,42.7269],[19.1899,42.7011]]],[[[28.5047,41.4133],[29.1179,41.2395],[28.8229,40.9639],[28.2765,41.0703],[28.5047,41.4133]]],[[[14.8739,45.3797],[15.3519,45.0507],[15.2747,44.8987],[14.9177,44.9271],[14.6125,45.2319],[14.8739,45.3797]]],[[[15.8013,44.6111],[16.1741,44.3737],[15.9177,44.2125],[15.5409,44.3397],[15.8013,44.6111]]],[[[11.4545,44.9325],[11.8081,44.7635],[11.4677,44.5349],[11.1985,44.7295],[11.4545,44.9325]]],[[[9.8449,45.0339],[10.3157,44.7549],[10.0619,44.6195],[9.7189,44.7549],[9.8449,45.0339]]],[[[21.8421,41.5119],[22.2025,41.3649],[21.9649,41.0961],[21.6529,41.2609],[21.8421,41.5119]]],[[[20.7961,42.4951],[21.1329,42.3317],[20.9079,42.0819],[20.6167,42.2025],[20.7961,42.4951]]],[[[10.7501,46.7621],[11.1873,46.5201],[10.6689,46.4117],[10.5163,46.5369],[10.7501,46.7621]]],[[[13.1533,50.0057],[13.5165,49.6883],[13.1979,49.5659],[12.9375,49.7209],[13.1533,50.0057]]],[[[15.6255,45.0169],[15.9763,44.8227],[15.6961,44.6703],[15.3193,44.8141],[15.6255,45.0169]]],[[[10.6791,44.9579],[11.0337,44.8227],[10.8723,44.5771],[10.4705,44.7381],[10.6791,44.9579]]],[[[21.2361,41.4773],[21.5483,41.3041],[21.3379,41.1047],[21.0469,41.2175],[21.2361,41.4773]]],[[[18.2551,44.2295],[18.5935,44.0595],[18.3003,43.8893],[17.9597,44.0085],[18.2551,44.2295]]],[[[16.3319,45.3713],[16.5793,45.2785],[16.1003,44.9409],[15.9917,45.2279],[16.3319,45.3713]]],[[[16.9659,57.2927],[17.1293,57.3543],[16.4103,56.1929],[16.3809,56.5265],[16.9659,57.2927]]],[[[17.2835,45.2533],[17.5757,45.1013],[17.2583,44.9325],[16.9437,45.1267],[17.2835,45.2533]]],[[[18.7701,43.7361],[18.8793,43.5057],[18.5533,43.3947],[18.3737,43.6509],[18.7701,43.7361]]],[[[20.3219,43.8127],[20.5231,43.5313],[20.1625,43.4545],[20.0297,43.6763],[20.3219,43.8127]]],[[[21.0309,41.9181],[21.5267,41.8663],[21.3381,41.6331],[20.9765,41.7627],[21.0309,41.9181]]],[[[12.2673,48.8379],[12.6595,48.6655],[12.3293,48.5177],[12.0447,48.6655],[12.2673,48.8379]]],[[[18.4667,43.0269],[18.6217,42.7527],[18.3995,42.5467],[18.2325,42.8213],[18.4667,43.0269]]],[[[12.2363,55.5373],[12.4587,55.2913],[12.1063,55.1375],[11.7439,55.3819],[12.2363,55.5373]]],[[[11.6775,46.8871],[11.9583,46.6455],[11.6555,46.5453],[11.3357,46.6789],[11.6775,46.8871]]],[[[22.6627,59.0861],[23.0747,58.8389],[22.7457,58.8045],[22.5317,58.6887],[22.0423,58.9401],[22.6627,59.0861]]],[[[16.9953,44.9241],[17.1067,44.7295],[16.9087,44.5517],[16.6657,44.7465],[16.9953,44.9241]]],[[[13.7829,45.2869],[14.2627,45.2497],[14.0529,44.9625],[13.7829,45.2869]]],[[[8.1471,46.1607],[8.2463,45.7413],[7.9727,45.8253],[7.8683,45.9931],[8.1471,46.1607]]],[[[16.7725,44.1191],[17.0519,43.9489],[16.7963,43.8127],[16.5051,43.9829],[16.7725,44.1191]]],[[[20.1113,44.4077],[20.4023,44.2549],[20.1923,44.1019],[19.8887,44.2379],[20.1113,44.4077]]],[[[17.8705,45.2869],[18.1417,45.2027],[17.9993,44.9493],[17.6935,45.0591],[17.8705,45.2869]]],[[[19.4797,44.4161],[19.6127,44.1955],[19.5365,44.0935],[19.1593,44.1869],[19.4797,44.4161]]],[[[13.2671,54.3835],[13.1529,54.4243],[13.2731,54.4811],[13.1469,54.5489],[13.5071,54.4847],[13.1621,54.5611],[13.4323,54.6839],[13.7673,54.3427],[13.4583,54.3367],[13.3947,54.2203],[13.1151,54.3401],[13.2671,54.3835]]],[[[13.9821,55.6697],[14.3617,55.5593],[14.1741,55.3773],[13.7499,55.4275],[13.9821,55.6697]]],[[[8.7093,45.5647],[8.9799,45.3627],[8.6907,45.2533],[8.5373,45.3459],[8.7093,45.5647]]],[[[20.9271,43.2665],[21.1319,43.0699],[20.8771,42.9585],[20.6955,43.1469],[20.9271,43.2665]]],[[[9.3779,47.0619],[9.5053,46.8705],[9.2037,46.7955],[9.0519,46.9787],[9.3779,47.0619]]],[[[13.4015,49.5171],[13.6159,49.4355],[13.5849,49.2475],[13.2095,49.2147],[13.4015,49.5171]]],[[[8.9323,46.4617],[9.0353,46.2527],[8.7817,46.1523],[8.6399,46.2443],[8.9323,46.4617]]],[[[9.9681,59.3129],[10.2099,59.1789],[9.9613,58.9635],[9.6921,59.1507],[9.9681,59.3129]]],[[[21.1857,42.9499],[21.2833,42.7527],[21.0187,42.6841],[20.8849,42.8727],[21.1857,42.9499]]],[[[19.6899,45.5985],[19.9845,45.5059],[19.9519,45.3787],[19.6051,45.3207],[19.6899,45.5985]]],[[[10.0713,46.9537],[10.5295,47.0369],[10.4041,46.8289],[10.0713,46.9537]]],[[[7.6937,46.2527],[7.7605,45.9931],[7.3899,46.0181],[7.6937,46.2527]]],[[[9.2355,52.6527],[9.5669,52.6593],[9.3381,52.3775],[9.2355,52.6527]]],[[[20.1487,45.4385],[20.3375,45.3881],[20.2197,45.1773],[19.9237,45.2363],[20.1487,45.4385]]],[[[20.5743,45.1013],[20.6249,44.9157],[20.3121,44.8649],[20.2581,44.9833],[20.5743,45.1013]]],[[[13.8077,54.1721],[14.3237,53.9103],[14.7187,54.0223],[14.7629,54.0153],[14.6931,53.9981],[14.5859,53.8037],[14.4033,53.8923],[13.8835,53.8385],[14.0401,54.0141],[13.8077,54.1721]]],[[[14.7089,49.5823],[14.8587,49.4027],[14.6123,49.2801],[14.5081,49.3945],[14.7089,49.5823]]],[[[8.5115,53.3673],[8.4907,53.3641],[8.4445,53.5265],[8.5115,53.3673]]],[[[8.5287,53.6629],[8.7199,53.6629],[8.7837,53.4095],[8.5115,53.3673],[8.5287,53.6629]]],[[[9.4687,59.1437],[9.6603,58.9647],[9.4693,58.9367],[9.5131,58.9239],[9.4695,58.9103],[9.4717,58.8673],[9.4439,58.8651],[9.1687,58.9529],[9.4687,59.1437]]],[[[15.5755,46.2275],[15.6529,46.0601],[15.3161,46.0181],[15.2975,46.1607],[15.5755,46.2275]]],[[[22.6241,60.1511],[22.4211,60.1581],[22.4747,60.2365],[22.5463,60.2005],[22.9377,60.2591],[22.8619,60.2159],[22.7667,60.0065],[22.6837,60.0445],[22.4687,60.0163],[22.4597,59.9849],[22.3677,60.0563],[22.6241,60.1511]]],[[[9.6225,54.5483],[9.7693,54.4001],[9.4345,54.3355],[9.6225,54.5483]]],[[[11.1541,54.8089],[11.0901,54.9337],[11.3657,54.7283],[10.9579,54.8185],[11.1541,54.8089]]],[[[17.6263,58.9831],[17.6269,58.9827],[17.4673,58.8889],[17.5143,58.7799],[17.0409,58.7729],[17.6263,58.9831]]],[[[10.7275,59.4959],[10.9083,59.3129],[10.7425,59.2195],[10.8127,59.3195],[10.5921,59.4295],[10.7275,59.4959]]],[[[23.2049,58.6849],[23.4125,58.5523],[23.2617,58.5223],[23.0579,58.6083],[23.2049,58.6849]]],[[[18.6479,59.7373],[18.9141,59.7819],[19.0943,59.7553],[18.7233,59.6819],[18.6147,59.5607],[18.6479,59.7373]]],[[[12.3565,54.9843],[12.2605,55.0579],[12.5565,54.9587],[12.1061,54.9029],[12.3565,54.9843]]],[[[18.4019,59.3631],[18.4735,59.3207],[18.5035,59.3855],[18.4385,59.4265],[18.7585,59.3499],[18.5793,59.2899],[18.2325,59.3371],[18.4019,59.3631]]],[[[11.2833,58.9953],[11.2853,58.7545],[11.2503,58.7379],[11.1751,58.7777],[11.2377,58.7663],[11.2399,58.8351],[11.1935,58.9311],[11.2833,58.9953]]],[[[22.5537,60.3299],[22.8387,60.2759],[22.5363,60.2121],[22.5779,60.2701],[22.5537,60.3299]]],[[[12.1111,55.1315],[12.1855,55.1123],[12.1719,54.9931],[11.9729,54.9803],[12.1111,55.1315]]],[[[48.5325,45.8775],[48.7273,45.7029],[48.5919,45.7475],[48.5325,45.8775]]],[[[23.3335,59.0377],[23.3939,58.9943],[23.1805,58.9611],[23.3335,59.0377]]],[[[19.1937,57.9943],[19.3623,57.9529],[19.1331,57.8413],[19.1937,57.9943]]],[[[21.8149,60.4589],[21.9553,60.4275],[22.0515,60.3557],[21.8149,60.4589]]],[[[22.1839,60.3329],[22.3653,60.3101],[22.2183,60.2421],[22.2441,60.2949],[22.1839,60.3329]]],[[[34.2209,46.1851],[34.2347,46.1867],[34.2573,46.0779],[34.2209,46.1851]]],[[[21.4415,61.1923],[21.6379,61.2217],[21.4839,61.0801],[21.4415,61.1923]]],[[[31.6133,46.2545],[32.0853,46.1767],[32.1687,46.1439],[31.5843,46.2533],[31.5001,46.3619],[31.6133,46.2545]]],[[[32.8551,46.0583],[33.0603,46.0239],[33.0083,46.0097],[32.8551,46.0583]]],[[[21.7821,60.2145],[21.9509,60.1917],[21.7975,60.1333],[21.7821,60.2145]]],[[[14.6065,45.2037],[14.8207,44.9793],[14.5901,45.1267],[14.6065,45.2037]]],[[[47.6467,43.9887],[47.7857,43.9589],[47.7397,43.9323],[47.6467,43.9887]]],[[[48.4045,45.7951],[48.4689,45.6739],[48.3487,45.7567],[48.4045,45.7951]]],[[[47.9915,45.6037],[47.9625,45.5051],[47.9371,45.5375],[47.9915,45.6037]]],[[[21.5841,60.1835],[21.6955,60.1689],[21.6665,60.1167],[21.5841,60.1835]]],[[[18.5057,59.2885],[18.5277,59.2745],[18.6161,59.2497],[18.3441,59.2849],[18.5057,59.2885]]],[[[21.3795,60.5749],[21.3839,60.5989],[21.4269,60.5579],[21.5385,60.5281],[21.3323,60.5639],[21.3795,60.5749]]],[[[21.2859,60.9995],[21.3669,60.9595],[21.3695,60.8613],[21.3125,60.8969],[21.2859,60.9995]]],[[[18.3717,59.0791],[18.4921,59.1197],[18.4197,59.0083],[18.3717,59.0791]]],[[[21.4231,61.0459],[21.4771,61.0739],[21.3851,60.9893],[21.4231,61.0459]]],[[[22.3693,60.3641],[22.5155,60.3373],[22.3725,60.3001],[22.3907,60.3251],[22.3693,60.3641]]],[[[19.0829,59.8881],[19.0851,59.8277],[19.0165,59.8461],[19.0829,59.8881]]],[[[18.6497,59.5573],[18.7633,59.5433],[18.6013,59.4947],[18.6053,59.4563],[18.5913,59.5043],[18.6497,59.5573]]],[[[18.3373,59.2139],[18.4367,59.1447],[18.4489,59.1705],[18.4759,59.1705],[18.4315,59.1349],[18.3373,59.2139]]],[[[22.2875,60.2691],[22.3251,60.2355],[22.2681,60.1977],[22.2875,60.2691]]],[[[22.0669,60.2183],[22.1103,60.2031],[22.0457,60.1883],[22.0269,60.1491],[21.9481,60.1693],[22.0669,60.2183]]],[[[25.6089,60.3137],[25.6797,60.2401],[25.6239,60.2043],[25.6089,60.3137]]],[[[22.3819,60.2973],[22.4689,60.3045],[22.4135,60.2465],[22.3819,60.2973]]],[[[21.2651,60.2273],[21.2723,60.2233],[21.2907,60.2191],[21.2981,60.2193],[21.3221,60.2347],[21.3803,60.2377],[21.3389,60.2271],[21.3849,60.2043],[21.4707,60.2079],[21.4015,60.1779],[21.3171,60.1959],[21.3419,60.2067],[21.2517,60.2135],[21.2651,60.2273]]],[[[21.3031,60.5627],[21.3585,60.5027],[21.2421,60.5141],[21.3031,60.5627]]],[[[21.3135,60.6699],[21.3619,60.6293],[21.3241,60.6307],[21.3235,60.5819],[21.2949,60.5839],[21.3135,60.6699]]],[[[23.5141,59.9285],[23.6597,59.9307],[23.5223,59.9241],[23.5485,59.8873],[23.5141,59.9285]]],[[[18.9779,59.8649],[19.0107,59.8339],[18.9909,59.7883],[18.9779,59.8649]]],[[[11.4741,54.0249],[11.4999,54.0159],[11.4575,53.9573],[11.4741,54.0249]]],[[[23.9651,58.1567],[24.0247,58.1373],[23.9903,58.0989],[23.9651,58.1567]]],[[[25.9969,60.3371],[26.0387,60.2877],[26.0165,60.2777],[26.0041,60.2817],[25.9977,60.2805],[25.9779,60.2767],[25.9723,60.2731],[25.9401,60.2697],[25.9969,60.3371]]],[[[21.9693,60.3157],[21.9131,60.3289],[22.0367,60.3247],[21.9565,60.2761],[21.9693,60.3157]]],[[[18.7037,59.2999],[18.7169,59.2921],[18.6403,59.2499],[18.7037,59.2999]]],[[[20.8065,60.2893],[20.8515,60.2469],[20.7973,60.2427],[20.8103,60.2223],[20.7533,60.2555],[20.8065,60.2893]]],[[[18.2585,58.9609],[18.3703,58.9805],[18.3313,58.9311],[18.2585,58.9609]]],[[[26.5979,60.4471],[26.6615,60.4205],[26.5403,60.3773],[26.5979,60.4471]]],[[[17.8309,58.8835],[17.8807,58.8449],[17.8661,58.7985],[17.8309,58.8835]]],[[[22.9045,60.1215],[22.9717,60.1087],[22.9533,60.0853],[22.9045,60.1215]]],[[[13.1565,54.4891],[13.2287,54.4859],[13.2249,54.4671],[13.1565,54.4891]]],[[[18.9619,59.6579],[19.0027,59.6309],[18.9449,59.6365],[18.9619,59.6579]]],[[[24.5177,59.6065],[24.5677,59.5433],[24.5263,59.5423],[24.5177,59.6065]]],[[[22.3109,60.1893],[22.3903,60.2063],[22.3391,60.1489],[22.3109,60.1893]]],[[[22.2943,60.3755],[22.3089,60.3619],[22.2117,60.3429],[22.2943,60.3755]]],[[[23.9061,59.9885],[23.9901,59.9849],[23.9231,59.9533],[23.9061,59.9885]]],[[[18.5593,59.4987],[18.5985,59.4357],[18.5535,59.4363],[18.5593,59.4987]]],[[[13.0985,54.5911],[13.1465,54.6041],[13.1085,54.5837],[13.0613,54.4687],[13.0985,54.5911]]],[[[15.6713,56.1191],[15.7415,56.1109],[15.7103,56.0709],[15.6713,56.1191]]],[[[18.1731,59.0343],[18.2343,59.0309],[18.1619,58.9737],[18.1731,59.0343]]],[[[18.8583,59.6267],[18.9597,59.6679],[18.8371,59.5905],[18.8583,59.6267]]],[[[9.4211,58.8501],[9.4657,58.8319],[9.4003,58.8153],[9.4211,58.8501]]],[[[17.1399,58.7005],[17.1635,58.6947],[17.1201,58.6481],[17.1399,58.7005]]],[[[29.7277,60.0231],[29.8097,59.9883],[29.7911,59.9761],[29.7277,60.0231]]],[[[21.5841,60.2731],[21.6373,60.2537],[21.6085,60.2227],[21.5841,60.2731]]],[[[22.9003,60.0683],[22.9213,60.0491],[22.8819,60.0049],[22.9003,60.0683]]],[[[18.3089,59.3055],[18.3225,59.2699],[18.3745,59.2695],[18.3117,59.2617],[18.3089,59.3055]]],[[[23.9947,59.3571],[24.0107,59.3199],[23.9759,59.3213],[23.9947,59.3571]]],[[[18.3855,59.2291],[18.4277,59.1945],[18.3345,59.2167],[18.3855,59.2291]]],[[[12.0677,54.9379],[12.0907,54.9227],[12.0793,54.9067],[12.0677,54.9379]]],[[[18.7961,59.3051],[18.8243,59.2927],[18.7759,59.2579],[18.7961,59.3051]]],[[[23.9269,59.3459],[23.9523,59.3135],[23.9205,59.3081],[23.9269,59.3459]]],[[[11.1899,58.7589],[11.2431,58.7345],[11.1921,58.7133],[11.1899,58.7589]]],[[[20.7687,60.3585],[20.8023,60.3539],[20.7531,60.3115],[20.7687,60.3585]]],[[[18.8773,59.4435],[18.9383,59.4415],[18.9011,59.4097],[18.8773,59.4435]]],[[[23.2317,57.8213],[23.2711,57.7851],[23.2181,57.7845],[23.2317,57.8213]]],[[[11.0163,58.9079],[11.0593,58.8705],[11.0287,58.8607],[11.0163,58.9079]]],[[[21.0049,59.9563],[21.0095,59.9237],[20.9799,59.9247],[20.9841,59.9315],[21.0049,59.9563]]],[[[22.5559,59.9905],[22.5843,59.9647],[22.5357,59.9469],[22.5559,59.9905]]],[[[26.8811,60.4693],[26.9167,60.4445],[26.8955,60.4231],[26.8811,60.4693]]],[[[22.1333,60.3785],[22.2265,60.3809],[22.1141,60.3507],[22.1333,60.3785]]],[[[22.4871,59.8727],[22.4855,59.8871],[22.5331,59.8961],[22.5015,59.8647],[22.4871,59.8727]]],[[[17.1177,58.7371],[17.1305,58.7269],[17.0715,58.6987],[17.1177,58.7371]]],[[[21.8831,58.3989],[21.9163,58.3865],[21.8373,58.3717],[21.8831,58.3989]]],[[[18.7683,60.2041],[18.8143,60.1603],[18.7301,60.1921],[18.7683,60.2041]]],[[[20.9109,59.9497],[20.9355,59.9089],[20.9143,59.9071],[20.9109,59.9497]]],[[[16.4703,56.7983],[16.4883,56.7849],[16.4761,56.7625],[16.4703,56.7983]]],[[[22.4923,58.1779],[22.5353,58.1513],[22.5027,58.1255],[22.4923,58.1779]]],[[[25.8243,60.2303],[25.8945,60.2249],[25.8437,60.2009],[25.8243,60.2303]]],[[[26.1291,60.3135],[26.1525,60.2903],[26.1155,60.2733],[26.1291,60.3135]]],[[[21.9683,60.1395],[22.0183,60.1217],[21.9763,60.1101],[21.9683,60.1395]]],[[[18.2797,59.1107],[18.3525,59.0977],[18.2413,59.0771],[18.2797,59.1107]]],[[[17.6379,58.9775],[17.7083,58.9431],[17.7099,58.9013],[17.6379,58.9775]]],[[[18.9081,59.8163],[18.8759,59.7849],[18.7567,59.7703],[18.9081,59.8163]]],[[[22.6271,59.9891],[22.6569,59.9501],[22.6345,59.9377],[22.6271,59.9891]]],[[[11.1941,58.8613],[11.2117,58.8411],[11.1667,58.8257],[11.1941,58.8613]]],[[[14.7169,53.9793],[14.7555,53.9689],[14.7509,53.9505],[14.7169,53.9793]]],[[[23.4131,59.8843],[23.4097,59.8923],[23.4419,59.8941],[23.4079,59.8631],[23.4131,59.8843]]],[[[21.6139,60.5213],[21.5895,60.5409],[21.6553,60.5171],[21.6139,60.5213]]],[[[18.7093,59.2169],[18.7609,59.2073],[18.7375,59.1913],[18.7093,59.2169]]],[[[21.2043,60.8923],[21.2825,60.8871],[21.2467,60.8607],[21.2043,60.8923]]],[[[21.3963,61.2105],[21.4295,61.1695],[21.3589,61.1691],[21.3963,61.2105]]],[[[26.2043,60.3493],[26.2493,60.3241],[26.2037,60.3181],[26.2043,60.3493]]],[[[22.9539,60.0515],[22.9799,60.0393],[22.9377,60.0079],[22.9539,60.0515]]],[[[29.1353,40.8835],[29.1495,40.8761],[29.1265,40.8429],[29.1353,40.8835]]],[[[21.3335,60.3861],[21.3707,60.3531],[21.3435,60.3497],[21.3335,60.3861]]],[[[22.4277,59.9773],[22.4405,59.9679],[22.4247,59.9241],[22.4277,59.9773]]],[[[27.0387,60.4641],[27.0519,60.4441],[27.0335,60.4151],[27.0387,60.4641]]],[[[21.3985,60.4033],[21.4253,60.3801],[21.4095,60.3709],[21.3985,60.4033]]],[[[27.0747,60.4037],[27.0745,60.3783],[27.0431,60.3779],[27.0747,60.4037]]],[[[15.5433,56.1229],[15.5801,56.1133],[15.5731,56.0959],[15.5433,56.1229]]],[[[25.0597,60.1857],[25.1007,60.1663],[25.0693,60.1585],[25.0597,60.1857]]],[[[25.0295,59.6373],[25.0441,59.6133],[24.9923,59.6133],[25.0295,59.6373]]],[[[21.6189,60.4189],[21.6375,60.4577],[21.6481,60.4277],[21.6189,60.4189]]],[[[9.5185,58.8719],[9.5353,58.8621],[9.5157,58.8435],[9.5185,58.8719]]],[[[21.4319,60.2439],[21.4743,60.2311],[21.4665,60.2159],[21.4319,60.2439]]],[[[18.9367,59.4133],[18.9641,59.3819],[18.9549,59.3703],[18.9367,59.4133]]],[[[18.6529,59.4449],[18.6907,59.4647],[18.7483,59.4613],[18.6529,59.4449]]],[[[17.6323,58.8545],[17.7185,58.8011],[17.6687,58.8109],[17.6323,58.8545]]],[[[27.8199,60.5055],[27.8469,60.4925],[27.8151,60.4721],[27.8199,60.5055]]],[[[21.4279,60.2939],[21.4521,60.2863],[21.4487,60.2725],[21.4279,60.2939]]],[[[23.1105,59.9347],[23.1459,59.8943],[23.1053,59.9099],[23.1105,59.9347]]],[[[18.2861,59.4035],[18.3537,59.3923],[18.3365,59.3853],[18.2861,59.4035]]],[[[15.4959,56.1161],[15.4979,56.1057],[15.4829,56.0875],[15.4959,56.1161]]],[[[12.1225,54.8857],[12.1623,54.8423],[12.0713,54.8905],[12.1225,54.8857]]],[[[21.5561,60.5259],[21.5765,60.5105],[21.5583,60.4955],[21.5561,60.5259]]],[[[22.3433,60.2297],[22.3771,60.2275],[22.3337,60.2057],[22.3433,60.2297]]],[[[21.6813,60.3633],[21.7207,60.3475],[21.6617,60.3463],[21.6813,60.3633]]],[[[21.7003,60.5007],[21.7437,60.4747],[21.7103,60.4591],[21.7003,60.5007]]],[[[15.7825,56.1253],[15.7837,56.1177],[15.7623,56.1045],[15.7825,56.1253]]],[[[21.8319,60.1429],[21.9123,60.1543],[21.9117,60.1483],[21.8929,60.1493],[21.8319,60.1429]]],[[[25.4795,60.2513],[25.4923,60.2463],[25.4467,60.2257],[25.4795,60.2513]]],[[[22.1217,60.2683],[22.1897,60.2617],[22.1805,60.2509],[22.1217,60.2683]]],[[[18.2281,59.3649],[18.2485,59.3567],[18.2095,59.3415],[18.2281,59.3649]]],[[[21.8807,60.3665],[21.9087,60.3597],[21.8837,60.3509],[21.8807,60.3665]]],[[[18.1143,58.8849],[18.1537,58.8933],[18.1427,58.8693],[18.1143,58.8849]]],[[[15.6333,56.1289],[15.6425,56.1283],[15.6459,56.1017],[15.6333,56.1289]]],[[[21.2069,60.6193],[21.2385,60.5997],[21.2273,60.5843],[21.2069,60.6193]]],[[[12.2163,55.0591],[12.2379,55.0563],[12.2225,55.0351],[12.2163,55.0591]]],[[[18.7803,59.4869],[18.8155,59.4787],[18.7867,59.4713],[18.7803,59.4869]]],[[[17.4661,58.7579],[17.4737,58.7229],[17.4601,58.7469],[17.4661,58.7579]]],[[[23.8605,59.9949],[23.8891,59.9899],[23.8301,59.9519],[23.8605,59.9949]]],[[[9.4929,58.8893],[9.5575,58.9041],[9.5453,58.8899],[9.4929,58.8893]]],[[[17.9427,58.8469],[17.9363,58.8109],[17.9359,58.8291],[17.9427,58.8469]]],[[[22.3435,59.9581],[22.3771,59.9585],[22.3521,59.9329],[22.3435,59.9581]]],[[[27.8423,60.5355],[27.8425,60.5313],[27.7945,60.5349],[27.8423,60.5355]]],[[[21.3579,60.2455],[21.4349,60.2503],[21.3951,60.2393],[21.3579,60.2455]]],[[[11.1769,58.8885],[11.1841,58.8739],[11.1553,58.8705],[11.1769,58.8885]]],[[[22.6771,60.0329],[22.6865,60.0349],[22.6909,59.9971],[22.6771,60.0329]]],[[[19.1249,59.8651],[19.1495,59.8669],[19.1175,59.8349],[19.1249,59.8651]]],[[[9.5033,58.9117],[9.5561,58.9081],[9.4857,58.8911],[9.5033,58.9117]]],[[[23.3987,59.2997],[23.4279,59.2791],[23.3751,59.2897],[23.3987,59.2997]]],[[[19.0297,57.7843],[19.0491,57.7657],[19.0259,57.7407],[19.0297,57.7843]]],[[[20.9469,60.3307],[20.9449,60.3087],[20.9279,60.3115],[20.9469,60.3307]]],[[[18.2299,58.9349],[18.2347,58.9181],[18.2093,58.9087],[18.2299,58.9349]]],[[[22.2567,60.1535],[22.2869,60.1607],[22.2817,60.1387],[22.2567,60.1535]]],[[[21.0877,60.4807],[21.1199,60.4763],[21.1041,60.4515],[21.0877,60.4807]]],[[[11.1483,58.9183],[11.1691,58.9041],[11.1399,58.8989],[11.1483,58.9183]]],[[[13.5479,45.7277],[13.5517,45.7251],[13.5079,45.7109],[13.5479,45.7277]]],[[[9.5773,58.8591],[9.6177,58.8833],[9.6151,58.8705],[9.5773,58.8591]]],[[[11.0629,59.0199],[11.1147,59.0177],[11.0837,58.9993],[11.0629,59.0199]]],[[[22.2115,60.1783],[22.2681,60.1749],[22.2119,60.1625],[22.2115,60.1783]]],[[[21.0937,60.5351],[21.1077,60.5193],[21.0683,60.5203],[21.0937,60.5351]]],[[[22.0841,60.2505],[22.0955,60.2405],[22.0731,60.2283],[22.0841,60.2505]]],[[[21.6271,60.2039],[21.6687,60.1917],[21.6463,60.1869],[21.6271,60.2039]]],[[[18.2317,59.3823],[18.2703,59.3749],[18.2645,59.3665],[18.2317,59.3823]]],[[[23.0389,58.9239],[23.0517,58.9085],[23.0377,58.8999],[23.0389,58.9239]]],[[[20.9561,60.4679],[20.9607,60.4425],[20.9357,60.4437],[20.9561,60.4679]]],[[[18.1783,58.9375],[18.2191,58.9387],[18.1611,58.9093],[18.1783,58.9375]]],[[[11.1781,58.8167],[11.1963,58.8095],[11.1781,58.7913],[11.1781,58.8167]]],[[[21.2745,60.8531],[21.2839,60.8283],[21.2673,60.8223],[21.2745,60.8531]]],[[[18.4227,59.4053],[18.4485,59.3977],[18.3887,59.3979],[18.4227,59.4053]]],[[[21.0001,60.3339],[21.0001,60.2981],[20.9781,60.3053],[21.0001,60.3339]]],[[[18.3861,59.3941],[18.4413,59.3663],[18.4341,59.3641],[18.3861,59.3941]]],[[[14.3855,53.8537],[14.4109,53.8611],[14.4111,53.8425],[14.3855,53.8537]]],[[[17.8215,58.8881],[17.8147,58.8741],[17.7987,58.8735],[17.8215,58.8881]]],[[[23.3659,59.9109],[23.4017,59.8943],[23.3615,59.8921],[23.3659,59.9109]]],[[[18.6517,59.4135],[18.6765,59.4173],[18.7091,59.4001],[18.6517,59.4135]]],[[[18.8937,59.6807],[18.9181,59.6689],[18.8997,59.6625],[18.8937,59.6807]]],[[[18.7705,59.5485],[18.8417,59.5551],[18.8203,59.5431],[18.7705,59.5485]]],[[[22.1219,60.1899],[22.1559,60.1927],[22.1425,60.1747],[22.1219,60.1899]]],[[[21.0689,60.4193],[21.0691,60.4015],[21.0417,60.4055],[21.0689,60.4193]]],[[[22.3545,59.9871],[22.3853,59.9963],[22.3599,59.9643],[22.3545,59.9871]]],[[[21.2187,60.8643],[21.2391,60.8521],[21.2117,60.8415],[21.2187,60.8643]]],[[[21.4357,60.2637],[21.3659,60.2555],[21.3853,60.2657],[21.4357,60.2637]]],[[[13.0513,54.4625],[13.0609,54.4545],[13.0401,54.4415],[13.0513,54.4625]]],[[[24.1427,58.2343],[24.1495,58.2303],[24.1285,58.2073],[24.1427,58.2343]]],[[[17.4989,58.7635],[17.5161,58.7445],[17.4967,58.7397],[17.4989,58.7635]]],[[[18.9655,59.4247],[18.9889,59.4121],[18.9617,59.3985],[18.9655,59.4247]]],[[[26.7637,60.3707],[26.7899,60.3581],[26.7699,60.3493],[26.7637,60.3707]]],[[[19.1933,59.7929],[19.2069,59.7907],[19.1919,59.7685],[19.1933,59.7929]]],[[[21.3563,60.6181],[21.3719,60.5889],[21.3583,60.5879],[21.3563,60.6181]]],[[[15.4591,56.1543],[15.4739,56.1279],[15.4669,56.1267],[15.4591,56.1543]]],[[[21.6475,60.3019],[21.6921,60.2843],[21.6565,60.2835],[21.6475,60.3019]]],[[[27.3907,60.4717],[27.4279,60.4563],[27.4049,60.4501],[27.3907,60.4717]]],[[[22.1415,60.2449],[22.1753,60.2441],[22.1583,60.2299],[22.1415,60.2449]]],[[[24.8975,60.1659],[24.8997,60.1525],[24.8793,60.1453],[24.8975,60.1659]]],[[[22.1877,60.2363],[22.2113,60.2371],[22.2027,60.2177],[22.1877,60.2363]]],[[[24.7601,59.5917],[24.7917,59.5895],[24.7693,59.5747],[24.7601,59.5917]]],[[[25.0607,60.1561],[25.0877,60.1501],[25.0687,60.1393],[25.0607,60.1561]]],[[[22.5059,59.9507],[22.5229,59.9395],[22.5079,59.9209],[22.5059,59.9507]]],[[[16.5773,57.0569],[16.5865,57.0533],[16.5727,57.0393],[16.5773,57.0569]]],[[[21.1567,60.8079],[21.1865,60.7845],[21.1549,60.7875],[21.1567,60.8079]]],[[[19.0625,59.5845],[19.0879,59.5789],[19.0673,59.5703],[19.0625,59.5845]]],[[[15.7875,56.0935],[15.7931,56.0859],[15.7757,56.0711],[15.7875,56.0935]]],[[[21.3537,60.7671],[21.3725,60.7477],[21.3589,60.7447],[21.3537,60.7671]]],[[[25.9253,60.2335],[25.9555,60.2289],[25.9371,60.2177],[25.9253,60.2335]]],[[[12.6985,54.4307],[12.7345,54.4199],[12.6849,54.4175],[12.6985,54.4307]]],[[[21.6841,60.3415],[21.7255,60.3277],[21.6775,60.3275],[21.6841,60.3415]]],[[[18.5245,59.0573],[18.5415,59.0597],[18.5465,59.0401],[18.5245,59.0573]]],[[[20.9291,59.9351],[20.9725,59.9291],[20.9367,59.9173],[20.9291,59.9351]]],[[[10.7685,59.2225],[10.7929,59.1991],[10.7841,59.1901],[10.7685,59.2225]]],[[[21.0859,60.3649],[21.1027,60.3427],[21.0871,60.3385],[21.0859,60.3649]]],[[[21.3695,60.8611],[21.3705,60.8207],[21.3633,60.8419],[21.3695,60.8611]]],[[[19.1213,59.7655],[19.1625,59.7551],[19.1289,59.7457],[19.1213,59.7655]]],[[[21.7607,60.3745],[21.7961,60.3827],[21.7611,60.3681],[21.7607,60.3745]]],[[[21.6031,59.8365],[21.6561,59.8399],[21.5919,59.8229],[21.6031,59.8365]]],[[[21.3733,60.7177],[21.3741,60.6831],[21.3523,60.6803],[21.3733,60.7177]]],[[[29.0995,40.8907],[29.1093,40.8897],[29.1093,40.8769],[29.0995,40.8907]]],[[[21.4953,60.1193],[21.5163,60.1115],[21.5041,60.1053],[21.4953,60.1193]]],[[[29.5559,44.8051],[29.5947,44.8139],[29.5775,44.8021],[29.5559,44.8051]]],[[[10.7073,59.2491],[10.7117,59.2137],[10.6943,59.2159],[10.7073,59.2491]]],[[[21.4269,61.2105],[21.4645,61.1973],[21.4319,61.1949],[21.4269,61.2105]]],[[[21.7527,60.2599],[21.7917,60.2569],[21.7679,60.2463],[21.7527,60.2599]]],[[[23.7621,59.9441],[23.8157,59.9509],[23.7607,59.9271],[23.7621,59.9441]]],[[[21.7143,60.4433],[21.7257,60.4259],[21.7023,60.4129],[21.7143,60.4433]]],[[[17.4811,58.7275],[17.4993,58.7181],[17.4927,58.7073],[17.4811,58.7275]]],[[[22.4515,59.9849],[22.4733,59.9681],[22.4497,59.9609],[22.4515,59.9849]]],[[[18.6757,60.2753],[18.6791,60.2557],[18.6693,60.2493],[18.6757,60.2753]]],[[[21.5627,60.3057],[21.5837,60.2945],[21.5567,60.2881],[21.5627,60.3057]]],[[[22.3237,59.8269],[22.3417,59.8089],[22.3379,59.8041],[22.3237,59.8269]]],[[[20.7413,60.2511],[20.7563,60.2267],[20.7383,60.2189],[20.7413,60.2511]]],[[[27.8395,60.5241],[27.8465,60.5185],[27.8323,60.5039],[27.8395,60.5241]]],[[[21.6841,60.1075],[21.6867,60.0979],[21.6359,60.0981],[21.6841,60.1075]]],[[[25.6713,60.2325],[25.6919,60.2157],[25.6837,60.2095],[25.6713,60.2325]]],[[[23.3791,58.5283],[23.3967,58.5135],[23.3745,58.5095],[23.3791,58.5283]]],[[[21.4717,60.3881],[21.4983,60.3885],[21.4989,60.3741],[21.4717,60.3881]]],[[[17.9853,57.2903],[17.9997,57.2811],[17.9725,57.2739],[17.9853,57.2903]]],[[[21.3805,60.4429],[21.3893,60.4403],[21.3885,60.4213],[21.3805,60.4429]]],[[[23.0305,58.6495],[23.0467,58.6289],[23.0337,58.6289],[23.0305,58.6495]]],[[[22.4041,59.8629],[22.4093,59.8533],[22.4029,59.8405],[22.4041,59.8629]]],[[[20.7453,60.3023],[20.7707,60.2957],[20.7677,60.2901],[20.7453,60.3023]]],[[[23.3755,59.9323],[23.3963,59.9189],[23.3683,59.9143],[23.3755,59.9323]]],[[[21.5517,60.5521],[21.5567,60.5319],[21.5449,60.5333],[21.5517,60.5521]]],[[[22.1151,60.1543],[22.1335,60.1553],[22.1275,60.1373],[22.1151,60.1543]]],[[[26.7419,60.4381],[26.7597,60.4285],[26.7369,60.4089],[26.7419,60.4381]]],[[[21.9181,60.1687],[21.9499,60.1787],[21.9319,60.1555],[21.9181,60.1687]]],[[[25.5265,60.2521],[25.5405,60.2611],[25.5415,60.2359],[25.5265,60.2521]]],[[[21.7603,59.9677],[21.7817,59.9691],[21.7845,59.9555],[21.7603,59.9677]]],[[[18.6055,60.2537],[18.6173,60.2365],[18.5465,60.2643],[18.6055,60.2537]]],[[[19.0441,57.8061],[19.0747,57.7951],[19.0583,57.7877],[19.0441,57.8061]]],[[[22.0157,60.1437],[22.0305,60.1399],[22.0209,60.1315],[22.0157,60.1437]]],[[[26.2685,60.3605],[26.3089,60.3385],[26.3051,60.3353],[26.2685,60.3605]]],[[[21.6507,60.4811],[21.6783,60.4699],[21.6607,60.4615],[21.6507,60.4811]]],[[[21.6665,60.3821],[21.7015,60.3655],[21.6891,60.3661],[21.6665,60.3821]]],[[[25.8947,60.2189],[25.9163,60.2085],[25.8775,60.2071],[25.8947,60.2189]]],[[[16.4803,56.9809],[16.4939,56.9675],[16.4809,56.9595],[16.4803,56.9809]]],[[[22.0437,60.4139],[22.0693,60.4079],[22.0483,60.3977],[22.0437,60.4139]]],[[[21.4305,60.4333],[21.4417,60.4207],[21.4283,60.4093],[21.4305,60.4333]]],[[[18.8907,59.3549],[18.9317,59.3525],[18.8895,59.3437],[18.8907,59.3549]]],[[[21.7637,59.9251],[21.7817,59.9157],[21.7565,59.9089],[21.7637,59.9251]]],[[[25.5521,60.2089],[25.5475,60.1911],[25.5299,60.1937],[25.5521,60.2089]]],[[[11.1275,58.7761],[11.1609,58.7685],[11.1575,58.7623],[11.1275,58.7761]]],[[[21.5815,60.5405],[21.5993,60.5277],[21.5731,60.5271],[21.5815,60.5405]]],[[[21.3781,60.5195],[21.3841,60.5037],[21.3683,60.4993],[21.3781,60.5195]]],[[[26.1255,60.3897],[26.1275,60.3733],[26.1177,60.3711],[26.1255,60.3897]]],[[[21.9961,60.2977],[22.0129,60.2963],[21.9973,60.2839],[21.9961,60.2977]]],[[[22.4825,59.9359],[22.4823,59.9161],[22.4643,59.9241],[22.4825,59.9359]]],[[[21.5355,60.2335],[21.5007,60.2367],[21.5111,60.2543],[21.5355,60.2335]]],[[[20.8859,60.3653],[20.8863,60.3417],[20.8829,60.3423],[20.8859,60.3653]]],[[[21.8417,60.2947],[21.8593,60.2947],[21.8451,60.2837],[21.8417,60.2947]]],[[[21.4645,60.1451],[21.4855,60.1421],[21.4755,60.1315],[21.4645,60.1451]]],[[[23.3047,59.8941],[23.3387,59.8881],[23.3169,59.8849],[23.3047,59.8941]]],[[[21.2391,60.2023],[21.2639,60.1967],[21.2497,60.1925],[21.2391,60.2023]]],[[[18.8617,59.4087],[18.8811,59.4083],[18.8789,59.3933],[18.8617,59.4087]]],[[[11.2157,58.8283],[11.2213,58.8127],[11.2121,58.8107],[11.2157,58.8283]]],[[[18.6233,60.2809],[18.6397,60.2673],[18.6221,60.2655],[18.6233,60.2809]]],[[[21.2719,60.8175],[21.2861,60.8163],[21.2843,60.8061],[21.2719,60.8175]]],[[[22.3647,59.9369],[22.3843,59.9371],[22.3677,59.9195],[22.3647,59.9369]]],[[[20.8671,60.2607],[20.8723,60.2327],[20.8657,60.2341],[20.8671,60.2607]]],[[[21.0421,60.5601],[21.0773,60.5571],[21.0497,60.5489],[21.0421,60.5601]]],[[[18.8983,59.3427],[18.9133,59.3395],[18.8851,59.3245],[18.8983,59.3427]]],[[[16.5125,57.0401],[16.5199,57.0351],[16.4953,57.0251],[16.5125,57.0401]]],[[[11.1377,58.7971],[11.1583,58.7913],[11.1455,58.7781],[11.1377,58.7971]]],[[[18.9931,57.4463],[19.0017,57.4353],[18.9941,57.4301],[18.9931,57.4463]]],[[[16.5351,57.0333],[16.5525,57.0229],[16.5389,57.0141],[16.5351,57.0333]]],[[[20.9833,60.4233],[21.0001,60.4323],[21.0001,60.4061],[20.9833,60.4233]]],[[[23.1197,58.8405],[23.1495,58.8317],[23.1273,58.8259],[23.1197,58.8405]]],[[[19.1063,59.7925],[19.1093,59.7897],[19.1037,59.7775],[19.1063,59.7925]]],[[[21.0595,60.3111],[21.0753,60.2981],[21.0617,60.2919],[21.0537,60.2933],[21.0595,60.3111]]],[[[15.6523,56.1715],[15.6635,56.1625],[15.6425,56.1543],[15.6523,56.1715]]],[[[22.3797,59.9237],[22.3885,59.9217],[22.3701,59.9053],[22.3797,59.9237]]],[[[24.6019,60.0603],[24.6243,60.0541],[24.5981,60.0475],[24.6019,60.0603]]],[[[21.0329,60.4411],[21.0679,60.4387],[21.0429,60.4295],[21.0329,60.4411]]],[[[18.5751,59.4221],[18.5969,59.4087],[18.5691,59.4089],[18.5751,59.4221]]],[[[22.4247,59.9969],[22.4331,59.9969],[22.4369,59.9883],[22.4247,59.9969]]],[[[22.3115,60.1427],[22.3403,60.1425],[22.3231,60.1281],[22.3115,60.1427]]],[[[12.0949,54.9583],[12.1063,54.9583],[12.1019,54.9471],[12.0949,54.9583]]],[[[22.3961,59.8237],[22.4163,59.8185],[22.4039,59.8059],[22.3961,59.8237]]],[[[21.0841,60.4987],[21.1079,60.4905],[21.0919,60.4869],[21.0841,60.4987]]],[[[17.7207,58.8607],[17.7329,58.8409],[17.7201,58.8395],[17.7207,58.8607]]],[[[21.9623,60.2481],[21.9849,60.2339],[21.9585,60.2325],[21.9623,60.2481]]],[[[18.9325,59.2907],[18.9441,59.2801],[18.9333,59.2781],[18.9325,59.2907]]],[[[21.9023,60.3375],[21.9135,60.3329],[21.8933,60.3327],[21.9023,60.3375]]],[[[21.0353,60.7347],[21.0411,60.7333],[21.0261,60.7169],[21.0353,60.7347]]],[[[18.7923,59.6579],[18.8047,59.6527],[18.7813,59.6399],[18.7923,59.6579]]],[[[21.0357,60.8477],[21.0509,60.8367],[21.0447,60.8351],[21.0357,60.8477]]],[[[21.5375,60.3021],[21.5487,60.2895],[21.5301,60.2841],[21.5375,60.3021]]],[[[25.2347,59.5785],[25.2441,59.5647],[25.2181,59.5707],[25.2347,59.5785]]],[[[23.6669,59.9333],[23.6871,59.9257],[23.6737,59.9213],[23.6669,59.9333]]],[[[22.9985,58.8189],[23.0183,58.7977],[23.0149,58.7943],[22.9985,58.8189]]],[[[20.7891,60.4015],[20.7973,60.3843],[20.7753,60.3915],[20.7891,60.4015]]],[[[21.1707,60.5817],[21.1851,60.5725],[21.1671,60.5627],[21.1707,60.5817]]],[[[18.8373,59.3101],[18.8697,59.3009],[18.8565,59.2961],[18.8373,59.3101]]],[[[23.4337,58.6443],[23.4471,58.6365],[23.4423,58.6273],[23.4337,58.6443]]],[[[11.1169,58.8807],[11.1407,58.8683],[11.1235,58.8643],[11.1169,58.8807]]],[[[21.9467,60.2129],[21.9543,60.2049],[21.9399,60.2003],[21.9467,60.2129]]],[[[22.3755,59.9019],[22.4045,59.8993],[22.3813,59.8911],[22.3755,59.9019]]],[[[18.7263,59.4405],[18.7395,59.4351],[18.7123,59.4299],[18.7263,59.4405]]],[[[21.3115,60.7195],[21.3309,60.7143],[21.3069,60.7091],[21.3115,60.7195]]],[[[19.1275,59.8135],[19.1555,59.8165],[19.1329,59.8025],[19.1275,59.8135]]],[[[25.3471,60.2419],[25.3711,60.2343],[25.3565,60.2283],[25.3471,60.2419]]],[[[25.1237,60.1629],[25.1459,60.1587],[25.1231,60.1541],[25.1237,60.1629]]],[[[9.8289,59.0251],[9.8307,59.0121],[9.8255,59.0085],[9.8289,59.0251]]],[[[21.3213,60.5699],[21.3265,60.5615],[21.3213,60.5565],[21.3213,60.5699]]],[[[25.2375,60.2339],[25.2571,60.2313],[25.2461,60.2237],[25.2375,60.2339]]],[[[17.6551,58.9435],[17.6689,58.9203],[17.6655,58.9197],[17.6551,58.9435]]],[[[21.6127,60.1021],[21.6235,60.0879],[21.5927,60.0895],[21.6127,60.1021]]],[[[21.7459,60.1205],[21.7545,60.1123],[21.7193,60.1077],[21.7459,60.1205]]],[[[23.9797,60.0195],[24.0095,60.0163],[24.0003,60.0101],[23.9797,60.0195]]],[[[22.0837,60.1811],[22.1117,60.1831],[22.0819,60.1723],[22.0837,60.1811]]],[[[21.2965,60.7765],[21.3069,60.7727],[21.2945,60.7615],[21.2965,60.7765]]],[[[13.5261,45.7485],[13.5517,45.7303],[13.5207,45.7377],[13.5261,45.7485]]],[[[26.4355,60.3615],[26.4435,60.3507],[26.4295,60.3445],[26.4355,60.3615]]],[[[21.4969,60.1391],[21.5085,60.1379],[21.4885,60.1227],[21.4969,60.1391]]],[[[17.8769,58.7697],[17.8813,58.7403],[17.8767,58.7401],[17.8769,58.7697]]],[[[18.8371,59.6609],[18.8609,59.6553],[18.8437,59.6501],[18.8371,59.6609]]],[[[17.5847,58.8907],[17.5951,58.8821],[17.5783,58.8755],[17.5847,58.8907]]],[[[18.8915,59.3173],[18.9119,59.3143],[18.8893,59.3075],[18.8915,59.3173]]],[[[21.2315,60.6295],[21.2439,60.6219],[21.2325,60.6097],[21.2315,60.6295]]],[[[22.7281,60.0103],[22.7483,60.0065],[22.7435,59.9971],[22.7281,60.0103]]],[[[36.5593,45.2613],[36.5831,45.2431],[36.5729,45.2437],[36.5593,45.2613]]],[[[22.8233,60.0459],[22.8225,60.0327],[22.8097,60.0381],[22.8233,60.0459]]],[[[21.3093,60.8389],[21.3193,60.8337],[21.3071,60.8213],[21.3093,60.8389]]],[[[18.6579,59.1903],[18.6733,59.1887],[18.6461,59.1733],[18.6579,59.1903]]],[[[18.7325,59.6171],[18.7373,59.6077],[18.7185,59.6011],[18.7325,59.6171]]],[[[21.4833,60.2991],[21.5027,60.2965],[21.4899,60.2915],[21.4833,60.2991]]],[[[21.3091,60.1683],[21.3277,60.1661],[21.3079,60.1503],[21.3091,60.1683]]],[[[27.4249,60.4173],[27.4351,60.4121],[27.4325,60.3983],[27.4249,60.4173]]],[[[27.3763,60.4967],[27.3877,60.4901],[27.3571,60.4855],[27.3763,60.4967]]],[[[21.2567,60.8235],[21.2525,60.8157],[21.2403,60.8167],[21.2567,60.8235]]],[[[17.9713,58.8941],[17.9923,58.9067],[17.9757,58.8839],[17.9713,58.8941]]],[[[21.2417,60.2513],[21.2457,60.2491],[21.2269,60.2349],[21.2417,60.2513]]],[[[18.8107,59.4577],[18.8165,59.4533],[18.8025,59.4435],[18.8107,59.4577]]],[[[18.0681,57.3167],[18.0817,57.3079],[18.0707,57.2995],[18.0681,57.3167]]],[[[18.5171,59.1219],[18.5287,59.1217],[18.5089,59.1047],[18.5171,59.1219]]],[[[13.5427,54.3333],[13.5467,54.3333],[13.5271,54.3105],[13.5427,54.3333]]],[[[21.4905,60.1753],[21.5089,60.1697],[21.5045,60.1641],[21.4905,60.1753]]],[[[24.6505,60.1029],[24.6539,60.1001],[24.6403,60.0893],[24.6505,60.1029]]],[[[24.3567,59.9993],[24.3883,59.9955],[24.3465,59.9909],[24.3567,59.9993]]],[[[13.4153,54.1757],[13.4251,54.1671],[13.4175,54.1597],[13.4153,54.1757]]],[[[26.5343,60.3727],[26.5389,60.3665],[26.5227,60.3613],[26.5343,60.3727]]],[[[19.0505,59.6581],[19.0615,59.6451],[19.0337,59.6465],[19.0505,59.6581]]],[[[22.1845,59.8749],[22.2131,59.8723],[22.1869,59.8665],[22.1845,59.8749]]],[[[21.5471,60.2565],[21.5527,60.2529],[21.5455,60.2447],[21.5471,60.2565]]],[[[26.1133,60.3581],[26.1329,60.3593],[26.1211,60.3395],[26.1133,60.3581]]],[[[22.3575,60.0291],[22.3707,60.0229],[22.3611,60.0113],[22.3575,60.0291]]],[[[25.4579,60.1855],[25.4761,60.1837],[25.4591,60.1753],[25.4579,60.1855]]],[[[18.8609,59.5143],[18.8765,59.5119],[18.8633,59.5055],[18.8609,59.5143]]],[[[21.2079,60.5187],[21.2357,60.5103],[21.2151,60.5071],[21.2079,60.5187]]],[[[20.7431,60.1773],[20.7493,60.1667],[20.7341,60.1607],[20.7431,60.1773]]],[[[20.8209,60.0753],[20.8269,60.0721],[20.8167,60.0613],[20.8209,60.0753]]],[[[15.8015,56.0273],[15.8101,56.0299],[15.8089,56.0207],[15.8015,56.0273]]],[[[21.1669,60.8221],[21.1797,60.8111],[21.1783,60.8073],[21.1669,60.8221]]],[[[21.7177,60.3043],[21.7383,60.2951],[21.7261,60.2923],[21.7177,60.3043]]],[[[10.7489,59.3175],[10.7525,59.3107],[10.7409,59.3011],[10.7489,59.3175]]],[[[22.8231,60.0727],[22.8271,60.0703],[22.8155,60.0605],[22.8231,60.0727]]],[[[22.2245,60.3863],[22.1703,60.3865],[22.1609,60.3959],[22.2245,60.3863]]],[[[18.3511,59.4101],[18.3659,59.4071],[18.3355,59.4045],[18.3511,59.4101]]],[[[21.4911,60.5295],[21.5121,60.5241],[21.5049,60.5171],[21.4911,60.5295]]],[[[23.7163,59.9367],[23.7243,59.9253],[23.6979,59.9271],[23.7163,59.9367]]],[[[18.8601,57.7157],[18.8703,57.7053],[18.8573,57.7013],[18.8601,57.7157]]],[[[23.0693,58.8287],[23.0789,58.8285],[23.0781,58.8133],[23.0693,58.8287]]],[[[21.3171,60.1959],[21.2647,60.2025],[21.2701,60.2039],[21.3171,60.1959]]],[[[21.2693,60.7657],[21.2851,60.7599],[21.2583,60.7571],[21.2693,60.7657]]],[[[11.0475,59.0061],[11.0569,58.9939],[11.0515,58.9883],[11.0475,59.0061]]],[[[12.1215,54.9861],[12.1327,54.9837],[12.1205,54.9695],[12.1215,54.9861]]],[[[19.0393,59.6431],[19.0449,59.6365],[19.0273,59.6269],[19.0393,59.6431]]],[[[22.6021,59.9091],[22.6227,59.9037],[22.5947,59.9019],[22.6021,59.9091]]],[[[23.4385,58.5537],[23.4565,58.5477],[23.4327,58.5419],[23.4385,58.5537]]],[[[22.9529,59.7797],[22.9635,59.7707],[22.9517,59.7677],[22.9529,59.7797]]],[[[18.6567,59.1721],[18.6609,59.1719],[18.6571,59.1627],[18.6567,59.1721]]],[[[27.7897,60.4575],[27.8075,60.4487],[27.7945,60.4427],[27.7897,60.4575]]],[[[19.1429,59.7863],[19.1561,59.7775],[19.1469,59.7751],[19.1429,59.7863]]],[[[21.2957,60.3321],[21.3131,60.3243],[21.3045,60.3197],[21.2957,60.3321]]],[[[21.3399,60.0803],[21.3459,60.0767],[21.3401,60.0711],[21.3399,60.0803]]],[[[22.5791,59.9553],[22.5843,59.9537],[22.5843,59.9477],[22.5791,59.9553]]],[[[25.9977,60.2805],[26.0053,60.2675],[25.9919,60.2651],[25.9977,60.2805]]],[[[18.6921,60.2627],[18.7027,60.2519],[18.6875,60.2447],[18.6921,60.2627]]],[[[18.8113,59.5727],[18.8201,59.5693],[18.8095,59.5629],[18.7903,59.5657],[18.8113,59.5727]]],[[[26.9859,60.4277],[26.9957,60.4155],[26.9869,60.4085],[26.9859,60.4277]]],[[[23.5793,59.8335],[23.5857,59.8307],[23.5705,59.8231],[23.5793,59.8335]]],[[[21.7153,60.4169],[21.7285,60.4155],[21.7281,60.4089],[21.7153,60.4169]]],[[[21.0569,60.5069],[21.0705,60.5021],[21.0573,60.4949],[21.0569,60.5069]]],[[[20.9471,60.4889],[20.9673,60.4813],[20.9589,60.4739],[20.9471,60.4889]]],[[[14.0743,44.9735],[14.0855,44.9719],[14.0707,44.9579],[14.0743,44.9735]]],[[[25.0089,60.1911],[25.0209,60.1851],[25.0167,60.1819],[25.0089,60.1911]]],[[[18.8321,59.4033],[18.8409,59.3933],[18.8239,59.3917],[18.8321,59.4033]]],[[[25.7981,59.6873],[25.8235,59.6773],[25.8011,59.6773],[25.7981,59.6873]]],[[[23.8351,59.9461],[23.8383,59.9417],[23.8313,59.9355],[23.8351,59.9461]]],[[[21.3461,60.7341],[21.3507,60.7285],[21.3417,60.7219],[21.3461,60.7341]]],[[[20.9719,60.4355],[20.9739,60.4251],[20.9633,60.4225],[20.9719,60.4355]]],[[[32.2995,46.5151],[32.3251,46.5129],[32.2991,46.5085],[32.2995,46.5151]]],[[[12.9473,54.4443],[12.9637,54.4399],[12.9303,54.4347],[12.9473,54.4443]]],[[[21.7949,59.9361],[21.7997,59.9357],[21.7945,59.9195],[21.7949,59.9361]]],[[[21.1661,60.8739],[21.1763,60.8655],[21.1675,60.8591],[21.1661,60.8739]]],[[[18.3441,59.0543],[18.3555,59.0453],[18.3381,59.0391],[18.3441,59.0543]]],[[[21.9813,60.2283],[21.9951,60.2223],[21.9763,60.2187],[21.9813,60.2283]]],[[[21.4057,60.4457],[21.4145,60.4333],[21.3997,60.4341],[21.4057,60.4457]]],[[[18.6775,59.5683],[18.6899,59.5665],[18.6709,59.5591],[18.6775,59.5683]]],[[[24.2267,60.0175],[24.2367,60.0181],[24.2083,60.0057],[24.2267,60.0175]]],[[[22.3917,60.1253],[22.3995,60.1129],[22.3889,60.1131],[22.3917,60.1253]]],[[[20.8595,60.4141],[20.8679,60.4015],[20.8551,60.3995],[20.8595,60.4141]]],[[[10.1055,59.0175],[10.1145,59.0137],[10.1071,59.0059],[10.1055,59.0175]]],[[[11.0193,54.8515],[11.0229,54.8517],[11.0243,54.8309],[11.0193,54.8515]]],[[[21.1629,60.3339],[21.1731,60.3181],[21.1691,60.3159],[21.1629,60.3339]]],[[[22.5883,58.2069],[22.6003,58.2007],[22.5863,58.1923],[22.5883,58.2069]]],[[[20.8283,60.2375],[20.8453,60.2293],[20.8309,60.2219],[20.8283,60.2375]]],[[[18.7341,59.2737],[18.7433,59.2711],[18.7445,59.2621],[18.7341,59.2737]]],[[[21.7039,60.1273],[21.7307,60.1241],[21.7253,60.1211],[21.7039,60.1273]]],[[[22.5631,59.9087],[22.5663,59.9071],[22.5519,59.8967],[22.5631,59.9087]]],[[[21.0899,60.1501],[21.0975,60.1401],[21.0851,60.1347],[21.0899,60.1501]]],[[[17.3221,58.7431],[17.3301,58.7335],[17.3211,58.7323],[17.3221,58.7431]]],[[[21.2103,60.4129],[21.2195,60.4087],[21.2159,60.3969],[21.2103,60.4129]]],[[[21.8653,60.1299],[21.8711,60.1291],[21.8559,60.1171],[21.8653,60.1299]]],[[[22.9709,59.8977],[22.9891,59.8883],[22.9807,59.8871],[22.9709,59.8977]]],[[[18.6939,59.2765],[18.7101,59.2811],[18.7021,59.2715],[18.6939,59.2765]]],[[[21.7803,60.0363],[21.7859,60.0267],[21.7677,60.0273],[21.7803,60.0363]]],[[[21.6965,60.4509],[21.7073,60.4481],[21.6949,60.4407],[21.6965,60.4509]]],[[[21.4933,60.1847],[21.5159,60.1853],[21.5069,60.1777],[21.4933,60.1847]]],[[[21.7807,58.3431],[21.8015,58.3347],[21.7999,58.3311],[21.7807,58.3431]]],[[[21.8261,60.1331],[21.8505,60.1345],[21.8313,60.1237],[21.8261,60.1331]]],[[[22.2145,59.8625],[22.2207,59.8631],[22.2119,59.8527],[22.2145,59.8625]]],[[[21.7817,60.3461],[21.8077,60.3425],[21.8073,60.3399],[21.7817,60.3461]]],[[[22.3285,59.8649],[22.3447,59.8587],[22.3281,59.8561],[22.3285,59.8649]]],[[[25.3821,59.5221],[25.3893,59.5133],[25.3773,59.5085],[25.3821,59.5221]]],[[[21.3043,60.2965],[21.3091,60.2865],[21.3025,60.2863],[21.3043,60.2965]]],[[[25.9659,60.2521],[25.9689,60.2491],[25.9561,60.2439],[25.9659,60.2521]]],[[[19.0291,59.7975],[19.0319,59.7941],[19.0205,59.7865],[19.0291,59.7975]]],[[[23.3945,58.9545],[23.3973,58.9527],[23.3901,58.9329],[23.3945,58.9545]]],[[[18.5593,59.0333],[18.5769,59.0235],[18.5617,59.0237],[18.5593,59.0333]]],[[[18.6695,59.4783],[18.6711,59.4757],[18.6675,59.4731],[18.6695,59.4783]]],[[[26.5997,60.3743],[26.6143,60.3689],[26.6085,60.3637],[26.5997,60.3743]]],[[[22.0793,59.8605],[22.1059,59.8639],[22.0843,59.8539],[22.0793,59.8605]]],[[[23.8311,59.9297],[23.8445,59.9251],[23.8327,59.9227],[23.8311,59.9297]]],[[[18.5475,59.0995],[18.5685,59.1059],[18.5671,59.0971],[18.5475,59.0995]]],[[[18.7291,59.4267],[18.7495,59.4189],[18.7279,59.4175],[18.7291,59.4267]]],[[[17.5097,58.8477],[17.5215,58.8427],[17.5141,58.8353],[17.5097,58.8477]]],[[[22.2917,59.9581],[22.3053,59.9551],[22.2889,59.9493],[22.2917,59.9581]]],[[[22.1575,60.1501],[22.1923,60.1529],[22.1577,60.1429],[22.1575,60.1501]]],[[[9.4683,58.8503],[9.4953,58.8415],[9.4925,58.8391],[9.4683,58.8503]]],[[[18.9895,57.7587],[18.9971,57.7601],[18.9883,57.7437],[18.9895,57.7587]]],[[[22.3939,60.2413],[22.3991,60.2393],[22.3863,60.2317],[22.3939,60.2413]]],[[[11.1051,58.9679],[11.1143,58.9511],[11.1047,58.9549],[11.1051,58.9679]]],[[[14.3887,53.8629],[14.4017,53.8635],[14.3815,53.8539],[14.3887,53.8629]]],[[[21.6849,60.4143],[21.6973,60.4045],[21.6895,60.3995],[21.6849,60.4143]]],[[[18.4219,59.2415],[18.4199,59.2309],[18.4167,59.2403],[18.4219,59.2415]]],[[[20.9247,60.3809],[20.9369,60.3705],[20.9223,60.3681],[20.9247,60.3809]]],[[[18.4135,59.4187],[18.4211,59.4141],[18.4175,59.4129],[18.4135,59.4187]]],[[[21.5467,60.4455],[21.5731,60.4373],[21.5719,60.4331],[21.5467,60.4455]]],[[[26.6551,60.3803],[26.6593,60.3777],[26.6271,60.3697],[26.6551,60.3803]]],[[[21.3355,60.8291],[21.3397,60.8255],[21.3337,60.8137],[21.3355,60.8291]]],[[[25.2347,60.2549],[25.2409,60.2505],[25.2387,60.2463],[25.2347,60.2549]]],[[[9.8043,59.0057],[9.8179,58.9997],[9.8031,58.9941],[9.8043,59.0057]]],[[[22.0047,60.2133],[22.0073,60.2113],[21.9957,60.2059],[22.0047,60.2133]]],[[[26.6909,60.4065],[26.7027,60.3989],[26.6931,60.3919],[26.6909,60.4065]]],[[[22.5075,59.8611],[22.5179,59.8575],[22.4971,59.8521],[22.5075,59.8611]]],[[[12.7267,54.4135],[12.7417,54.4131],[12.7345,54.4067],[12.7267,54.4135]]],[[[21.6721,60.5037],[21.6821,60.4939],[21.6779,60.4903],[21.6721,60.5037]]],[[[29.6091,44.8389],[29.6209,44.8481],[29.6205,44.8395],[29.6091,44.8389]]],[[[21.2173,60.9463],[21.2289,60.9421],[21.2203,60.9363],[21.2173,60.9463]]],[[[20.8985,60.5341],[20.9019,60.5317],[20.8901,60.5249],[20.8985,60.5341]]],[[[21.8861,60.3289],[21.9103,60.3231],[21.8803,60.3225],[21.8861,60.3289]]],[[[18.8523,42.2675],[18.8587,42.2589],[18.8511,42.2579],[18.8523,42.2675]]],[[[21.8903,60.2867],[21.9129,60.2759],[21.8905,60.2771],[21.8903,60.2867]]],[[[11.1615,58.9219],[11.1805,58.9135],[11.1593,58.9119],[11.1615,58.9219]]],[[[21.5457,60.1035],[21.5547,60.1007],[21.5395,60.0937],[21.5457,60.1035]]],[[[23.0489,58.7831],[23.0615,58.7815],[23.0571,58.7739],[23.0489,58.7831]]],[[[11.9999,54.9539],[11.9999,54.9413],[11.9855,54.9497],[11.9999,54.9539]]],[[[25.3075,60.2485],[25.3317,60.2463],[25.3179,60.2401],[25.3075,60.2485]]],[[[22.3309,59.8533],[22.3465,59.8485],[22.3353,59.8443],[22.3309,59.8533]]],[[[26.6435,60.3065],[26.6525,60.3009],[26.6367,60.2903],[26.6435,60.3065]]],[[[27.5641,60.4401],[27.5681,60.4305],[27.5531,60.4289],[27.5641,60.4401]]],[[[25.4467,60.1709],[25.4575,60.1627],[25.4391,60.1647],[25.4467,60.1709]]],[[[21.0745,60.2803],[21.0817,60.2701],[21.0759,60.2671],[21.0745,60.2803]]],[[[21.8173,60.3277],[21.8415,60.3213],[21.8297,60.3203],[21.8173,60.3277]]],[[[25.9147,60.2469],[25.9271,60.2433],[25.9129,60.2393],[25.9147,60.2469]]],[[[18.3637,59.4335],[18.3647,59.4325],[18.3275,59.4149],[18.3637,59.4335]]],[[[22.9743,59.9135],[22.9831,59.9119],[22.9739,59.9043],[22.9743,59.9135]]],[[[25.8511,60.2627],[25.8619,60.2493],[25.8491,60.2491],[25.8511,60.2627]]],[[[25.2245,60.2201],[25.2535,60.2183],[25.2315,60.2117],[25.2245,60.2201]]],[[[21.0793,60.3947],[21.0863,60.3957],[21.0829,60.3839],[21.0793,60.3947]]],[[[24.6239,60.0713],[24.6321,60.0685],[24.6105,60.0613],[24.6239,60.0713]]],[[[13.1223,54.3145],[13.1297,54.3091],[13.1189,54.3043],[13.1223,54.3145]]],[[[21.5805,60.1009],[21.5855,60.0989],[21.5735,60.0919],[21.5805,60.1009]]],[[[22.2313,60.1425],[22.2427,60.1415],[22.2285,60.1355],[22.2313,60.1425]]],[[[25.3481,60.1761],[25.3595,60.1709],[25.3399,60.1701],[25.3481,60.1761]]],[[[27.0959,60.5085],[27.1061,60.5061],[27.1011,60.5013],[27.0959,60.5085]]],[[[21.2413,60.3097],[21.2405,60.3045],[21.2291,60.3037],[21.2413,60.3097]]],[[[18.9131,59.6923],[18.9261,59.6859],[18.8949,59.6881],[18.9131,59.6923]]],[[[20.7167,60.2527],[20.7273,60.2429],[20.7141,60.2379],[20.7167,60.2527]]],[[[23.1799,58.7593],[23.1915,58.7549],[23.1909,58.7525],[23.1799,58.7593]]],[[[21.1729,60.9563],[21.1857,60.9491],[21.1761,60.9453],[21.1729,60.9563]]],[[[21.2797,60.2285],[21.3029,60.2275],[21.2907,60.2191],[21.2797,60.2285]]],[[[15.7803,56.0589],[15.7835,56.0589],[15.7829,56.0469],[15.7803,56.0589]]],[[[24.6733,60.1077],[24.6841,60.1065],[24.6773,60.1009],[24.6733,60.1077]]],[[[27.7417,60.4689],[27.7445,60.4669],[27.7377,60.4547],[27.7417,60.4689]]],[[[25.1371,41.0081],[25.1515,41.0031],[25.1495,40.9999],[25.1371,41.0081]]],[[[9.5769,58.8969],[9.5991,58.9031],[9.5873,58.8911],[9.5769,58.8969]]],[[[18.7007,59.1493],[18.7137,59.1455],[18.6933,59.1361],[18.7007,59.1493]]],[[[16.6373,57.1007],[16.6513,57.0945],[16.6489,57.0927],[16.6373,57.1007]]],[[[25.0879,59.6089],[25.1083,59.5967],[25.1039,59.5941],[25.0879,59.6089]]],[[[9.7503,59.0417],[9.7605,59.0321],[9.7543,59.0275],[9.7503,59.0417]]],[[[21.3521,60.1819],[21.3631,60.1787],[21.3583,60.1729],[21.3521,60.1819]]],[[[27.5395,60.4553],[27.5553,60.4499],[27.5405,60.4473],[27.5395,60.4553]]],[[[21.9413,60.1473],[21.9561,60.1467],[21.9503,60.1393],[21.9413,60.1473]]],[[[23.7803,58.3467],[23.7891,58.3311],[23.7831,58.3335],[23.7803,58.3467]]],[[[16.0691,56.2699],[16.0747,56.2595],[16.0719,56.2563],[16.0691,56.2699]]],[[[21.3591,60.7989],[21.3643,60.7893],[21.3583,60.7903],[21.3591,60.7989]]],[[[18.9759,59.2913],[18.9871,59.2877],[18.9591,59.2853],[18.9759,59.2913]]],[[[22.1441,60.3907],[22.1515,60.3869],[22.1255,60.3823],[22.1441,60.3907]]],[[[18.9549,59.3703],[18.9627,59.3755],[18.9675,59.3729],[18.9525,59.3685],[18.9549,59.3703]]],[[[22.9047,59.9033],[22.9151,59.8983],[22.9047,59.8935],[22.9047,59.9033]]],[[[21.7727,60.1197],[21.7893,60.1159],[21.7685,60.1135],[21.7727,60.1197]]],[[[23.4023,58.8417],[23.4163,58.8383],[23.4143,58.8317],[23.4023,58.8417]]],[[[22.3947,59.9805],[22.4037,59.9745],[22.3917,59.9687],[22.3947,59.9805]]],[[[22.5153,60.2459],[22.5209,60.2427],[22.5055,60.2387],[22.5153,60.2459]]],[[[21.8319,60.3759],[21.8569,60.3713],[21.8401,60.3697],[21.8319,60.3759]]],[[[11.0115,59.0205],[11.0555,59.0293],[11.0235,59.0175],[11.0115,59.0205]]],[[[21.7853,60.1039],[21.8105,60.0997],[21.7915,60.0971],[21.7853,60.1039]]],[[[18.4897,59.0635],[18.4965,59.0745],[18.5013,59.0675],[18.4897,59.0635]]],[[[21.3665,60.0825],[21.3807,60.0759],[21.3745,60.0709],[21.3665,60.0825]]],[[[27.0743,60.4243],[27.0893,60.4165],[27.0815,60.4133],[27.0743,60.4243]]],[[[20.8315,60.0429],[20.8417,60.0351],[20.8343,60.0317],[20.8315,60.0429]]],[[[22.9115,60.0727],[22.9355,60.0685],[22.9257,60.0643],[22.9115,60.0727]]],[[[15.4293,56.1305],[15.4355,56.1255],[15.4207,56.1235],[15.4293,56.1305]]],[[[21.6969,60.2789],[21.7123,60.2761],[21.6941,60.2713],[21.6969,60.2789]]],[[[21.4837,60.3121],[21.4883,60.3097],[21.4807,60.3027],[21.4837,60.3121]]],[[[21.4301,60.3193],[21.4391,60.3163],[21.4355,60.3045],[21.4301,60.3193]]],[[[21.8871,60.1431],[21.9033,60.1435],[21.8791,60.1341],[21.8871,60.1431]]],[[[9.4355,58.8085],[9.4393,58.8031],[9.4245,58.7995],[9.4355,58.8085]]],[[[25.2855,60.2383],[25.3061,60.2319],[25.2935,60.2263],[25.2855,60.2383]]],[[[21.4845,60.2735],[21.4931,60.2753],[21.4929,60.2643],[21.4845,60.2735]]],[[[21.7333,60.2155],[21.7447,60.2123],[21.7307,60.2069],[21.7333,60.2155]]],[[[14.2609,53.7085],[14.2709,53.7055],[14.2533,53.7001],[14.2609,53.7085]]],[[[18.6965,59.5963],[18.7085,59.6009],[18.7063,59.5913],[18.6965,59.5963]]],[[[21.1597,60.3543],[21.1643,60.3497],[21.1595,60.3437],[21.1597,60.3543]]],[[[23.0023,60.1111],[23.0125,60.1097],[23.0117,60.1067],[23.0023,60.1111]]],[[[19.0445,59.6897],[19.0457,59.6877],[19.0295,59.6801],[19.0445,59.6897]]],[[[20.9495,60.3553],[20.9507,60.3527],[20.9419,60.3471],[20.9495,60.3553]]],[[[23.8639,59.9291],[23.8741,59.9261],[23.8555,59.9203],[23.8639,59.9291]]],[[[21.2517,60.0791],[21.2621,60.0797],[21.2503,60.0689],[21.2517,60.0791]]],[[[21.6275,60.4931],[21.6349,60.4879],[21.6243,60.4809],[21.6275,60.4931]]],[[[27.0739,60.4407],[27.0829,60.4273],[27.0727,60.4279],[27.0739,60.4407]]],[[[21.9245,60.2347],[21.9371,60.2309],[21.9335,60.2279],[21.9245,60.2347]]],[[[21.1283,60.1707],[21.1337,60.1651],[21.1209,60.1655],[21.1283,60.1707]]],[[[17.4825,58.7773],[17.4917,58.7753],[17.4851,58.7655],[17.4825,58.7773]]],[[[22.4189,59.8411],[22.4301,59.8375],[22.4277,59.8325],[22.4189,59.8411]]],[[[18.7799,59.5623],[18.7679,59.5655],[18.7705,59.5685],[18.7799,59.5623]]],[[[21.9167,60.1253],[21.9269,60.1197],[21.9249,60.1163],[21.9167,60.1253]]],[[[23.8841,59.9359],[23.8931,59.9301],[23.8877,59.9247],[23.8841,59.9359]]],[[[26.3515,60.3751],[26.3637,60.3659],[26.3481,60.3653],[26.3515,60.3751]]],[[[29.7765,45.4469],[29.7809,45.4513],[29.7837,45.4453],[29.7765,45.4469]]],[[[18.8651,59.2123],[18.8677,59.2025],[18.8539,59.2067],[18.8651,59.2123]]],[[[29.1571,40.8579],[29.1605,40.8537],[29.1559,40.8505],[29.1571,40.8579]]],[[[21.7389,60.1051],[21.7545,60.1019],[21.7295,60.1003],[21.7389,60.1051]]],[[[22.8413,60.0465],[22.8467,60.0441],[22.8445,60.0347],[22.8413,60.0465]]],[[[10.7403,59.2785],[10.7475,59.2747],[10.7423,59.2665],[10.7403,59.2785]]],[[[27.1555,60.2947],[27.1581,60.2933],[27.1451,60.2831],[27.1555,60.2947]]],[[[22.1805,60.1321],[22.2029,60.1333],[22.1833,60.1255],[22.1805,60.1321]]],[[[21.8869,60.0163],[21.8913,60.0129],[21.8811,60.0065],[21.8869,60.0163]]],[[[18.7113,59.1827],[18.7181,59.1809],[18.7011,59.1727],[18.7113,59.1827]]],[[[21.4957,60.1575],[21.5057,60.1547],[21.5019,60.1497],[21.4957,60.1575]]],[[[20.9871,60.3747],[20.9977,60.3663],[20.9921,60.3619],[20.9871,60.3747]]],[[[21.5881,60.3403],[21.5963,60.3309],[21.5887,60.3309],[21.5881,60.3403]]],[[[22.2833,60.3385],[22.2943,60.3389],[22.2927,60.3275],[22.2833,60.3385]]],[[[18.4279,59.1271],[18.4327,59.1245],[18.4261,59.1147],[18.4279,59.1271]]],[[[20.9919,60.6529],[21.0001,60.6567],[21.0001,60.6475],[20.9919,60.6529]]],[[[18.9849,59.3783],[18.9935,59.3743],[18.9875,59.3681],[18.9849,59.3783]]],[[[21.4471,60.2679],[21.4561,60.2639],[21.4469,60.2575],[21.4471,60.2679]]],[[[16.4975,56.9409],[16.5039,56.9367],[16.4995,56.9299],[16.4975,56.9409]]],[[[21.4105,60.3371],[21.4361,60.3335],[21.4305,60.3299],[21.4105,60.3371]]],[[[21.9615,60.0925],[21.9823,60.0879],[21.9621,60.0873],[21.9615,60.0925]]],[[[9.5429,58.8797],[9.5709,58.8821],[9.5661,58.8785],[9.5429,58.8797]]],[[[17.5955,58.8683],[17.6173,58.8639],[17.6073,58.8609],[17.5955,58.8683]]],[[[21.1635,60.3867],[21.1683,60.3767],[21.1599,60.3765],[21.1635,60.3867]]],[[[21.1823,60.3865],[21.1879,60.3753],[21.1789,60.3757],[21.1823,60.3865]]],[[[20.7427,60.2153],[20.7613,60.2135],[20.7395,60.2089],[20.7427,60.2153]]],[[[18.6899,59.4225],[18.7067,59.4175],[18.6903,59.4145],[18.6899,59.4225]]],[[[27.4595,60.4125],[27.4663,60.4087],[27.4567,60.4007],[27.4595,60.4125]]],[[[22.0987,60.1363],[22.1047,60.1335],[22.0801,60.1337],[22.0987,60.1363]]],[[[21.4087,60.1173],[21.4187,60.1115],[21.4113,60.1059],[21.4087,60.1173]]],[[[22.4683,59.8543],[22.4765,59.8517],[22.4733,59.8445],[22.4683,59.8543]]],[[[21.0931,60.3815],[21.0983,60.3665],[21.0957,60.3651],[21.0931,60.3815]]],[[[21.5185,60.2275],[21.5227,60.2251],[21.5213,60.2173],[21.5185,60.2275]]],[[[21.1915,60.3449],[21.1995,60.3359],[21.1943,60.3321],[21.1915,60.3449]]],[[[21.8213,60.2835],[21.8295,60.2815],[21.8157,60.2745],[21.8213,60.2835]]],[[[27.3433,60.4723],[27.3547,60.4651],[27.3505,60.4609],[27.3433,60.4723]]],[[[21.5721,60.4119],[21.5767,60.4071],[21.5671,60.4039],[21.5721,60.4119]]],[[[21.8973,60.1247],[21.9021,60.1217],[21.8983,60.1179],[21.8973,60.1247]]],[[[26.7759,60.4629],[26.7755,60.4603],[26.7661,60.4581],[26.7759,60.4629]]],[[[18.8281,59.3839],[18.8315,59.3757],[18.8245,59.3743],[18.8281,59.3839]]],[[[21.6683,60.2585],[21.6719,60.2563],[21.6627,60.2521],[21.6683,60.2585]]],[[[26.2051,60.3911],[26.2191,60.3949],[26.2215,60.3887],[26.2051,60.3911]]],[[[21.4079,60.3323],[21.4139,60.3289],[21.3991,60.3269],[21.4079,60.3323]]],[[[19.1927,59.6759],[19.2071,59.6679],[19.1901,59.6653],[19.1927,59.6759]]],[[[18.9261,59.6677],[18.9477,59.6711],[18.9251,59.6619],[18.9261,59.6677]]],[[[20.7433,60.2675],[20.7557,60.2687],[20.7521,60.2597],[20.7433,60.2675]]],[[[30.2359,59.9655],[30.2403,59.9629],[30.2379,59.9595],[30.2359,59.9655]]],[[[21.0313,60.3959],[21.0351,60.3907],[21.0335,60.3867],[21.0313,60.3959]]],[[[21.6907,59.9161],[21.6931,59.9091],[21.6813,59.9069],[21.6907,59.9161]]],[[[22.0945,60.1459],[22.1001,60.1401],[22.0905,60.1381],[22.0945,60.1459]]],[[[21.2443,60.3729],[21.2501,60.3647],[21.2455,60.3619],[21.2443,60.3729]]],[[[21.8671,60.3503],[21.8837,60.3461],[21.8723,60.3439],[21.8671,60.3503]]],[[[19.1753,59.7509],[19.1843,59.7433],[19.1705,59.7425],[19.1753,59.7509]]],[[[21.9705,60.2141],[21.9761,60.2077],[21.9667,60.2037],[21.9705,60.2141]]],[[[21.7969,59.9737],[21.8087,59.9817],[21.8013,59.9675],[21.7969,59.9737]]],[[[21.1871,60.4533],[21.1925,60.4503],[21.1705,60.4471],[21.1871,60.4533]]],[[[18.7669,57.2803],[18.7777,57.2739],[18.7731,57.2717],[18.7669,57.2803]]],[[[18.9009,59.3857],[18.9067,59.3813],[18.8997,59.3763],[18.9009,59.3857]]],[[[25.4803,60.1813],[25.4953,60.1823],[25.4761,60.1735],[25.4803,60.1813]]],[[[27.3177,60.2871],[27.3239,60.2829],[27.3129,60.2781],[27.3177,60.2871]]],[[[21.2581,60.4045],[21.2695,60.4029],[21.2617,60.3961],[21.2581,60.4045]]],[[[29.0671,40.8921],[29.0721,40.8851],[29.0703,40.8817],[29.0671,40.8921]]],[[[9.3747,58.8555],[9.4011,58.8565],[9.3793,58.8515],[9.3747,58.8555]]],[[[21.2455,60.1763],[21.2553,60.1737],[21.2387,60.1711],[21.2455,60.1763]]],[[[20.7665,60.4183],[20.7761,60.4255],[20.7713,60.4109],[20.7665,60.4183]]],[[[18.6159,59.0977],[18.6221,59.0953],[18.6209,59.0875],[18.6159,59.0977]]],[[[25.5005,60.2125],[25.5161,60.2125],[25.5099,60.2075],[25.5005,60.2125]]],[[[9.6555,58.9039],[9.6605,58.9027],[9.6541,58.8957],[9.6555,58.9039]]],[[[27.4637,60.4327],[27.4775,60.4235],[27.4737,60.4215],[27.4637,60.4327]]],[[[20.8785,60.2007],[20.8907,60.1841],[20.8821,60.1883],[20.8785,60.2007]]],[[[18.8517,59.6863],[18.8609,59.6847],[18.8525,59.6801],[18.8517,59.6863]]],[[[21.6927,60.2477],[21.6977,60.2457],[21.6805,60.2427],[21.6927,60.2477]]],[[[21.3119,60.3139],[21.3135,60.3069],[21.3099,60.3041],[21.3119,60.3139]]],[[[25.6819,60.3727],[25.6869,60.3697],[25.6753,60.3635],[25.6819,60.3727]]],[[[21.2841,60.8463],[21.3003,60.8391],[21.2955,60.8353],[21.2841,60.8463]]],[[[27.1201,60.4229],[27.1293,60.4201],[27.1269,60.4145],[27.1201,60.4229]]],[[[21.0711,60.2897],[21.0939,60.2895],[21.0843,60.2855],[21.0711,60.2897]]],[[[25.8785,60.2041],[25.8879,60.2029],[25.8709,60.1967],[25.8785,60.2041]]],[[[13.7787,54.2073],[13.7725,54.1911],[13.7701,54.2073],[13.7787,54.2073]]],[[[24.1087,60.0243],[24.1125,60.0219],[24.1061,60.0159],[24.1087,60.0243]]],[[[11.1733,58.8651],[11.1897,58.8645],[11.1755,58.8577],[11.1733,58.8651]]],[[[11.0887,58.9615],[11.0949,58.9567],[11.0923,58.9515],[11.0887,58.9615]]],[[[21.4313,60.5765],[21.4497,60.5693],[21.4443,60.5649],[21.4313,60.5765]]],[[[21.3375,60.4155],[21.3473,60.4123],[21.3353,60.4079],[21.3375,60.4155]]],[[[21.1061,60.5063],[21.1193,60.5003],[21.1169,60.4979],[21.1061,60.5063]]],[[[21.3371,60.6719],[21.3459,60.6605],[21.3395,60.6605],[21.3371,60.6719]]],[[[11.1543,58.7579],[11.1627,58.7563],[11.1509,58.7475],[11.1543,58.7579]]],[[[25.9697,60.2253],[25.9853,60.2257],[25.9633,60.2185],[25.9697,60.2253]]],[[[9.7799,59.0217],[9.7783,59.0163],[9.7715,59.0199],[9.7799,59.0217]]],[[[18.4807,59.4335],[18.4963,59.4287],[18.4925,59.4271],[18.4807,59.4335]]],[[[18.6531,59.1019],[18.6569,59.0973],[18.6451,59.0907],[18.6531,59.1019]]],[[[15.4037,56.1505],[15.4125,56.1491],[15.4071,56.1401],[15.4037,56.1505]]],[[[23.6071,59.9143],[23.6211,59.9047],[23.6109,59.9049],[23.6071,59.9143]]],[[[19.1753,59.6911],[19.1769,59.6885],[19.1701,59.6861],[19.1753,59.6911]]],[[[18.5875,59.1313],[18.5971,59.1339],[18.5917,59.1253],[18.5875,59.1313]]],[[[18.1851,59.0427],[18.2031,59.0367],[18.1867,59.0351],[18.1851,59.0427]]],[[[18.5735,59.1239],[18.5755,59.1213],[18.5577,59.1107],[18.5735,59.1239]]],[[[13.1645,54.5133],[13.1697,54.5085],[13.1629,54.5035],[13.1645,54.5133]]],[[[27.0301,60.5055],[27.0331,60.4993],[27.0307,60.4931],[27.0301,60.5055]]],[[[18.2813,59.0801],[18.3063,59.0797],[18.3027,59.0779],[18.2813,59.0801]]],[[[18.7973,59.3895],[18.8003,59.3867],[18.7987,59.3835],[18.7973,59.3895]]],[[[29.6291,44.8719],[29.6315,44.8625],[29.6249,44.8589],[29.6291,44.8719]]],[[[13.9229,54.2515],[13.9283,54.2507],[13.9169,54.2413],[13.9229,54.2515]]],[[[18.6893,59.4819],[18.6937,59.4799],[18.6779,59.4701],[18.6893,59.4819]]],[[[21.7021,60.3967],[21.7083,60.3883],[21.6993,60.3885],[21.7021,60.3967]]],[[[29.0517,40.9205],[29.0543,40.9093],[29.0461,40.9185],[29.0517,40.9205]]],[[[27.8409,60.5055],[27.8535,60.5041],[27.8491,60.4963],[27.8409,60.5055]]],[[[21.2539,59.9941],[21.2529,59.9879],[21.2495,59.9875],[21.2539,59.9941]]],[[[24.3669,60.0133],[24.3731,60.0147],[24.3669,60.0017],[24.3669,60.0133]]],[[[22.5123,60.0089],[22.5303,60.0103],[22.5137,60.0033],[22.5123,60.0089]]],[[[26.9617,60.3791],[26.9649,60.3743],[26.9621,60.3699],[26.9617,60.3791]]],[[[21.3235,60.7739],[21.3219,60.7659],[21.3143,60.7683],[21.3235,60.7739]]],[[[22.6049,59.9455],[22.6223,59.9385],[22.6193,59.9369],[22.6049,59.9455]]],[[[22.6483,60.0141],[22.6527,60.0121],[22.6401,60.0085],[22.6483,60.0141]]],[[[24.0269,60.0203],[24.0433,60.0191],[24.0267,60.0145],[24.0269,60.0203]]],[[[22.8633,60.0771],[22.8837,60.0755],[22.8719,60.0715],[22.8633,60.0771]]],[[[21.0245,60.5359],[21.0359,60.5273],[21.0247,60.5257],[21.0245,60.5359]]],[[[20.7235,60.2001],[20.7143,60.1909],[20.7133,60.2067],[20.7235,60.2001]]],[[[10.9533,58.9883],[10.9653,58.9817],[10.9617,58.9763],[10.9533,58.9883]]],[[[17.5209,58.8179],[17.5279,58.8081],[17.5195,58.8061],[17.5209,58.8179]]],[[[18.6091,59.4391],[18.6209,59.4309],[18.6117,59.4303],[18.6091,59.4391]]],[[[21.7527,60.4277],[21.7613,60.4207],[21.7525,60.4203],[21.7527,60.4277]]],[[[22.4063,60.1383],[22.4089,60.1361],[22.4053,60.1321],[22.4063,60.1383]]],[[[17.7763,58.9101],[17.7765,58.9033],[17.7683,58.9071],[17.7763,58.9101]]],[[[22.0927,60.1573],[22.0955,60.1559],[22.0903,60.1523],[22.0927,60.1573]]],[[[18.7309,59.4941],[18.7543,59.4935],[18.7431,59.4905],[18.7309,59.4941]]],[[[21.2135,60.8383],[21.2231,60.8265],[21.2171,60.8265],[21.2135,60.8383]]],[[[22.4755,58.1509],[22.4783,58.1487],[22.4693,58.1361],[22.4755,58.1509]]],[[[21.7411,60.3353],[21.7433,60.3333],[21.7161,60.3357],[21.7411,60.3353]]],[[[18.4761,59.2987],[18.4835,59.2939],[18.4647,59.2967],[18.4761,59.2987]]],[[[18.5325,59.0839],[18.5315,59.0731],[18.5291,59.0721],[18.5325,59.0839]]],[[[11.1385,58.7381],[11.1433,58.7317],[11.1399,58.7297],[11.1385,58.7381]]],[[[21.3581,60.6635],[21.3717,60.6525],[21.3697,60.6491],[21.3581,60.6635]]],[[[18.7281,59.4521],[18.7285,59.4481],[18.7115,59.4461],[18.7281,59.4521]]],[[[11.4973,54.0321],[11.5025,54.0301],[11.4981,54.0231],[11.4973,54.0321]]],[[[18.2325,59.0769],[18.2435,59.0729],[18.2427,59.0705],[18.2325,59.0769]]],[[[18.6345,60.2347],[18.6545,60.2219],[18.6309,60.2311],[18.6345,60.2347]]],[[[20.9269,60.0327],[20.9309,60.0323],[20.9245,60.0215],[20.9269,60.0327]]],[[[18.3247,59.1181],[18.3255,59.1161],[18.3031,59.1113],[18.3247,59.1181]]],[[[20.7343,60.2683],[20.7319,60.2557],[20.7229,60.2611],[20.7343,60.2683]]],[[[25.0657,60.1061],[25.0737,60.1051],[25.0533,60.0989],[25.0657,60.1061]]],[[[17.4813,58.6927],[17.4893,58.6815],[17.4779,58.6861],[17.4813,58.6927]]],[[[18.8631,59.3267],[18.8689,59.3209],[18.8501,59.3213],[18.8631,59.3267]]],[[[18.5249,57.1299],[18.5287,57.1277],[18.5169,57.1203],[18.5249,57.1299]]],[[[13.5139,45.7409],[13.5139,45.7385],[13.5067,45.7381],[13.5139,45.7409]]],[[[29.1197,40.8347],[29.1289,40.8335],[29.1227,40.8297],[29.1197,40.8347]]],[[[18.6351,59.0979],[18.6303,59.0859],[18.6271,59.0951],[18.6351,59.0979]]],[[[18.7743,59.6681],[18.7917,59.6707],[18.7819,59.6637],[18.7743,59.6681]]],[[[22.4163,60.1347],[22.4279,60.1377],[22.4227,60.1309],[22.4163,60.1347]]],[[[11.0591,54.8585],[11.0641,54.8517],[11.0555,54.8475],[11.0591,54.8585]]],[[[21.6691,60.4895],[21.6733,60.4831],[21.6639,60.4829],[21.6691,60.4895]]],[[[18.7283,59.2397],[18.7339,59.2353],[18.7309,59.2275],[18.7283,59.2397]]],[[[13.1253,54.5495],[13.1257,54.5445],[13.1177,54.5415],[13.1253,54.5495]]],[[[21.3279,60.5753],[21.3365,60.5743],[21.3283,60.5689],[21.3279,60.5753]]],[[[21.5475,60.3283],[21.5529,60.3251],[21.5493,60.3221],[21.5475,60.3283]]],[[[22.6633,59.9455],[22.6701,59.9403],[22.6659,59.9381],[22.6633,59.9455]]],[[[23.4291,59.8641],[23.4363,59.8603],[23.4289,59.8565],[23.4291,59.8641]]],[[[18.6543,60.2875],[18.6589,60.2827],[18.6559,60.2819],[18.6543,60.2875]]],[[[21.1963,60.3175],[21.1991,60.3137],[21.1913,60.3101],[21.1963,60.3175]]],[[[18.8089,59.1561],[18.8183,59.1543],[18.8105,59.1499],[18.8089,59.1561]]],[[[21.6751,60.5097],[21.6907,60.5041],[21.6847,60.5027],[21.6751,60.5097]]],[[[18.5385,59.0259],[18.5485,59.0273],[18.5389,59.0191],[18.5385,59.0259]]],[[[21.5025,60.5727],[21.5165,60.5675],[21.5043,60.5681],[21.5025,60.5727]]],[[[9.7391,59.0575],[9.7451,59.0487],[9.7395,59.0483],[9.7391,59.0575]]],[[[18.2235,59.3323],[18.2293,59.3219],[18.2181,59.3329],[18.2235,59.3323]]],[[[21.4483,61.2129],[21.4517,61.2095],[21.4381,61.2113],[21.4483,61.2129]]],[[[22.2653,60.3799],[22.2587,60.3785],[22.2419,60.3835],[22.2653,60.3799]]],[[[21.4753,60.5827],[21.4705,60.5813],[21.4649,60.5863],[21.4753,60.5827]]],[[[21.0001,60.2519],[21.0001,60.2447],[20.9985,60.2461],[21.0001,60.2519]]],[[[22.3517,60.3667],[22.3425,60.3661],[22.3341,60.3695],[22.3517,60.3667]]],[[[21.7629,60.4779],[21.7697,60.4753],[21.7639,60.4745],[21.7629,60.4779]]],[[[18.0895,58.9749],[18.0851,58.9695],[18.0787,58.9675],[18.0895,58.9749]]],[[[21.7477,60.4833],[21.7549,60.4807],[21.7501,60.4805],[21.7477,60.4833]]],[[[17.9421,58.8743],[17.9421,58.8727],[17.9309,58.8665],[17.9421,58.8743]]],[[[20.7151,60.2139],[20.7131,60.2113],[20.7125,60.2181],[20.7151,60.2139]]],[[[18.3009,59.4091],[18.3023,59.4073],[18.2969,59.4075],[18.3009,59.4091]]],[[[21.3729,60.7261],[21.3731,60.7241],[21.3711,60.7245],[21.3729,60.7261]]],[[[10.7987,59.1937],[10.7957,59.1905],[10.7955,59.1907],[10.7987,59.1937]]],[[[18.1949,59.0499],[18.1951,59.0497],[18.1945,59.0495],[18.1949,59.0499]]]]}}]}